{"type":"node","id":2769486127,"lat":13.9092770,"lon":100.4908590,"tags":{"addr:city":"ตำบลเกาะเกร็ด","addr:district":"อำเภอปากเกร็ด","addr:housenumber":"หมู่ 1","addr:place":"เกาะเกร็ด","addr:postcode":"WF5R+P89 , 11120","addr:province":"นนทบุรี","addr:street":"ทางรอบเกาะ","addr:subdistrict":"ตำบล เกาะเกร็ด","amenity":"bar","check_date":"2025-08-16","check_date:currency:XBT":"2025-08-16","contact:email":"wichit.saiklao@gmail.com","contact:facebook":"https://www.facebook.com/Chitbeer","currency:XBT":"yes","description":"homebrew microbrew craft beer","name":"Chitbeer","opening_hours":"Sa,Su 12:00-21:00","payment:lightning":"yes","payment:lightning_contactless":"no","payment:onchain":"no","phone":"+66 89 799 1123","survey:date":"2025-03-09","website":"https://chitbrewery.com/"}}
{"type":"node","id":8355290841,"lat":13.8268083,"lon":100.3751502,"tags":{"addr:city":"บางม่วง","addr:district":"อำเภอบางใหญ่","addr:housenumber":"53/75","addr:postcode":"11140","addr:province":"นนทบุรี","addr:street":"ซอย สันติธรรม 2","addr:subdistrict":"ตำบล บางม่วง","amenity":"cafe","check_date":"2025-08-10","check_date:currency:XBT":"2025-08-10","contact:facebook":"https://www.facebook.com/sisterhoodxcafe","contact:instagram":"https://www.instagram.com/sisterhoodxcafe/","cuisine":"coffee;bakery","currency:XBT":"yes","description":"Homemade bakery & coffee.","internet_access":"yes","name":"sisterhood.cafe","opening_hours":"Sa,Su 09:00-18:00","outdoor_seating":"yes","payment:cash":"yes","payment:lightning":"yes","payment:lightning_contactless":"no","payment:onchain":"no","phone":"+66 95 895 4367","smoking":"outside"}}
{"type":"node","id":8852052849,"lat":13.8205900,"lon":100.5965875,"tags":{"addr:district":"Lat Phrao","addr:housenumber":"36/88","addr:postcode":"10230","addr:province":"Bankok","addr:street":"ถนนสตรีวิทยา 2","addr:subdistrict":"Lat Phrao","check_date":"2025-09-06","check_date:currency:XBT":"2025-09-06","contact:facebook":"https://www.facebook.com/hatohair","contact:phone":"+66 94 768 8282","currency:XBT":"yes","female":"yes","male":"yes","name":"Hato Hairstylist Chokchai 4","opening_hours":"Mo-Su 10:00-21:00","operator":"ช่างฮาร์ท","payment:cash":"yes","payment:lightning":"yes","payment:lightning_contactless":"no","payment:onchain":"no","shop":"hairdresser","survey:date":"2025-09-01"}}
{"type":"node","id":8945483894,"lat":13.7783283,"lon":100.6475264,"tags":{"addr:city":"แขวงคลองจั่น","addr:district":"บางกะปิ","addr:housenumber":"685/2","addr:postcode":"10240","addr:province":"กรุงเทพมหานคร","addr:street":"นวมินทร์ 14","addr:subdistrict":"คลองจั่น","amenity":"cafe","check_date":"2025-08-10","check_date:currency:XBT":"2025-08-10","contact:facebook":"https://www.facebook.com/BELUGACoffandJuice/","cuisine":"coffee_shop","currency:XBT":"yes","email":"belugacoffandjuice@gmail.com","internet_access":"wlan","internet_access:fee":"no","name":"Beluga Coff & Juice","opening_hours":"Mo-Su 07:00-18:00","outdoor_seating":"yes","payment:lightning":"yes","payment:lightning_contactless":"no","payment:onchain":"no","phone":"+66 97 248 2126","survey:date":"2025-08-10"}}
{"type":"node","id":9570047617,"lat":13.7239695,"lon":100.5791683,"tags":{"addr:district":"วัฒนา","addr:housenumber":"1057","addr:postcode":"10110","addr:province":"กรุงเทพมหานคร","addr:street":"ถนนสุขุมวิท","addr:subdistrict":"คลองเตยเหนือ","check_date":"2025-08-15","check_date:currency:XBT":"2025-08-15","contact:facebook":"palette.artspace","contact:instagram":"https://www.instagram.com/palette.artspace/","currency:XBT":"yes","description":"An art gallery and cafe offering coffee, beer, artwork and paintings.","email":"palette.artspace@gmail.com","name":"Palette Art Space","opening_hours":"Mo-Su 07:30-20:00","payment:lightning":"yes","payment:lightning_contactless":"no","payment:onchain":"no","phone":"+66 64 587 6788","survey:date":"2025-08-15","tourism":"gallery","website":"https://www.palettebkk.com/"}}
{"type":"node","id":10067999408,"lat":13.7366503,"lon":100.5303281,"tags":{"addr:district":"ปทุมวัน","addr:housenumber":"254","addr:place":"คณะวิทยาศาสตร์ ตึกแถบนีละนิธิ sci co-study space","addr:postcode":"10330","addr:province":"กรุงเทพมหานคร","addr:street":"ถนนพญาไท","addr:subdistrict":"ปทุมวัน","amenity":"cafe","check_date":"2025-08-13","check_date:currency:XBT":"2025-08-13","contact:facebook":"https://www.facebook.com/terracottakaff","cuisine":"coffee_shop","currency:XBT":"yes","email":"terracotta.coffeeroaster@gmail.com","name":"Terracotta Coffee","opening_hours":"Mo-Fr 07:00-17:00; Sa 09:00-16:00","payment:cash":"yes","payment:contactless":"yes","payment:lightning":"yes","payment:lightning_contactless":"yes","payment:onchain":"no","phone":"+66 90 976 6184","surrey:date":"2025-08-06"}}
{"type":"node","id":10844099391,"lat":13.9864200,"lon":100.6152516,"tags":{"addr:city":"ตำบลประชาธิปัตย์","addr:housenumber":"55","addr:postcode":"12130","addr:street":"ถนนพหลโยธิน","amenity":"cafe","contact:facebook":"https://www.facebook.com/papacafe.trang","cuisine":"coffee_shop;coffee","name":"ปาป้า คอฟฟี่","name:en":"PaPa Café","opening_hours":"Mo-Su 07:00-19:00","payment:cash":"yes","phone":"+66 95 626 2494","survey:date":"2023-04-26"}}
{"type":"node","id":10864133709,"lat":13.6796572,"lon":100.5287903,"tags":{"addr:housenumber":"649, 651","addr:postcode":"10120","addr:province":"กรุงเทพมหานคร","addr:street":"ถนนพระรามที่ 3","check_date":"2024-03-07","check_date:currency:XBT":"2025-01-02","craft":"photographer","currency:XBT":"yes","name":"New York Studio Bangkok","payment:lightning":"yes","payment:onchain":"yes","phone":"+66970090999","website":"https://newyorkstudiobkk.com/"}}
{"type":"node","id":10893965444,"lat":13.6762888,"lon":100.6089916,"tags":{"addr:city":"แขวงบางนาใต้","addr:housenumber":"416/9","addr:postcode":"10260","addr:street":"สุขุมวิท 103/2","cuisine":"cannabis","name":"Coughing Apes - Weed cafe's","opening_hours":"Mo-Su 11:00-23:00","payment:cash":"yes","payment:lightning":"yes","payment:lightning_contactless":"no","payment:onchain":"no","shop":"cannabis"}}
{"type":"node","id":10968574636,"lat":14.0567271,"lon":100.6849955,"tags":{"addr:city":"Pathum Thani","addr:district":"คลองหลวง","addr:housenumber":"21/8","addr:place":"หมู่ที่ 5","addr:postcode":"12120","addr:province":"ปทุมธานี","addr:street":"ซอยชมเงิน","addr:subdistrict":"คลองสี่","check_date":"2025-09-16","check_date:currency:XBT":"2025-09-16","contact:email":"jahboy2002@gmail.com","contact:facebook":"https://www.facebook.com/people/Talk-ka-tree/100076089896024/","contact:instagram":"https://www.instagram.com/talk_ka_tree/","currency:XBT":"yes","name":"Talk Ka Tree","opening_hours":"Mo-Su 09:00-18:00","operator":"Matiphat Cherdsuk","payment:cash":"yes","payment:lightning":"yes","payment:lightning_contactless":"no","payment:onchain":"no","phone":"+66 85 112 9097","shop":"garden_centre"}}
{"type":"node","id":11282924170,"lat":13.7434702,"lon":100.5100708,"tags":{"addr:district":"ป้อมปราบศัตรูพ่าย","addr:housenumber":"23","addr:postcode":"10100","addr:province":"กรุงเทพมหานคร","addr:street":"ตรอกอิศรานุภาพ","addr:subdistrict":"ป้อมปราบ","amenity":"restaurant","check_date":"2025-08-29","check_date:currency:XBT":"2025-08-29","contact:facebook":"https://www.facebook.com/share/1ZBMcFJSY9/?mibextid=wwXIfr","cuisine":"thai;chinese","currency:XBT":"yes","diet:meat":"yes","name":"จกโต๊ะเดียว","name:en":"Jok one Table Dumplings","opening_hours":"Mo-Su 08:00-18:30","payment:lightning":"yes","payment:lightning_contactless":"no","payment:onchain":"no","phone":"+66 81 919 9468","survey:date":"2025-08-29"}}
{"type":"node","id":11518287796,"lat":13.7537114,"lon":100.7171276,"tags":{"amenity":"pharmacy","currency:XBT":"yes","email":"bacarepharma.bkk@gmail.com","healthcare":"pharmacy","healthcare:speciality":"pharmacology","name":"ร้านยาบี แคร์ ฟาร์มา","name:en":"B Care Pharma","name:th":"ร้านยาบี แคร์ ฟาร์มา","operator:type":"business","payment:lightning":"yes","phone":"+66 98 947 1944","survey:date":"2025-03-08"}}
{"type":"node","id":11801445668,"lat":13.7975831,"lon":100.5727029,"tags":{"addr:city":"แขวงรัชดาภิเษก","addr:housenumber":"188","addr:postcode":"10400","addr:street":"ซอยวิภาวดีรังสิต 16/28","amenity":"cafe","check_date":"2025-03-02","check_date:currency:XBT":"2025-03-19","contact:instagram":"do.drip","cuisine":"coffee_shop","currency:XBT":"yes","internet_access":"no","name":"do drip coffee","opening_hours":"We-Su 07:30-17:00","outdoor_seating":"yes","payment:lightning":"yes","payment:lightning_contactless":"no","payment:onchain":"no","phone":"0891257299"}}
{"type":"node","id":12141608846,"lat":13.7751196,"lon":100.5623687,"tags":{"amenity":"fast_food","check_date":"2025-03-02","check_date:currency:XBT":"2025-04-02","contact:facebook":"theburgestdelivery","cuisine":"burger","currency:XBT":"yes","name":"The Burgest","opening_hours":"Mo 10:30-22:00; We-Su 10:30-22:30","payment:cash":"yes","payment:cashless":"yes","payment:lightning":"yes","payment:lightning_contactless":"yes","payment:onchain":"no","phone":"+66 94 878 0433"}}
{"type":"node","id":12210708407,"lat":13.7899076,"lon":100.5622975,"tags":{"addr:district":"ดินแดง","addr:postcode":"10400","addr:province":"กรุงเทพมหานคร","addr:street":"ซอยวิภาวดีรังสิต 10","addr:subdistrict":"รัชดาภิเษก","amenity":"marketplace","building":"detached","currency:THB":"yes","email":"boltring99@gmail.com","name":"BoltRing - BoltKey","name:en":"BoltRing - BoltKey","payment:lightning":"yes","payment:onchain":"yes","survey:date":"2024-09-30","website":"https://geyser.fund/project/boltring"}}
{"type":"node","id":12304722062,"lat":13.6949362,"lon":100.6485721,"tags":{"addr:floor":"G","addr:housenumber":"55","addr:place":"Seacon Square Srinagarindra","addr:postcode":"10250","addr:province":"กรุงเทพมหานคร","amenity":"cafe","bar":"yes","branch":"Seacon Square","check_date":"2025-08-09","check_date:currency:XBT":"2025-08-09","contact:facebook":"gattacafe","contact:instagram":"gattacafe","cuisine":"coffee_shop","currency:XBT":"yes","name":"Gatta Café - Seacon Square","opening_hours":"Mo-Fr 10:30-19:30; Sa-Su 10:00-19:30","payment:lightning":"yes","payment:lightning_contactless":"no","payment:onchain":"no","phone":"+66 96 268 5522","survey:date":"2024-11-01","website":"https://www.gattacafe.com/"}}
{"type":"node","id":12304843378,"lat":13.7446219,"lon":100.5339600,"tags":{"addr:district":"ปทุมวัน","addr:floor":"2","addr:housenumber":"388","addr:postcode":"10330","addr:province":"กรุงเทพมหานคร","addr:street":"ถนนพระรามที่ 1","addr:subdistrict":"ปทุมวัน","amenity":"cafe","bar":"yes","branch":"Siam Square One","check_date":"2025-08-09","check_date:currency:XBT":"2025-08-09","contact:facebook":"gattacafesiamsquareone","contact:instagram":"gattacafe","cuisine":"coffee_shop","currency:XBT":"yes","name":"Gatta Café - Siam Square One","opening_hours":"Mo-Su 10:00-19:30","payment:lightning":"yes","payment:lightning_contactless":"no","payment:onchain":"no","phone":"+66 96 245 2929","website":"https://www.gattacafe.com/"}}
{"type":"node","id":12304859418,"lat":13.7277114,"lon":100.5337048,"tags":{"addr:district":"บางรัก","addr:floor":"L","addr:housenumber":"1","addr:place":"Park Silom Building","addr:postcode":"10500","addr:province":"กรุงเทพมหานคร","addr:street":"ถนนคอนแวนต์","addr:subdistrict":"สุริยวงศ์","amenity":"cafe","bar":"yes","branch":"Park Silom","check_date":"2025-08-09","check_date:currency:XBT":"2025-08-09","contact:facebook":"gattacafe","contact:instagram":"gattacafe","cuisine":"coffee_shop","currency:XBT":"yes","name":"Gatta Café - Park Silom","opening_hours":"Mo-Fr 07:00-18:00; Sa-Su 07:00-17:00","payment:lightning":"yes","payment:lightning_contactless":"no","payment:onchain":"no","phone":"+66 96 079 8822","survey:date":"2024-11-02","website":"https://www.gattacafe.com/"}}
{"type":"node","id":12430456420,"lat":13.8552093,"lon":100.6825913,"tags":{"addr:district":"khlongsamwa","addr:housenumber":"58:69","addr:place":"praphasab3","addr:postcode":"10510","addr:province":"bkk","addr:street":"khunon","addr:subdistrict":"bangchan","name":"De'rish homemade bakery","opening_hours":"Mo-Su 09:00-21:00","operator":"De'rish homemade bakery","payment:cash":"yes","payment:lightning":"yes","phone":"0891267009","shop":"bakery"}}
{"type":"node","id":12446800633,"lat":13.7996961,"lon":100.5502339,"tags":{"check_date:currency:XBT":"2024-12-23","currency:XBT":"yes","description":"A little shop selling the precious memorable game and toy especially, console, game boy and other classical games and toys for whom interesting in art toy collections","email":"sangchai.s999@gmail.com","name":"TToy & Game","opening_hours":"Mo-Su 10:00-19:00","payment:lightning":"yes","phone":"(+66)7826614","shop":"toys","website":"https://www.facebook.com/profile.php?id=61557272627995"}}
{"type":"node","id":12466870068,"lat":13.7989435,"lon":100.5952318,"tags":{"addr:district":"วังทองหลาง","addr:housenumber":"171/1","addr:place":"ทิพรัตน์อพาร์ทเม้น","addr:postcode":"10310","addr:province":"กรุงเทพมหานคร","addr:street":"โชคชัย 4","addr:subdistrict":"สะพานสอง","check_date":"2025-01-09","currency:THB":"yes","currency:XBT":"yes","facebook":"https://www.facebook.com/changnoipawn","line":"https://line.me/R/ti/p/%40changnoi","name":"ช้างน้อยพอนชอป","name:en":"Chagnoi Pawn Shop","name:th":"ช้างน้อยพอนชอป","opening_hours":"Mo-Sa 10:30-19:30","payment:app":"yes","payment:cash":"yes","payment:lightning":"yes","payment:lightning_contactless":"yes","payment:notes":"yes","payment:onchain":"no","phone":"+66923979996","second_hand":"yes","shop":"second_hand","website":"https://www.changnoipawnshop.com/"}}
{"type":"node","id":12484646160,"lat":13.7938314,"lon":100.5060739,"tags":{"addr:district":"บางพลัด","addr:housenumber":"140","addr:postcode":"10700","addr:province":"กรุงเทพมหานคร","addr:street":"ถนนจรัญสนิทวงศ์","addr:subdistrict":"บางอ้อ","amenity":"restaurant","check_date":"2025-09-11","check_date:currency:XBT":"2025-09-11","contact:email":"naritabkk@gmail.com","contact:facebook":"https://www.facebook.com/profile.php?id=61554315594436","contact:instagram":"https://www.instagram.com/naritaizakaya","cuisine":"japanese;izakaya","currency:XBT":"yes","name":"นาริตะ อิซากายะ ซอยจรัญ 78","name:en":"Narita Izakaya Soi 78","opening_hours":"Mo-Su 17:00-24:00","payment:coinos":"yes","payment:lightning":"yes","payment:lightning_contactless":"no","payment:onchain":"no","phone":"+66 89 181 50002","survey:date":"2025-09-11"}}
{"type":"node","id":12485881682,"lat":13.8375587,"lon":100.4129209,"tags":{"addr:country":"TH","addr:district":"บางใหญ่","addr:housenumber":"28/12","addr:place":"หมู่ 11","addr:postcode":"11140","addr:province":"นนทบุรี","addr:street":"ถนนกาญจนาภิเษก","addr:subdistrict":"บางม่วง","check_date":"2025-09-07","check_date:currency:XBT":"2025-09-07","contact:facebook":"https://www.facebook.com/Busarinbakery","cuisine":"dessert","currency:XBT":"yes","name":"Busarin Bakery","name:th":"บุษรินทร์เบเกอรี่","opening_hours":"Mo-Su 09:00-20:00","operator":"Teemie","payment:cash":"yes","payment:lightning":"yes","payment:lightning_contactless":"yes","payment:onchain":"no","phone":"+66 86 982 7781","shop":"bakery"}}
{"type":"node","id":12493053971,"lat":13.5757127,"lon":100.6666969,"tags":{"check_date:currency:XBT":"2025-01-11","currency:XBT":"yes","email":"sahacomitgroup@gmail.com","name":"ร้านค้า เจซิตี้ ซ.12","opening_hours":"Mo-Su 08:00-20:00","payment:lightning":"yes","shop":"convenience"}}
{"type":"node","id":12497451991,"lat":13.6110919,"lon":100.6377345,"tags":{"addr:district":"Bang Mueang","addr:housenumber":"99/234","addr:postcode":"10270","addr:province":"Samut Prakan","addr:street":"Theparak Rd.","addr:subdistrict":"Mueang Samut Prakan","check_date":"2025-09-16","check_date:currency:XBT":"2025-09-16","currency:XBT":"yes","name":"Pooky & Team Salon","opening_hours":"Mo-Su 08:00-22:00","payment:app":"yes","payment:cash":"yes","payment:lightning":"yes","payment:lightning_contactless":"no","payment:onchain":"no","phone":"+66 87 100 2260","shop":"hairdresser","survey:date":"2025-01-14"}}
{"type":"node","id":12531276586,"lat":13.5966634,"lon":100.6015404,"tags":{"addr:district":"อำเภอเมืองสมุทรปราการ","addr:housenumber":"85/4","addr:postcode":"10270","addr:province":"สมุทรปราการ","addr:street":"ถนนเทศบาล 12","addr:subdistrict":"ตำบลปากน้ำ","amenity":"restaurant","check_date":"2025-08-08","check_date:currency:XBT":"2025-08-08","cuisine":"noodle","currency:XBT":"yes","name":"ก๋วยเตี๋ยวเนื้อ หัวน้ำวน","opening_hours":"Mo-Su 06:00-16:00","payment:lightning":"yes","payment:lightning_contactless":"no","payment:onchain":"no","phone":"+66 89 536 7422","survey:date":"2025-08-08"}}
{"type":"node","id":12548626104,"lat":14.0055976,"lon":100.6991756,"tags":{"addr:district":"ธัญบุรี","addr:housenumber":"10/12","addr:place":"ตลาดพาเจริญ","addr:postcode":"12120","addr:province":"ปทุมธานี","addr:street":"ถนนรังสิต-นครนายก","addr:subdistrict":"บึงยี่โถ","amenity":"restaurant","check_date":"2025-08-13","check_date:currency:XBT":"2025-08-13","contact:facebook":"CharmThongklong5","cuisine":"noodle;thai","currency:XBT":"yes","diet:local":"yes","name":"ก๋วยเตี๋ยว​เรือ​ชามทอง รังสิต คลอง 5","opening_hours":"Mo-Fr 08:00-17:00; Sa,Su 08:00-18:00","payment:lightning":"yes","payment:lightning_contactless":"no","payment:onchain":"no","phone":"+66 64 517 5544","survey:date":"2025-08-06","url":"https://maps.app.goo.gl/gMPY2SnUr95pTLwt8?g_st=com.google.maps.preview.copy"}}
{"type":"node","id":12565849568,"lat":13.8748051,"lon":100.6484191,"tags":{"addr:district":"บางเขน","addr:housenumber":"682","addr:postcode":"10220","addr:province":"กรุงเทพ","addr:street":"ถนนเทพรักษ์","addr:subdistrict":"ท่าแร้ง","name":"เจริญผล Farm & Garden","opening_hours":"Mo-Su 10:00-19:00","operator":"เจริญผล Farm & Garden","payment:app":"yes","payment:cash":"yes","payment:lightning":"yes","phone":"+66987824635","shop":"garden_centre"}}
{"type":"node","id":12578959348,"lat":13.6208631,"lon":100.6178921,"tags":{"addr:district":"เมือง","addr:housenumber":"19/180","addr:postcode":"10270","addr:province":"สมุทรปราการ","addr:street":"ศรีเพชรการเคหะ ซอย 4","addr:subdistrict":"บางเมืองใหม่","amenity":"cafe","check_date":"2025-09-16","check_date:currency:XBT":"2025-09-16","contact:email":"longkongcafe@gmail.com","contact:facebook":"https://www.facebook.com/longkongcafe","cuisine":"coffee_shop","currency:XBT":"yes","name":"Lonkong cafe","opening_hours":"Sa-Su 09:00-18:00","outdoor_seating":"yes","payment:lightning":"yes","payment:lightning_contactless":"no","payment:onchain":"no","phone":"+66 89 212 7971"}}
{"type":"node","id":12578966799,"lat":13.5926392,"lon":100.5984521,"tags":{"addr:district":"mueang","addr:housenumber":"378","addr:place":"หน้า วัดกลาง","addr:postcode":"10270","addr:province":"samutprakan","addr:street":"ถนนกายสิทธิ์","addr:subdistrict":"paknam","amenity":"cafe","check_date":"2025-08-14","check_date:currency:XBT":"2025-08-14","contact:facebook":"https://www.facebook.com/profile.php?id=61559402850021","contact:instagram":"ramita_coffee_and_bistro","cuisine":"coffee_shop;bistro","currency:XBT":"yes","name":"Ramita Coffee & Bistro","opening_hours":"Mo-Th 07:00-17:00; Fr-Su 07:00-22:00","outdoor_seating":"yes","payment:lightning":"yes","payment:lightning_contactless":"no","payment:onchain":"no","phone":"+66 62 882 9639","survey:date":"2025-08-14"}}
{"type":"node","id":12600858098,"lat":13.7303766,"lon":100.7324716,"tags":{"addr:district":"ลาดกระบัง","addr:housenumber":"36/54","addr:place":"Bangkok","addr:postcode":"10520","addr:province":"กรุงเทพมหานคร","addr:street":"ถนนกรุงเทพฯ-ชลบุรี","addr:subdistrict":"คลองสองต้นนุ่น","amenity":"cafe","check_date":"2025-08-15","check_date:currency:XBT":"2025-08-15","contact:email":"cs@coffeecompany.asia","contact:facebook":"coffeecompanythailand","contact:instagram":"coffeecompanythailand","cuisine":"coffee_shop","currency:XBT":"yes","description":"Coffee Change The World","name":"Coffee Company - RK Biz Center","opening_hours":"Mo-Fr 07:30-16:00; Sa-Su 08:00-16:00","payment:lightning":"yes","payment:lightning_contactless":"yes","payment:onchain":"no","phone":"+66 24 740 153","survey:date":"2025-08-06","website":"https://www.coffeecompany.asia/"}}
{"type":"node","id":12622284690,"lat":13.8410050,"lon":100.5727981,"tags":{"addr:district":"จตุจักร","addr:housenumber":"21/17","addr:place":"Floor 2","addr:postcode":"10900","addr:province":"กรุงเทพมหานคร","addr:street":"งามวงศ์วาน 56","addr:subdistrict":"ลาดยาว","amenity":"cafe","check_date":"2025-08-13","check_date:currency:XBT":"2025-08-13","contact:facebook":"https://www.facebook.com/rungarooncoffeebar","contact:instagram":"https://www.instagram.com/rung.arooncoffee","cuisine":"coffee_shop","currency:XBT":"yes","name":"รุ่งอรุณ คาเฟ่","name:en":"Rung Aroon Coffee Bar","name:th":"รุ่งอรุณ คาเฟ่","opening_hours":"Mo-Su 07:00-17:00","payment:cash":"yes","payment:lightning":"yes","payment:lightning_contactless":"no","payment:onchain":"no","phone":"+66 80 441 2131","survey:date":"2025-08-08"}}
{"type":"node","id":12624732106,"lat":14.0696113,"lon":100.6044915,"tags":{"addr:district":"อำเภอคลองหลวง","addr:place":"Canteen SC2","addr:postcode":"12120","addr:province":"ปทุมธานี","addr:street":"ถนนป๋วย อิ้งภากรณ์","addr:subdistrict":"ตำบล คลองหนึ่ง","amenity":"ice_cream","check_date":"2025-08-19","check_date:currency:XBT":"2025-08-19","contact:email":"burta38@hotmail.com","contact:facebook":"https://www.facebook.com/profile.php?id=61571976938605","contact:instagram":"https://www.instagram.com/beyondsoftserve/","currency:XBT":"yes","name":"Beyond Softserve","opening_hours":"Mo-Sa 08:30-17:00","payment:lightning":"yes","payment:lightning_contactless":"no","payment:onchain":"no","phone":"+66 92 063 6556","survey:date":"2025-08-19"}}
{"type":"node","id":12640866389,"lat":13.7836685,"lon":100.5005494,"tags":{"addr:district":"เขตบางพลัด","addr:housenumber":"439","addr:postcode":"10700","addr:province":"กรุงเทพมหานคร","addr:street":"ถนนราชวิถี","addr:subdistrict":"แขวงบางพลัด","amenity":"bar","check_date":"2025-08-16","check_date:currency:XBT":"2025-07-19","contact:facebook":"https://www.facebook.com/chitholeofficial","currency:XBT":"yes","name":"Chit Hole Royal River","opening_hours":"Mo-Su 17:00-00:00","payment:cash":"yes","payment:lightning":"yes","payment:lightning_contactless":"no","payment:onchain":"no","phone":"+66 64 954 6616","website":"https://chitholding.com/"}}
{"type":"node","id":12640892188,"lat":13.9270987,"lon":100.5340815,"tags":{"addr:district":"อำเภอปากเกร็ด","addr:housenumber":"50,84","addr:postcode":"11120","addr:province":"นนทบุรี","addr:street":"เมืองทองธานีโครงการ 6 ซอย D1","addr:subdistrict":"ตำบลบ้านใหม่","amenity":"bar","check_date":"2025-08-16","check_date:currency:XBT":"2025-08-16","contact:facebook":"https://www.facebook.com/profile.php?id=61554295914546","currency:XBT":"yes","name":"Chit Hole Muangthong","opening_hours":"Fr-Su 17:00-00:00","payment:cash":"yes","payment:lightning":"yes","payment:lightning_contactless":"no","payment:onchain":"no","phone":"+66 89 125 0233","survey:date":"2025-08-16","website":"https://chitholding.com/"}}
{"type":"node","id":12640894703,"lat":13.7300773,"lon":100.5315367,"tags":{"addr:district":"บางรัก","addr:housenumber":"54","addr:place":"montien mall","addr:postcode":"10500","addr:province":"กรุงเทพมหานคร","addr:street":"ถนนสุรวงศ์","addr:subdistrict":"สี่พระยา","amenity":"bar","check_date":"2025-08-16","check_date:currency:XBT":"2025-08-16","contact:facebook":"chitholeofficial","currency:XBT":"yes","name":"Chit Hole Surawong","opening_hours":"18:00-01:00; Th,Fr 18:00-02:00","payment:lightning":"yes","payment:lightning_contactless":"no","payment:onchain":"no","phone":"+66 64 954 6616","survey:date":"2025-08-06","website":"https://chitholding.com/"}}
{"type":"node","id":12645411669,"lat":13.7207245,"lon":100.4768818,"tags":{"addr:postcode":"10600","amenity":"restaurant","check_date":"2025-04-02","contact:facebook":"https://www.facebook.com/J.AengFood","currency:XBT":"yes","email":"j.aengfood@gmail.com","name":"กระเพาะปลาเจ๊เอ็ง ตลาดพลู","name:en":"J.Aeng Fish maw soup","name:th":"กระเพาะปลาเจ๊เอ็ง ตลาดพลู","payment:cash":"yes","payment:lightning":"yes","payment:lightning_contactless":"yes","payment:onchain":"yes","phone":"0819267040"}}
{"type":"node","id":12645466745,"lat":13.7202791,"lon":100.5600220,"tags":{"addr:district":"คลองเตย","addr:housenumber":"2525","addr:postcode":"10110","addr:province":"กรุงเทพมหานคร","addr:street":"ถนนพระรามที่ 4","addr:subdistrict":"คลองเตย","amenity":"restaurant","check_date":"2025-04-03","contact:facebook":"https://www.facebook.com/TakeaBowl.Salad/","contact:instagram":"https://www.instagram.com/takeabowl.salad/","currency:XBT":"yes","name":"Take a Bowl (FYI Center)","payment:lightning":"yes","phone":"0989319312","website":"https://takeabowl.com/"}}
{"type":"node","id":12645513299,"lat":13.7379688,"lon":100.4949810,"tags":{"addr:postcode":"10600","amenity":"restaurant","check_date":"2025-03-08","contact:facebook":"https://www.facebook.com/naunmooping","contact:line":"https://lin.ee/mimbogI","currency:XBT":"yes","fixme":"Could be a delivery service (not mappable in this case)","name":"นวลหมูปิ้ง","payment:cash":"yes","payment:lightning":"yes","payment:lightning_contactless":"yes","phone":"0826982355"}}
{"type":"node","id":12645532501,"lat":13.9022157,"lon":100.3652683,"tags":{"addr:postcode":"11110","currency:XBT":"yes","name":"ร้านผักบุษบา","payment:lightning":"yes","payment:lightning_contactless":"yes","phone":"0905231315","shop":"greengrocer"}}
{"type":"node","id":12658170647,"lat":13.9852831,"lon":100.6257870,"tags":{"addr:district":"อำเภอธัญบุรี","addr:place":"ตลาดสดสะพานแดง","addr:postcode":"12130","addr:province":"ปทุมธานี","addr:street":"ซอยรังสิต-นครนายก 14","addr:subdistrict":"ตำบล ประชาธิปัตย์","amenity":"bar","check_date":"2025-08-16","check_date:currency:XBT":"2025-08-16","contact:facebook":"https://www.facebook.com/chitholeofficial","currency:XBT":"yes","name":"Chit Hole Rangsit Rooftop","opening_hours":"We-Su 17:00-00:00","payment:lightning":"yes","payment:lightning_contactless":"no","payment:onchain":"no","phone":"+66 64 954 6616","survey:date":"2025-08-16","website":"https://chitholding.com/"}}
{"type":"node","id":12666638428,"lat":13.6660229,"lon":100.6478173,"tags":{"addr:district":"บางนา","addr:place":"AIA East Gateway Tower บางนา กม.4 (ชั้น 1)","addr:postcode":"10260","addr:province":"กรุงเทพมหานคร","addr:street":"ถนนเทพรัตน","addr:subdistrict":"บางนาเหนือ","check_date":"2025-09-13","check_date:currency:XBT":"2025-09-13","contact:email":"o33vision@gmail.com","contact:facebook":"O33-Vision-Solution-61558168798816","contact:instagram":"o33_vision","currency:XBT":"yes","description":"ศูนย์แว่นโปรเกรสซีฟ และเลนส์ชะลอสายตาสั้น","name":"o33 Vision","opening_hours":"Tu-Su 10:00-19:00","payment:lightning":"yes","payment:lightning_contactless":"no","payment:onchain":"yes","phone":"+66 80 084 3033","shop":"optician","website":"https://www.o33vision.com/"}}
{"type":"node","id":12675566950,"lat":13.5927293,"lon":100.5987065,"tags":{"addr:district":"mueang","addr:postcode":"10270","addr:province":"samutprakan","addr:street":"ถนนกายสิทธิ์","addr:subdistrict":"paknam","amenity":"restaurant","check_date":"2025-08-13","check_date:currency:XBT":"2025-08-13","cuisine":"thai","currency:XBT":"yes","diet:pork":"yes","name":"ข้าวหมูแดง สามชัย","name:en":"Roast pork Samchai","name:th":"ข้าวหมูแดง สามชัย","opening_hours":"08:00-15:00; We off","payment:lightning":"yes","payment:lightning_contactless":"no","payment:onchain":"no","phone":"+66 89 490 7414","survey:date":"2025-08-12"}}
{"type":"node","id":12675824868,"lat":13.6741412,"lon":100.5348541,"tags":{"addr:district":"ยานนาวา","addr:housenumber":"762/2","addr:postcode":"10120","addr:province":"กรุงเทพมหานคร","addr:street":"ถนนพระรามที่ 3","addr:subdistrict":"บางโพงพาง","amenity":"restaurant","check_date":"2025-09-11","check_date:currency:XBT":"2025-09-11","contact:email":"tigergyu56@gmail.com","contact:facebook":"https://www.facebook.com/profile.php?id=61572395384053","contact:instagram":"https://www.instagram.com/tigergyu.bkk","cuisine":"thai;japanese;barbecue;grill","currency:XBT":"yes","diet:beef":"yes","diet:meat":"yes","diet:pork":"yes","diet:vegetarian":"yes","name":"ไทเกอร์กิว หมูกระทะ","name:en":"TigerGyu BBQ","opening_hours":"Mo-Su 17:00-00:00","outdoor_seating":"yes","payment:cash":"yes","payment:lightning":"yes","payment:lightning_contactless":"no","payment:onchain":"no","phone":"+66 64 542 9659","toilets":"yes"}}
{"type":"node","id":12711070515,"lat":13.7219923,"lon":100.4458025,"tags":{"addr:district":"เขตภาษีเจริญ","addr:housenumber":"188","addr:postcode":"10160","addr:province":"กรุงเทพมหานคร","addr:subdistrict":"แขวงบางด้วน","amenity":"cafe","check_date":"2025-04-06","contact:line":"https://www.wongnai.com/restaurants/3001444KZ","currency:XBT":"yes","delivery":"yes","dine_in":"no","name":"Cocoa House","name:en":"Cocoa House","name:th":"โกโก้เฮ้าส์","opening_hours":"Mo-Fr 20:00-00:00 Sat-Sun 08:00-00:00","payment:lightning":"yes","phone":"0873555494"}}
{"type":"node","id":12733065017,"lat":13.7373376,"lon":100.5623274,"tags":{"addr:district":"วัฒนา","addr:housenumber":"11/2 P23 Building, Level 11,","addr:postcode":"10110","addr:province":"กรุงเทพมหานคร","addr:subdistrict":"คลองเตยเหนือ","check_date":"2025-04-06","check_date:currency:XBT":"2025-04-06","currency:XBT":"yes","name":"ABER Group Law Firm","office":"lawyer","opening_hours":"Mo-Fr 08:00-17:00","payment:lightning":"yes","payment:lightning_contactless":"no","payment:onchain":"yes","survey:date":"2025-04-06","website":"https://www.aberthailand.com"}}
{"type":"node","id":12745895479,"lat":13.8035407,"lon":100.6146545,"tags":{"addr:district":"ลาดพร้าว","addr:housenumber":"69/3, FL.1","addr:place":"Central Eastville","addr:postcode":"10230","addr:province":"กรุงเทพมหานคร","addr:street":"ถนนประดิษฐ์มนูธรรม","addr:subdistrict":"ลาดพร้าว","amenity":"cafe","bar":"yes","branch":"Central Eastville","check_date":"2025-08-09","check_date:currency:XBT":"2025-08-09","contact:facebook":"gattacafe","contact:instagram":"gattacafe","cuisine":"coffee_shop","currency:XBT":"yes","name":"Gatta Café - Central Eastville","opening_hours":"Mo-Fr 10:30-21:30; Sa-Su 10:00-21:30","payment:lightning":"yes","payment:lightning_contactless":"no","payment:onchain":"no","phone":"+66 84 252 8922","survey:date":"2025-04-11","website":"https://www.gattacafe.com/"}}
{"type":"node","id":12760942330,"lat":14.0490587,"lon":100.7471647,"tags":{"addr:district":"คลวงหลวง","addr:housenumber":"64/1","addr:place":"ล็อค G1-2, โซนหน้าตลาดอาม่า1000สุข","addr:postcode":"12120","addr:province":"Pathum Thani","addr:street":"ถนนธัญบุรี-วังน้อย","amenity":"pharmacy","check_date":"2025-08-13","check_date:currency:XBT":"2025-08-13","contact:facebook":"https://www.facebook.com/profile.php?id=61573509907059","currency:XBT":"yes","healthcare":"pharmacy","name":"คลังยาอาม่า - ตลาดอาม่า1000สุข","opening_hours":"Mo-Su 08:00-20:00","payment:lightning":"yes","payment:lightning_contactless":"no","payment:onchain":"no","phone":"+66 84 242 5162","survey:date":"2025-08-13"}}
{"type":"node","id":12763486241,"lat":14.0492334,"lon":100.7559884,"tags":{"addr:district":"หนองเสือ","addr:postcode":"12170","addr:province":"ปทุมธานี","addr:subdistrict":"บึงบอน","amenity":"marketplace","check_date":"2025-08-21","check_date:currency:XBT":"2025-08-21","contact:facebook":"https://www.facebook.com/porntisan6/","currency:XBT":"yes","name":"ตลาดนัดพรธิสาร6","opening_hours":"Mo-Su 15:00-21:00","payment:lightning":"yes","payment:lightning_contactless":"no","payment:onchain":"no","phone":"+66 96 535 1626"}}
{"type":"node","id":12765494314,"lat":13.6239743,"lon":100.4020656,"tags":{"addr:district":"บางขุนเทียน","addr:housenumber":"3","addr:postcode":"10150","addr:province":"กรุงเทพมหานคร","addr:street":"ซอยบางกระดี่ 11","addr:subdistrict":"แสมดำ","check_date":"2025-09-01","check_date:currency:XBT":"2025-09-01","contact:email":"piyanus@victoryindustrial.co.th","currency:XBT":"yes","man_made":"works","name":"Victory Industrial","name:th":"บริษัท วิคตอรี่ อินดัสเตรียล จำกัด","payment:lightning":"yes","payment:lightning_contactless":"no","payment:onchain":"no","phone":"+66 24 521 287","product":"custom_bed","website":"https://www.victoryindustrial.co.th/cprofile.html"}}
{"type":"node","id":12808883030,"lat":14.0346785,"lon":100.7324022,"tags":{"addr:district":"ธัญบุรี","addr:housenumber":"130/12","addr:postcode":"12110","addr:province":"ปทุมธานี","amenity":"cafe","check_date":"2025-08-16","check_date:currency:XBT":"2025-08-16","contact:facebook":"kala.koff","contact:instagram":"kala.koff","cuisine":"coffee_shop;cafe","currency:XBT":"yes","name":"KA-LA Coffee","name:th":"กา-ละ","opening_hours":"Mo-Su 08:00-17:00","outdoor_seating":"yes","payment:lightning":"yes","payment:lightning_contactless":"no","payment:onchain":"yes","phone":"+66 62 138 0493","survey:date":"2025-08-07"}}
{"type":"node","id":12818578388,"lat":13.9539438,"lon":100.6848772,"tags":{"addr:district":"ลำลูกกา","addr:housenumber":"อยู่เจริญ 4","addr:place":"โลตัสโกเฟรส","addr:postcode":"12150","addr:province":"ปทุมธานี","addr:street":"ถนนไสวประชาราษฎร์","addr:subdistrict":"ลาดสวาย","amenity":"restaurant","check_date":"2025-08-13","check_date:currency:XBT":"2025-08-13","contact:facebook":"Fivestarbusiness","cuisine":"chicken","currency:XBT":"yes","name":"Five Star","opening_hours":"Mo-Su 07:30-20:30","payment:lightning":"yes","payment:lightning_contactless":"no","payment:onchain":"no","phone":"+66 93 723 8284","survey:date":"2025-08-08","website":"https://fivestar.in.th/"}}
{"type":"node","id":12827530352,"lat":13.9879228,"lon":100.7045035,"tags":{"addr:district":"ลำลูกกา","addr:place":"cdc foundation","addr:postcode":"12150","addr:province":"ปทุมธานี","addr:street":"เลียบคลอง 5 ฝั่งตะวันตก","addr:subdistrict":"ลาดสวาย","amenity":"cafe","check_date":"2025-08-13","check_date:currency:XBT":"2025-08-25","contact:facebook":"https://www.facebook.com/profile.php?id=61576360140677","contact:instagram":"citadelcoffee21","cuisine":"coffee_shop","currency:XBT":"yes","name":"Citadel Coffee","opening_hours":"Tu-Su 08:00-17:00","outdoor_seating":"yes","payment:lightning":"yes","payment:lightning_contactless":"yes","payment:onchain":"no","phone":"+66 65 084 5879"}}
{"type":"node","id":12839299656,"lat":13.7374984,"lon":100.5837127,"tags":{"addr:district":"วัฒนา","addr:housenumber":"411/3","addr:postcode":"10110","addr:province":"กรุงเทพมหานคร","addr:street":"ซอยสุขุมวิท 55","addr:subdistrict":"คลองตันเหนือ","amenity":"restaurant","check_date":"2025-08-13","check_date:currency:XBT":"2025-08-13","contact:email":"croissantfactory.th@gmail.com","contact:facebook":"croissantfactory","contact:instagram":"croissantfactory_th","cuisine":"pizza;pasta;salad;bakery;coffee_shop","currency:XBT":"yes","name":"Croissant Factory (Thonglor)","opening_hours":"Tu-Su 08:00-20:00","payment:lightning":"yes","payment:lightning_contactless":"no","payment:onchain":"no","phone":"+66 92 414 9746","survey:date":"2025-08-06"}}
{"type":"node","id":12856750526,"lat":13.7869090,"lon":100.3741688,"tags":{"addr:district":"ทวีวัฒนา","addr:housenumber":"99/7,99/8","addr:postcode":"10170","addr:province":"กรุงเทพมหานคร","addr:street":"ถนนบรมราชชนนี","addr:subdistrict":"ศาลาธรรมสพน์","amenity":"cafe","check_date":"2025-05-23","check_date:currency:XBT":"2025-05-23","contact:facebook":"roastrunner","cuisine":"coffee_shop","currency:XBT":"yes","name":"Roast Runner","name:en":"Roast Runner","opening_hours":"09:00-17:00","payment:lightning":"yes","payment:lightning_contactless":"no","payment:onchain":"no","phone":"+66 9592 54437"}}
{"type":"node","id":12863636313,"lat":13.8007227,"lon":100.5490929,"tags":{"addr:district":"จตุจักร","addr:place":"Jatujak Plaza Zone B, Soi 2 Room No.139","addr:postcode":"10900","addr:province":"กรุงเทพมหานคร","addr:street":"ถนนกำแพงเพชร 2","addr:subdistrict":"จตุจักร","check_date":"2025-09-01","check_date:currency:XBT":"2025-09-01","contact:email":"manggonstudio@gmail.com","currency:XBT":"yes","name":"Manggon Studio","opening_hours":"Tu-Su 09:00-17:00","payment:lightning":"yes","payment:lightning_contactless":"no","payment:onchain":"no","phone":"+66 82 325 4556","shop":"interior_decoration","survey:date":"2025-09-01","website":"https://www.manggonstudio.com/"}}
{"type":"node","id":12886020278,"lat":13.6507110,"lon":100.4436418,"tags":{"addr:district":"เขตบางขุนเทียน","addr:housenumber":"116/34","addr:postcode":"10150","addr:province":"กรุงเทพมหานคร","addr:street":"ถนนท่าข้าม","addr:subdistrict":"แขวงแสมดำ","amenity":"dentist","check_date":"2025-09-01","check_date:currency:XBT":"2025-09-01","currency:XBT":"yes","healthcare":"dentist","name":"คลินิคทันตกรรมท่าข้าม","opening_hours":"Mo-Su 10:00-20:00","payment:lightning":"yes","payment:lightning_contactless":"no","payment:onchain":"no","phone":"+66 81 279 5001"}}
{"type":"node","id":12905584949,"lat":13.8001988,"lon":100.7093620,"tags":{"addr:district":"มีนบุรี","addr:place":"ตลาดน้ำขวัญเรียม","addr:postcode":"10510","addr:province":"กรุงเทพมหานคร","addr:street":"ซอยเสรีไทย 60","addr:subdistrict":"มีนบุรี","check_date":"2025-09-01","check_date:currency:XBT":"2025-09-01","contact:email":"s_siriwan@yahoo.com","contact:facebook":"https://www.facebook.com/moonlightleather/","currency:XBT":"yes","name":"Moonlight Leather","opening_hours":"Sa-Su 08:00-17:00","payment:cash":"yes","payment:credit_cards":"yes","payment:lightning":"yes","payment:lightning_contactless":"no","payment:mastercard":"yes","payment:onchain":"yes","payment:visa":"yes","phone":"+66 85 171 4550","shop":"leather","survey:date":"2025-09-01","website":"https://www.moonlightleather.com/"}}
{"type":"node","id":13010769122,"lat":13.7048562,"lon":100.5019729,"tags":{"addr:district":"เขตบางคอแหลม","addr:housenumber":"2194","addr:postcode":"10120","addr:province":"กรุงเทพมหานคร","addr:street":"ถนนเจริญกรุง","addr:subdistrict":"แขวงวัดพระยาไกร","amenity":"bar","check_date":"2025-08-16","check_date:currency:XBT":"2025-08-16","contact:facebook":"https://www.facebook.com/chitholeofficial","currency:XBT":"yes","name":"Chit Hole Asiatique","opening_hours":"Mo-Su 07:00-00:00","payment:lightning":"yes","payment:lightning_contactless":"yes","payment:onchain":"yes","phone":"+66 64 954 6616","survey:date":"2025-08-16","website":"https://chitholding.com/"}}
{"type":"node","id":13016546680,"lat":13.7460584,"lon":100.5999818,"tags":{"addr:district":"สวนหลวง","addr:housenumber":"51, 3","addr:postcode":"10250","addr:province":"กรุงเทพมหานคร","addr:street":"ซอยรามคำแหง 3","addr:subdistrict":"สวนหลวง","check_date":"2025-08-06","check_date:currency:XBT":"2025-08-06","contact:facebook":"https://www.facebook.com/LKTmuaythai","currency:XBT":"yes","leisure":"fitness_centre","name":"ค่ายมวยลูกคลองตัน","name:en":"LKT Muay Thai Gym","name:th":"ค่ายมวยลูกคลองตัน","opening_hours":"Mo-Sa 16:00-21:00","payment:lightning":"yes","payment:lightning_contactless":"no","payment:onchain":"yes","phone":"+66 89 128 6304","sport":"kickboxing"}}
{"type":"node","id":13016550123,"lat":13.7578787,"lon":100.5096567,"tags":{"addr:district":"ป้อมปราบศัตรูพ่าย","addr:housenumber":"96/2","addr:postcode":"10100","addr:province":"กรุงเทพมหานคร","addr:street":"ถนนจักรพรรดิพงษ์","addr:subdistrict":"แขวงวัดโสมนัส","check_date":"2025-08-06","check_date:currency:XBT":"2025-08-06","contact:facebook":"vacilandobookshop","contact:instagram":"vacilandobookshop","currency:XBT":"yes","name":"Vacilando Bookshop","opening_hours":"Sa-Su 12:30-18:00","payment:lightning":"yes","payment:lightning_contactless":"no","payment:onchain":"no","phone":"+66 86 775 8977","shop":"books","website":"https://www.vacilandobookshop.com/"}}
{"type":"node","id":13016593667,"lat":13.7629694,"lon":100.5636572,"tags":{"addr:district":"ดินแดง","addr:postcode":"10400","addr:province":"กรุงเทพมหานคร","addr:street":"ซอยรัชดาภิเษก 3 แยก 9","addr:subdistrict":"ดินแดง","check_date":"2025-08-06","check_date:currency:XBT":"2025-08-06","currency:XBT":"yes","hairdresser":"barber","name":"The Barbershop","opening_hours":"Mo-Su 13:00-23:00","payment:lightning":"yes","payment:lightning_contactless":"no","payment:onchain":"no","phone":"+66 94 779 1187","shop":"hairdresser"}}
{"type":"node","id":13051531371,"lat":13.6880845,"lon":100.4506362,"tags":{"addr:district":"จอมทอง","addr:housenumber":"21/18","addr:place":"4","addr:postcode":"10150","addr:province":"กรุงเทพ","addr:street":"เอกชัย","addr:subdistrict":"บางขุนเทียน","check_date":"2025-09-06","check_date:currency:XBT":"2025-09-06","currency:XBT":"yes","name":"Lung Ji Card Shop","opening_hours":"Mo-Fr 09:00-20:00","operator":"ลุงจิ","payment:lightning":"yes","payment:lightning_contactless":"yes","payment:onchain":"yes","phone":"+66 87 017 2173","second_hand":"yes","shop":"supermarket"}}
{"type":"node","id":13057327865,"lat":13.8542768,"lon":100.5484357,"tags":{"addr:district":"หลักสี่","addr:housenumber":"55/55  Thung Song Hong,","addr:postcode":"10210","addr:province":"bankkok","addr:street":"ถนนงามวงศ์วาน","addr:subdistrict":"ทุ่งสองห้อง","amenity":"cafe","check_date":"2025-08-08","check_date:currency:XBT":"2025-08-08","contact:facebook":"chus.pastry","contact:instagram":"chus.pastry","cuisine":"coffee_shop","currency:XBT":"yes","name":"Chu's Pastry","opening_hours":"Mo-Su 08:00-18:00","payment:lightning":"yes","payment:lightning_contactless":"no","payment:onchain":"no","phone":"+66 90 969 3018"}}
{"type":"node","id":13061362037,"lat":13.8264533,"lon":100.4423469,"tags":{"addr:district":"อำเภอบางกรวย","addr:housenumber":"111/11","addr:place":"หมู่บ้านจีน","addr:postcode":"11130","addr:province":"นนทบุรี","addr:street":"ถนนนครอินทร์","addr:subdistrict":"ตำบล บางขุนกอง","amenity":"ice_cream","check_date":"2025-08-10","check_date:currency:XBT":"2025-08-10","contact:facebook":"https://www.facebook.com/DDTRoom/","contact:instagram":"https://www.instagram.com/daddytasteroom/","currency:XBT":"yes","name":"Daddy Taste Room","opening_hours":"Tu-Su 09:00-18:00","payment:lightning":"yes","payment:lightning_contactless":"no","payment:onchain":"no"}}
{"type":"node","id":13071813034,"lat":13.7898584,"lon":100.5622319,"tags":{"addr:district":"ดินแดง","addr:housenumber":"9/2-7","addr:place":"อาคารทับทิม","addr:postcode":"10400","addr:province":"กรุงเทพมหานคร","addr:street":"ซอยอินทามระ 33","addr:subdistrict":"รัชดาภิเษก","address":"9/2-7 อาคารทับทิม Soi Inthamara 33, Ratchadaphisek, Khet Din Daeng, Krung Thep Maha Nakhon 10400, Thailand","check_date":"2025-08-18","check_date:currency:XBT":"2025-08-18","contact:facebook":"layerhouse","currency:XBT":"yes","name":"Layer House","office":"engineer","opening_hours":"Tu-Fr 09:00-17:00","payment:lightning":"yes","payment:lightning_contactless":"no","payment:onchain":"yes","phone":"+66 89 889 4028","website":"https://layerhouse.blogspot.com/"}}
{"type":"node","id":13077980491,"lat":13.7612626,"lon":100.5635552,"tags":{"addr:district":"ดินแดง","addr:housenumber":"550/188","addr:postcode":"10400","addr:province":"กรุงเทพมหานคร","addr:street":"ซอยโพธิ์ปั้น แยก 12","addr:subdistrict":"ดินแดง","amenity":"cafe","check_date":"2025-08-18","check_date:currency:XBT":"2025-08-18","contact:facebook":"https://www.facebook.com/profile.php?id=100063550004598","contact:instagram":"latteman.m","cuisine":"coffee_shop","currency:XBT":"yes","name":"Latte Man","opening_hours":"Mo-Su 08:00-17:00","payment:lightning":"yes","payment:lightning_contactless":"yes","payment:onchain":"no","phone":"+66 85 442 2478"}}
{"type":"node","id":13081282309,"lat":13.9972327,"lon":100.6703365,"tags":{"addr:district":"อำเภอธัญบุรี","addr:housenumber":"30/1","addr:place":"Caltex Rangsit Klong 3","addr:postcode":"12130","addr:province":"ปทุมธานี","addr:street":"ถนนรังสิต-นครนายก 59","addr:subdistrict":"ตำบล บึงยี่โถ","check_date":"2025-08-19","check_date:currency:XBT":"2025-08-19","contact:facebook":"https://www.facebook.com/Peixingclinic","currency:XBT":"yes","healthcare":"alternative","healthcare:speciality":"traditional_chinese_medicine","name":"Peixing clinic","name:th":"เพ่ยซิงคลินิกแพทย์แผนจีน","opening_hours":"Mo-Su 10:00-19:00","payment:lightning":"yes","payment:lightning_contactless":"no","payment:onchain":"no","phone":"+66 61 390 7455","survey:date":"2025-08-19"}}
{"type":"node","id":13081317028,"lat":13.7568425,"lon":100.6434134,"tags":{"addr:district":"บางกะปิ","addr:housenumber":"110 74/5","addr:postcode":"10240","addr:province":"กรุงเทพมหานคร","addr:street":"ซอยรามคำแหง 52/2","addr:subdistrict":"แขวงหัวหมาก","amenity":"cafe","check_date":"2025-08-19","check_date:currency:XBT":"2025-08-19","contact:email":"ao.potipak@gmail.com","contact:facebook":"https://www.facebook.com/profile.php?id=61560280220160","cuisine":"coffee_shop;tea","currency:XBT":"yes","name":"Horm Cha @ Ramkhamhaeng 52","name:th":"หอมชา@รามคำแหง52","opening_hours":"Mo-Su 07:15-20:00","payment:lightning":"yes","payment:lightning_contactless":"no","payment:onchain":"no","phone":"+66 81 512 4444","survey:date":"2025-08-19"}}
{"type":"node","id":13081956521,"lat":13.7245048,"lon":100.5882289,"tags":{"addr:district":"วัฒนา","addr:housenumber":"64/1","addr:place":"Bangkok","addr:postcode":"10110","addr:province":"กรุงเทพมหานคร","addr:street":"เอกมัย ๑๐ แยก 2","addr:subdistrict":"พระโขนงเหนือ","amenity":"community_centre","check_date":"2025-08-21","check_date:currency:XBT":"2025-08-21","community_centre":"community_hall","contact:email":"bobspacesbkk@protonmail.com","currency:XBT":"yes","name":"BOB Space","payment:lightning":"yes","payment:lightning_contactless":"yes","payment:onchain":"yes","website":"https://www.bobspaces.net/"}}
{"type":"node","id":13096107804,"lat":13.6446434,"lon":100.6372215,"tags":{"addr:district":"เมืองสมุทรปราการ","addr:housenumber":"438/9","addr:postcode":"10270","addr:province":"สมุทรปราการ","addr:street":"ถนนศรีนครินทร์","addr:subdistrict":"สำโรงเหนือ","check_date":"2025-08-25","check_date:currency:XBT":"2025-08-25","contact:email":"contact@leesmark.com","contact:facebook":"leesmark","currency:XBT":"yes","name":"Lee's Mark Residence","name:th":"ลีมาร์ค เรสซิเด้นท์","opening_hours":"24/7","payment:lightning":"yes","payment:lightning_contactless":"no","payment:onchain":"no","phone":"+66 23 834 787","tourism":"hotel","website":"https://www.leesmark.com/"}}
{"type":"way","id":1085583221,"center":{"lat":13.7269550,"lon":100.7711197},"tags":{"addr:district":"ลาดกระบัง","addr:housenumber":"73","addr:postcode":"10520","addr:province":"กรุงเทพมหานคร","addr:street":"ซอยฉลองกรุง 1","addr:subdistrict":"ลาดกระบัง","amenity":"restaurant","buffet":"yes","building":"commercial","check_date":"2025-09-13","check_date:currency:XBT":"2025-09-13","contact:email":"laohutiger2022@gmail.com","contact:facebook":"https://web.facebook.com/laohushabu","cuisine":"chinese;shabu","currency:XBT":"yes","name":"Laohu Shabu","name:th":"ชาบูเหลาฮู่","opening_hours":"Mo-Su 16:00-22:00","payment:lightning":"yes","payment:lightning_contactless":"no","payment:onchain":"no","phone":"+66 65 681 6926","survey:date":"2025-09-13"}}
{"type":"way","id":1206068563,"center":{"lat":13.7269543,"lon":100.7710223},"tags":{"addr:district":"ลาดกระบัง","addr:place":"KL villa","addr:postcode":"10520","addr:province":"กรุงเทพมหานคร","addr:street":"ซอยฉลองกรุง 1","addr:subdistrict":"ลาดกระบัง","amenity":"cafe","building":"yes","check_date":"2025-09-13","check_date:currency:XBT":"2025-09-13","contact:facebook":"https://web.facebook.com/profile.php?id=61569404214355","contact:instagram":"https://www.instagram.com/coffzilla","cuisine":"coffee_shop;cake","currency:XBT":"yes","internet_access":"yes","name":"Coffzilla Cafe","opening_hours":"Mo-Sa 09:00-21:00","payment:lightning":"yes","payment:lightning_contactless":"no","payment:onchain":"no","phone":"+66 92 827 1601","survey:date":"2025-09-13"}}
{"type":"node","id":12393018418,"lat":13.6609396,"lon":-89.2531669,"tags":{"amenity":"fast_food","brand":"Wendy's","brand:wikidata":"Q550258","check_date:currency:XBT":"2024-12-02","cuisine":"burger","currency:XBT":"yes","name":"Wendy's","payment:lightning":"yes","payment:onchain":"yes","takeaway":"yes"}}
{"type":"node","id":12393048568,"lat":13.7016677,"lon":-89.2353766,"tags":{"check_date:currency:XBT":"2024-12-03","currency:XBT":"yes","name":"Super Selectos","payment:lightning":"yes","payment:onchain":"yes","phone":"http://www.superselectos.com/","shop":"supermarket"}}
{"type":"node","id":12393064200,"lat":13.6640266,"lon":-89.2603057,"tags":{"check_date:currency:XBT":"2024-12-02","cuisine":"chicken","currency:XBT":"yes","name":"Volaris","not:brand:wikidata":"Q942741","payment:lightning":"yes","payment:onchain":"yes","shop":"travel_agency","takeaway":"yes"}}
{"type":"node","id":12393071636,"lat":13.7020576,"lon":-89.2299571,"tags":{"amenity":"fast_food","brand":"Pollo Campero","brand:wikidata":"Q942741","check_date:currency:XBT":"2024-12-02","cuisine":"chicken","currency:XBT":"yes","name":"Pollo Campero","payment:lightning":"yes","payment:onchain":"yes","takeaway":"yes"}}
{"type":"node","id":12393071637,"lat":13.7154719,"lon":-89.0979047,"tags":{"amenity":"fast_food","brand":"Pollo Campero","brand:wikidata":"Q942741","check_date:currency:XBT":"2024-12-02","cuisine":"chicken","currency:XBT":"yes","name":"Pollo Campero","payment:lightning":"yes","payment:onchain":"yes","takeaway":"yes"}}
{"type":"node","id":12393071641,"lat":13.6792096,"lon":-89.2695396,"tags":{"amenity":"restaurant","brand":"Pollo Campestre","check_date:currency:XBT":"2024-12-02","cuisine":"chicken","currency:XBT":"yes","name":"Pollo Campestre","not:brand:wikidata":"Q942741","payment:lightning":"yes","payment:onchain":"yes","takeaway":"yes"}}
{"type":"node","id":12393071642,"lat":13.6931965,"lon":-89.2194165,"tags":{"amenity":"restaurant","brand":"Pollo Campestre","check_date:currency:XBT":"2024-12-02","cuisine":"chicken","currency:XBT":"yes","name":"Pollo Campestre","not:brand:wikidata":"Q942741","payment:lightning":"yes","payment:onchain":"yes","takeaway":"yes"}}
{"type":"node","id":12393071643,"lat":13.7898660,"lon":-89.1760471,"tags":{"amenity":"restaurant","brand":"Pollo Campestre","check_date:currency:XBT":"2024-12-02","cuisine":"chicken","currency:XBT":"yes","name":"Pollo Campestre","not:brand:wikidata":"Q942741","payment:lightning":"yes","payment:onchain":"yes","takeaway":"yes"}}
{"type":"node","id":12393086957,"lat":13.7112104,"lon":-89.2076687,"tags":{"brand":"Dollarcity","brand:wikidata":"Q107120814","check_date:currency:XBT":"2025-04-20","currency:XBT":"yes","name":"Dollarcity","payment:lightning":"yes","payment:onchain":"yes","shop":"variety_store","website":"https://dollarcity.com/"}}
{"type":"node","id":12393086958,"lat":13.7048907,"lon":-89.1801493,"tags":{"brand":"Dollarcity","brand:wikidata":"Q107120814","check_date:currency:XBT":"2024-12-03","currency:XBT":"yes","name":"Dollarcity","payment:lightning":"yes","payment:onchain":"yes","shop":"variety_store","website":"https://dollarcity.com/"}}
{"type":"node","id":12393105504,"lat":13.7222948,"lon":-89.2290504,"tags":{"amenity":"restaurant","check_date:currency:XBT":"2024-12-03","cuisine":"chicken","currency:XBT":"yes","name":"Don Pollo","payment:lightning":"yes","payment:onchain":"yes"}}
{"type":"node","id":12393105505,"lat":13.9574746,"lon":-89.1863849,"tags":{"amenity":"restaurant","check_date:currency:XBT":"2024-12-03","cuisine":"chicken","currency:XBT":"yes","name":"Don Pollo","payment:lightning":"yes","payment:onchain":"yes"}}
{"type":"node","id":12393105507,"lat":13.7163010,"lon":-89.0987402,"tags":{"amenity":"restaurant","check_date:currency:XBT":"2024-12-03","cuisine":"chicken","currency:XBT":"yes","name":"Don Pollo","payment:lightning":"yes","payment:onchain":"yes"}}
{"type":"node","id":12393105508,"lat":13.7339719,"lon":-89.0798264,"tags":{"amenity":"restaurant","check_date:currency:XBT":"2024-12-03","cuisine":"chicken","currency:XBT":"yes","name":"Don Pollo","payment:lightning":"yes","payment:onchain":"yes"}}
{"type":"node","id":12393105509,"lat":13.6728051,"lon":-89.2415253,"tags":{"amenity":"restaurant","check_date:currency:XBT":"2024-12-03","cuisine":"chicken","currency:XBT":"yes","name":"Don Pollo","payment:lightning":"yes","payment:onchain":"yes"}}
{"type":"node","id":12393105510,"lat":13.7961717,"lon":-89.1774099,"tags":{"amenity":"restaurant","check_date:currency:XBT":"2024-12-03","cuisine":"chicken","currency:XBT":"yes","name":"Don Pollo","payment:lightning":"yes","payment:onchain":"yes"}}
{"type":"node","id":12393105511,"lat":13.6977511,"lon":-89.1906671,"tags":{"amenity":"restaurant","check_date:currency:XBT":"2024-12-03","cuisine":"chicken","currency:XBT":"yes","name":"Don Pollo","payment:lightning":"yes","payment:onchain":"yes"}}
{"type":"node","id":12393123123,"lat":13.7232123,"lon":-89.1879565,"tags":{"amenity":"restaurant","check_date:currency:XBT":"2024-12-03","cuisine":"chicken","currency:XBT":"yes","name":"Don Pollo","payment:lightning":"yes","payment:onchain":"yes"}}
{"type":"node","id":12393123125,"lat":13.7168994,"lon":-89.1440873,"tags":{"amenity":"fast_food","check_date:currency:XBT":"2024-12-03","cuisine":"chicken","currency:XBT":"yes","name":"Don Pollo","payment:lightning":"yes","payment:onchain":"yes"}}
{"type":"node","id":12393123131,"lat":13.6744950,"lon":-89.2858104,"tags":{"amenity":"fast_food","check_date:currency:XBT":"2024-12-03","cuisine":"chicken","currency:XBT":"yes","name":"Don Pollo","payment:lightning":"yes","payment:onchain":"yes"}}
{"type":"node","id":12393123133,"lat":13.7020443,"lon":-89.1493806,"tags":{"amenity":"fast_food","check_date:currency:XBT":"2024-12-03","cuisine":"chicken","currency:XBT":"yes","name":"Don Pollo","payment:lightning":"yes","payment:onchain":"yes"}}
{"type":"node","id":12393125691,"lat":13.7028786,"lon":-89.1957364,"tags":{"amenity":"bank","check_date:currency:XBT":"2024-12-03","currency:XBT":"yes","name":"Banco Cuscatlán","payment:lightning":"yes","payment:onchain":"yes"}}
{"type":"node","id":12393125692,"lat":13.7033778,"lon":-89.1958010,"tags":{"amenity":"bank","check_date:currency:XBT":"2024-12-03","currency:XBT":"yes","name":"Banco Cuscatlán","payment:lightning":"yes","payment:onchain":"yes"}}
{"type":"node","id":12393125693,"lat":13.6979282,"lon":-89.1507890,"tags":{"amenity":"bank","check_date:currency:XBT":"2024-12-03","currency:XBT":"yes","name":"Banco Cuscatlán","payment:lightning":"yes","payment:onchain":"yes"}}
{"type":"node","id":12393125694,"lat":13.7147532,"lon":-89.1411429,"tags":{"amenity":"bank","check_date:currency:XBT":"2024-12-03","currency:XBT":"yes","name":"Banco Cuscatlán","payment:lightning":"yes","payment:onchain":"yes"}}
{"type":"node","id":12393195554,"lat":13.6719049,"lon":-89.2876537,"tags":{"check_date:currency:XBT":"2024-12-03","currency:XBT":"yes","name":"Super 7","payment:lightning":"yes","payment:onchain":"yes","shop":"convenience"}}
{"type":"node","id":12393195555,"lat":13.6711112,"lon":-89.2637433,"tags":{"check_date:currency:XBT":"2024-12-03","currency:XBT":"yes","name":"Super 7","payment:lightning":"yes","payment:onchain":"yes","shop":"convenience"}}
{"type":"node","id":12393195556,"lat":13.7168414,"lon":-89.2063252,"tags":{"check_date:currency:XBT":"2024-12-03","currency:XBT":"yes","name":"Super 7","payment:lightning":"yes","payment:onchain":"yes","shop":"convenience"}}
{"type":"node","id":12393195557,"lat":13.8067841,"lon":-89.1706907,"tags":{"check_date:currency:XBT":"2024-12-03","currency:XBT":"yes","name":"Super 7","payment:lightning":"yes","payment:onchain":"yes","shop":"convenience"}}
{"type":"node","id":12393195558,"lat":13.7956686,"lon":-89.1779694,"tags":{"check_date:currency:XBT":"2024-12-03","currency:XBT":"yes","name":"Super 7","payment:lightning":"yes","payment:onchain":"yes","shop":"convenience"}}
{"type":"node","id":12395253291,"lat":13.7055094,"lon":-89.2108880,"tags":{"check_date:currency:XBT":"2024-12-03","currency:XBT":"yes","name":"Siman","payment:lightning":"yes","payment:onchain":"yes","shop":"department_store"}}
{"type":"node","id":12395286904,"lat":13.6789360,"lon":-89.2756560,"tags":{"addr:city":"Santa Ana","addr:street":"Calle Libertad Oriente","amenity":"ice_cream","check_date:currency:XBT":"2024-12-03","cuisine":"ice_cream","currency:XBT":"yes","name":"BOSTON Premiun Ice Cream","payment:lightning":"yes","payment:onchain":"yes"}}
{"type":"node","id":12395286905,"lat":13.6778614,"lon":-89.2641418,"tags":{"addr:city":"Santa Ana","addr:street":"Calle Libertad Oriente","amenity":"ice_cream","check_date:currency:XBT":"2024-12-03","cuisine":"ice_cream","currency:XBT":"yes","name":"BOSTON Premiun Ice Cream","payment:lightning":"yes","payment:onchain":"yes"}}
{"type":"node","id":12395286906,"lat":13.6769283,"lon":-89.2543417,"tags":{"addr:city":"Santa Ana","addr:street":"Calle Libertad Oriente","amenity":"ice_cream","check_date:currency:XBT":"2024-12-03","cuisine":"ice_cream","currency:XBT":"yes","name":"BOSTON Premiun Ice Cream","payment:lightning":"yes","payment:onchain":"yes"}}
{"type":"node","id":12395286907,"lat":13.6791890,"lon":-89.2481645,"tags":{"amenity":"ice_cream","check_date:currency:XBT":"2024-12-03","cuisine":"ice_cream","currency:XBT":"yes","name":"BOSTON Premiun Ice Cream","payment:lightning":"yes","payment:onchain":"yes"}}
{"type":"node","id":12395286908,"lat":13.6831824,"lon":-89.2227652,"tags":{"amenity":"ice_cream","check_date:currency:XBT":"2024-12-03","cuisine":"ice_cream","currency:XBT":"yes","name":"BOSTON Premiun Ice Cream","payment:lightning":"yes","payment:onchain":"yes"}}
{"type":"node","id":12395286909,"lat":13.7019977,"lon":-89.2350355,"tags":{"amenity":"ice_cream","check_date:currency:XBT":"2024-12-03","cuisine":"ice_cream","currency:XBT":"yes","name":"BOSTON Premiun Ice Cream","payment:lightning":"yes","payment:onchain":"yes"}}
{"type":"node","id":12395286910,"lat":13.7923795,"lon":-89.1750185,"tags":{"amenity":"ice_cream","check_date:currency:XBT":"2024-12-03","cuisine":"ice_cream","currency:XBT":"yes","name":"BOSTON Premiun Ice Cream","payment:lightning":"yes","payment:onchain":"yes"}}
{"type":"node","id":12395356652,"lat":13.7056250,"lon":-89.2098400,"tags":{"brand":"RadioShack","check_date:currency:XBT":"2024-12-03","currency:XBT":"yes","name":"Rio do Brasil","payment:lightning":"yes","payment:onchain":"yes","shop":"shoes"}}
{"type":"node","id":12395356653,"lat":13.7065913,"lon":-89.2119836,"tags":{"brand":"RadioShack","check_date:currency:XBT":"2024-12-03","currency:XBT":"yes","name":"Rio do Brasil","payment:lightning":"yes","payment:onchain":"yes","shop":"shoes"}}
{"type":"node","id":12395356654,"lat":13.7050475,"lon":-89.2139737,"tags":{"brand":"RadioShack","check_date:currency:XBT":"2024-12-03","currency:XBT":"yes","name":"Rio do Brasil","payment:lightning":"yes","payment:onchain":"yes","shop":"shoes"}}
{"type":"node","id":12395356656,"lat":13.6777222,"lon":-89.2512371,"tags":{"brand":"RadioShack","check_date:currency:XBT":"2024-12-03","currency:XBT":"yes","name":"Rio do Brasil","payment:lightning":"yes","payment:onchain":"yes","shop":"shoes"}}
{"type":"node","id":12395356657,"lat":13.6784890,"lon":-89.2764618,"tags":{"brand":"RadioShack","check_date:currency:XBT":"2024-12-03","currency:XBT":"yes","name":"Rio do Brasil","payment:lightning":"yes","payment:onchain":"yes","shop":"shoes"}}
{"type":"node","id":12395356662,"lat":13.6985727,"lon":-89.1937804,"tags":{"brand":"RadioShack","check_date:currency:XBT":"2024-12-03","currency:XBT":"yes","name":"Lee Shoes","payment:lightning":"yes","payment:onchain":"yes","shop":"shoes"}}
{"type":"node","id":12395356663,"lat":13.7059195,"lon":-89.2109029,"tags":{"brand":"RadioShack","check_date:currency:XBT":"2024-12-03","currency:XBT":"yes","name":"Lee Shoes","payment:lightning":"yes","payment:onchain":"yes","shop":"shoes"}}
{"type":"node","id":12395356664,"lat":13.9595971,"lon":-89.1825766,"tags":{"brand":"RadioShack","check_date:currency:XBT":"2024-12-03","currency:XBT":"yes","name":"Lee Shoes","payment:lightning":"yes","payment:onchain":"yes","shop":"shoes"}}
{"type":"node","id":12395356665,"lat":13.7941729,"lon":-89.1776799,"tags":{"brand":"RadioShack","check_date:currency:XBT":"2024-12-03","currency:XBT":"yes","name":"Lee Shoes","payment:lightning":"yes","payment:onchain":"yes","shop":"shoes"}}
{"type":"node","id":12395356667,"lat":13.7921044,"lon":-89.1745508,"tags":{"brand":"RadioShack","check_date:currency:XBT":"2024-12-03","currency:XBT":"yes","name":"Lee Shoes","payment:lightning":"yes","payment:onchain":"yes","shop":"shoes"}}
{"type":"node","id":12395356668,"lat":13.7068833,"lon":-89.2113062,"tags":{"brand":"RadioShack","check_date:currency:XBT":"2024-12-03","currency:XBT":"yes","name":"Lee Shoes","payment:lightning":"yes","payment:onchain":"yes","shop":"shoes"}}
{"type":"node","id":12395356669,"lat":13.6992961,"lon":-89.1934205,"tags":{"brand":"RadioShack","check_date:currency:XBT":"2024-12-03","currency:XBT":"yes","name":"Lee Shoes","payment:lightning":"yes","payment:onchain":"yes","shop":"shoes"}}
{"type":"node","id":12395356670,"lat":13.7295347,"lon":-89.2099159,"tags":{"brand":"RadioShack","check_date:currency:XBT":"2024-12-03","currency:XBT":"yes","name":"Lee Shoes","payment:lightning":"yes","payment:onchain":"yes","shop":"shoes"}}
{"type":"node","id":12395356672,"lat":13.6795654,"lon":-89.2487884,"tags":{"brand":"RadioShack","check_date:currency:XBT":"2024-12-03","currency:XBT":"yes","name":"Lee Shoes","payment:lightning":"yes","payment:onchain":"yes","shop":"shoes"}}
{"type":"node","id":12395356674,"lat":13.7099024,"lon":-89.1371226,"tags":{"brand":"RadioShack","check_date:currency:XBT":"2024-12-03","currency:XBT":"yes","name":"Lee Shoes","payment:lightning":"yes","payment:onchain":"yes","shop":"shoes"}}
{"type":"node","id":12395356676,"lat":13.7057613,"lon":-89.2115677,"tags":{"brand":"RadioShack","check_date:currency:XBT":"2024-12-03","currency:XBT":"yes","name":"Lee Shoes","payment:lightning":"yes","payment:onchain":"yes","shop":"shoes"}}
{"type":"node","id":12395356677,"lat":13.6983273,"lon":-89.1509260,"tags":{"brand":"RadioShack","check_date:currency:XBT":"2024-12-03","currency:XBT":"yes","name":"Lee Shoes","payment:lightning":"yes","payment:onchain":"yes","shop":"shoes"}}
{"type":"node","id":12395356679,"lat":13.7151166,"lon":-89.1407183,"tags":{"brand":"RadioShack","check_date:currency:XBT":"2024-12-03","currency:XBT":"yes","name":"Lee Shoes","payment:lightning":"yes","payment:onchain":"yes","shop":"shoes"}}
{"type":"node","id":12395358232,"lat":13.6779343,"lon":-89.2508986,"tags":{"check_date:currency:XBT":"2024-12-03","currency:XBT":"yes","name":"MD","payment:lightning":"yes","payment:onchain":"yes","shop":"shoes"}}
{"type":"node","id":12395358236,"lat":13.6776719,"lon":-89.2544650,"tags":{"brand":"RadioShack","brand:wikidata":"Q1195490","check_date:currency:XBT":"2024-12-03","currency:XBT":"yes","name":"RadioShack","payment:lightning":"yes","payment:onchain":"yes","shop":"electronics","website":"https://www.radioshackla.com/elsalvador/"}}
{"type":"node","id":12395358237,"lat":13.7052337,"lon":-89.2106276,"tags":{"brand":"RadioShack","brand:wikidata":"Q1195490","check_date:currency:XBT":"2024-12-03","currency:XBT":"yes","name":"RadioShack","payment:lightning":"yes","payment:onchain":"yes","shop":"electronics","website":"https://www.radioshackla.com/elsalvador/"}}
{"type":"node","id":12395358238,"lat":13.6795053,"lon":-89.2490633,"tags":{"brand":"RadioShack","brand:wikidata":"Q1195490","check_date:currency:XBT":"2024-12-03","currency:XBT":"yes","name":"RadioShack","payment:lightning":"yes","payment:onchain":"yes","shop":"electronics","website":"https://www.radioshackla.com/elsalvador/"}}
{"type":"node","id":12395358241,"lat":13.7902926,"lon":-89.1758909,"tags":{"brand":"RadioShack","brand:wikidata":"Q1195490","check_date:currency:XBT":"2024-12-03","currency:XBT":"yes","name":"RadioShack","payment:lightning":"yes","payment:onchain":"yes","shop":"electronics","website":"https://www.radioshackla.com/elsalvador/"}}
{"type":"node","id":12395358245,"lat":13.7071885,"lon":-89.2120608,"tags":{"brand":"RadioShack","brand:wikidata":"Q1195490","check_date:currency:XBT":"2024-12-03","currency:XBT":"yes","name":"RadioShack","payment:lightning":"yes","payment:onchain":"yes","shop":"electronics","website":"https://www.radioshackla.com/elsalvador/"}}
{"type":"node","id":12395391992,"lat":13.6788325,"lon":-89.2752222,"tags":{"brand":"La Curacao","brand:wikidata":"Q5194599","check_date:currency:XBT":"2024-12-03","currency:XBT":"yes","name":"La Curacao","payment:lightning":"yes","payment:onchain":"yes","shop":"electronics","website":"https://www.lacuracaonline.com/elsalvador/"}}
{"type":"node","id":12395391993,"lat":13.6985851,"lon":-89.1508283,"tags":{"brand":"La Curacao","brand:wikidata":"Q5194599","check_date:currency:XBT":"2024-12-03","currency:XBT":"yes","name":"La Curacao","payment:lightning":"yes","payment:onchain":"yes","shop":"electronics","website":"https://www.lacuracaonline.com/elsalvador/"}}
{"type":"node","id":12395391995,"lat":13.7148902,"lon":-89.1403776,"tags":{"brand":"La Curacao","brand:wikidata":"Q5194599","check_date:currency:XBT":"2024-12-03","currency:XBT":"yes","name":"La Curacao","payment:lightning":"yes","payment:onchain":"yes","shop":"electronics","website":"https://www.lacuracaonline.com/elsalvador/"}}
{"type":"node","id":12395391996,"lat":13.7160841,"lon":-89.2137370,"tags":{"brand":"La Curacao","brand:wikidata":"Q5194599","check_date:currency:XBT":"2024-12-03","currency:XBT":"yes","name":"La Curacao","payment:lightning":"yes","payment:onchain":"yes","shop":"electronics","website":"https://www.lacuracaonline.com/elsalvador/"}}
{"type":"node","id":12395391998,"lat":13.7063677,"lon":-89.2116508,"tags":{"brand":"La Curacao","brand:wikidata":"Q5194599","check_date:currency:XBT":"2024-12-03","currency:XBT":"yes","name":"La Curacao","payment:lightning":"yes","payment:onchain":"yes","shop":"electronics","website":"https://www.lacuracaonline.com/elsalvador/"}}
{"type":"node","id":12395402114,"lat":13.6990460,"lon":-89.1505829,"tags":{"amenity":"fast_food","brand":"Taco Bell","brand:wikidata":"Q752941","check_date:currency:XBT":"2024-12-04","cuisine":"tex-mex","currency:XBT":"yes","name":"Taco Bell","payment:lightning":"yes","payment:onchain":"yes","takeaway":"yes","website":"https://tacobell.com.sv/"}}
{"type":"node","id":12395404301,"lat":13.7036827,"lon":-89.1502317,"tags":{"brand":"La Curacao","brand:wikidata":"Q5194599","check_date:currency:XBT":"2024-12-03","currency:XBT":"yes","name":"La Curacao","payment:lightning":"yes","payment:onchain":"yes","shop":"electronics","website":"https://www.lacuracaonline.com/elsalvador/"}}
{"type":"node","id":12395404305,"lat":13.6795511,"lon":-89.2488821,"tags":{"brand":"La Curacao","brand:wikidata":"Q5194599","check_date:currency:XBT":"2024-12-03","currency:XBT":"yes","name":"La Curacao","payment:lightning":"yes","payment:onchain":"yes","shop":"electronics","website":"https://www.lacuracaonline.com/elsalvador/"}}
{"type":"node","id":12395404307,"lat":13.7023174,"lon":-89.2296774,"tags":{"brand":"La Curacao","brand:wikidata":"Q5194599","check_date:currency:XBT":"2024-12-03","currency:XBT":"yes","name":"La Curacao","payment:lightning":"yes","payment:onchain":"yes","shop":"electronics","website":"https://www.lacuracaonline.com/elsalvador/"}}
{"type":"node","id":12395404308,"lat":13.6383525,"lon":-89.1275953,"tags":{"brand":"La Curacao","brand:wikidata":"Q5194599","check_date:currency:XBT":"2024-12-03","currency:XBT":"yes","name":"La Curacao","payment:lightning":"yes","payment:onchain":"yes","shop":"electronics","website":"https://www.lacuracaonline.com/elsalvador/"}}
{"type":"node","id":12395474463,"lat":13.7107823,"lon":-89.2467940,"tags":{"amenity":"dentist","check_date:currency:XBT":"2024-12-04","currency:XBT":"yes","healthcare":"dentist","name":"Natural Dent, Dra. Laura Lemus","payment:lightning":"yes","payment:onchain":"yes","website":"https://www.naturaldentsv.com/"}}
{"type":"node","id":12395474464,"lat":13.7013217,"lon":-89.2408846,"tags":{"amenity":"fast_food","check_date:currency:XBT":"2025-07-24","cuisine":"juice","currency:XBT":"yes","name":"Elixir Juices","payment:lightning":"yes","payment:lightning_contactless":"yes","payment:onchain":"yes","phone":"71272917","website":"https://www.elixirjuicesv.com/"}}
{"type":"node","id":12395474465,"lat":13.6764565,"lon":-89.2836313,"tags":{"amenity":"fast_food","check_date:currency:XBT":"2024-12-04","cuisine":"hot_dog","currency:XBT":"yes","name":"Freakie Dogs","payment:lightning":"yes","payment:onchain":"yes","phone":"75653770"}}
{"type":"node","id":12395474466,"lat":13.7033022,"lon":-89.2397120,"tags":{"check_date:currency:XBT":"2024-12-04","currency:XBT":"yes","name":"Naturaland","organic":"only","payment:lightning":"yes","payment:onchain":"yes","phone":"21305655","shop":"supermarket","website":"https://www.facebook.com/naturalandsv/"}}
{"type":"node","id":12396504833,"lat":13.6670703,"lon":-89.2707667,"tags":{"check_date:currency:XBT":"2024-12-04","currency:XBT":"yes","name":"TenGo! Todo Market","payment:lightning":"yes","payment:onchain":"yes","shop":"convenience"}}
{"type":"node","id":12396504836,"lat":13.7053837,"lon":-89.2099254,"tags":{"check_date:currency:XBT":"2024-12-04","currency:XBT":"yes","name":"Omnisport","payment:lightning":"yes","payment:onchain":"yes","shop":"electronics"}}
{"type":"node","id":12396504838,"lat":13.6793389,"lon":-89.2482767,"tags":{"check_date:currency:XBT":"2024-12-04","currency:XBT":"yes","name":"Omnisport","payment:lightning":"yes","payment:onchain":"yes","shop":"electronics"}}
{"type":"node","id":12396504839,"lat":13.6787663,"lon":-89.2749510,"tags":{"check_date:currency:XBT":"2024-12-04","currency:XBT":"yes","name":"Omnisport","payment:lightning":"yes","payment:onchain":"yes","shop":"electronics"}}
{"type":"node","id":12396504840,"lat":13.7933949,"lon":-89.1774241,"tags":{"check_date:currency:XBT":"2024-12-04","currency:XBT":"yes","name":"Omnisport","payment:lightning":"yes","payment:onchain":"yes","shop":"electronics"}}
{"type":"node","id":12396504841,"lat":13.6992234,"lon":-89.1514667,"tags":{"check_date:currency:XBT":"2024-12-04","currency:XBT":"yes","name":"Omnisport","payment:lightning":"yes","payment:onchain":"yes","shop":"electronics"}}
{"type":"node","id":12396504842,"lat":13.7160293,"lon":-89.2137384,"tags":{"check_date:currency:XBT":"2024-12-04","currency:XBT":"yes","name":"Omnisport","payment:lightning":"yes","payment:onchain":"yes","shop":"electronics"}}
{"type":"node","id":12396504843,"lat":13.7298023,"lon":-89.2102052,"tags":{"check_date:currency:XBT":"2024-12-04","currency:XBT":"yes","name":"Omnisport","payment:lightning":"yes","payment:onchain":"yes","shop":"electronics"}}
{"type":"node","id":12396504844,"lat":13.7902410,"lon":-89.1757445,"tags":{"check_date:currency:XBT":"2024-12-04","currency:XBT":"yes","name":"Omnisport","payment:lightning":"yes","payment:onchain":"yes","shop":"electronics"}}
{"type":"node","id":12396504847,"lat":13.7045817,"lon":-89.2138670,"tags":{"check_date:currency:XBT":"2024-12-04","currency:XBT":"yes","name":"Omnisport","payment:lightning":"yes","payment:onchain":"yes","shop":"electronics"}}
{"type":"node","id":12434547965,"lat":13.6922075,"lon":-89.2383384,"tags":{"addr:city":"San Salvador","addr:housenumber":"206","addr:street":"Avenida las Magnolias","check_date":"2024-12-19","check_date:currency:XBT":"2024-12-19","currency:XBT":"yes","name":"Vivo Latam - Bienes Raices El Salvador","office":"estate_agent","payment:lightning":"yes","payment:onchain":"yes","phone":"+503 7653 1000","survey:date":"2024-12-19","website":"https://www.vivolatam.com"}}
{"type":"node","id":12487536941,"lat":13.7004558,"lon":-89.2236896,"tags":{"amenity":"restaurant","check_date:currency:XBT":"2025-01-09","cuisine":"pakistani","currency:XBT":"yes","name":"PaliLo","payment:lightning":"yes","phone":"73093807"}}
{"type":"node","id":12487540541,"lat":13.7036098,"lon":-89.2346340,"tags":{"check_date:currency:XBT":"2025-01-09","currency:XBT":"yes","name":"Pet Food Express El Salvador","payment:lightning":"yes","payment:onchain":"yes","phone":"73654045","shop":"pet"}}
{"type":"node","id":12487544752,"lat":13.6849587,"lon":-89.2377180,"tags":{"check_date:currency:XBT":"2025-01-09","currency:XBT":"yes","name":"Viprint","payment:lightning":"yes","payment:onchain":"yes","phone":"21241069","shop":"copyshop"}}
{"type":"node","id":12487544753,"lat":13.6929121,"lon":-89.2370904,"tags":{"amenity":"restaurant","check_date:currency:XBT":"2025-01-09","cuisine":"cajun","currency:XBT":"yes","name":"Bubba's","payment:lightning":"yes","phone":"25664416","website":"https://www.bubbassv.com/"}}
{"type":"node","id":12489343820,"lat":13.6929149,"lon":-89.2368981,"tags":{"amenity":"fast_food","check_date:currency:XBT":"2025-01-10","cuisine":"kebab","currency:XBT":"yes","name":"Kebabs San Benito","payment:lightning":"yes","payment:onchain":"yes"}}
{"type":"node","id":12489662239,"lat":13.6942995,"lon":-89.2306096,"tags":{"amenity":"ice_cream","check_date:currency:XBT":"2025-01-10","currency:XBT":"yes","name":"La Neveria","payment:lightning":"yes","payment:onchain":"yes","website":"http://www.laneveria.com.sv/"}}
{"type":"node","id":12489662240,"lat":13.7111669,"lon":-89.2311587,"tags":{"amenity":"ice_cream","check_date:currency:XBT":"2025-01-10","currency:XBT":"yes","name":"La Neveria","payment:lightning":"yes","payment:onchain":"yes","website":"http://www.laneveria.com.sv/"}}
{"type":"node","id":12489662241,"lat":13.7942706,"lon":-89.1780915,"tags":{"amenity":"ice_cream","check_date:currency:XBT":"2025-01-10","currency:XBT":"yes","name":"La Neveria","payment:lightning":"yes","payment:onchain":"yes","website":"http://www.laneveria.com.sv/"}}
{"type":"node","id":12489662242,"lat":13.6787495,"lon":-89.3006666,"tags":{"amenity":"ice_cream","check_date:currency:XBT":"2025-01-10","currency:XBT":"yes","name":"La Neveria","payment:lightning":"yes","payment:onchain":"yes","website":"http://www.laneveria.com.sv/"}}
{"type":"node","id":12489662243,"lat":13.7111543,"lon":-89.2481582,"tags":{"amenity":"ice_cream","check_date:currency:XBT":"2025-01-10","currency:XBT":"yes","name":"La Neveria","payment:lightning":"yes","payment:onchain":"yes","website":"http://www.laneveria.com.sv/"}}
{"type":"node","id":12501337971,"lat":13.7001314,"lon":-89.2089691,"tags":{"addr:city":"San Salvador","addr:street":"Alameda Franklin Delano Roosevelt","amenity":"restaurant","check_date":"2025-01-14","currency:XBT":"yes","name":"Restaurante Copacabana","opening_hours":"Tu-Su 11:00-23:00","payment:lightning":"yes","payment:lightning_contactless":"no","payment:onchain":"no"}}
{"type":"node","id":12521743099,"lat":13.6802673,"lon":-89.2298637,"tags":{"addr:city":"San Salvador","addr:housenumber":"1","addr:street":"Pasaje 1","check_date":"2025-01-21","contact:instagram":"https://www.instagram.com/barf_rawdogfood/","currency:XBT":"yes","name":"BARF Raw Dog Food","opening_hours":"Mo-Fr 08:00-17:00; Sa 09:00-16:00","payment:lightning":"yes","payment:lightning_contactless":"no","payment:onchain":"no","phone":"+503 7805 7181","shop":"pet"}}
{"type":"node","id":12552233985,"lat":13.7048639,"lon":-89.2445768,"tags":{"amenity":"restaurant","check_date:currency:XBT":"2025-02-02","contact:instagram":"https://instagram.com/holandeserrantebbq","cuisine":"barbecue","currency:XBT":"yes","name":"El Holandés Errante BBQ","opening_hours":"Tu 18:00-21:30; We-Sa 12:00-14:30, 18:00-21:30; Su 12:00-14:30","payment:lightning":"yes","payment:onchain":"yes","phone":"77859304"}}
{"type":"node","id":12560493446,"lat":13.6928791,"lon":-89.2427246,"tags":{"amenity":"cafe","check_date:currency:XBT":"2025-02-05","currency:XBT":"yes","name":"Alquimia Coffee","payment:lightning":"yes","payment:onchain":"yes","phone":"76721507","website":"https://www.alquimiacoffee.com/"}}
{"type":"node","id":12591011386,"lat":13.7346605,"lon":-89.2188641,"tags":{"addr:city":"San Salvador","addr:housenumber":"25","addr:street":"Calle al Volcán","check_date":"2025-02-15","contact:instagram":"https://www.instagram.com/_fermento.vivo?igsh=MWRwN3h6ejFxeHdjaw==","currency:XBT":"yes","description":"Tipos de bebidas en oferta: Kombucha - Kefir - Chucrut.","name":"Fermento Vivo","opening_hours":"Mo-Su 06:00-17:00","payment:lightning":"yes","payment:lightning_contactless":"yes","payment:onchain":"yes","phone":"+503 76 041 429","shop":"beverages"}}
{"type":"node","id":12596221077,"lat":13.6785357,"lon":-89.2371607,"tags":{"addr:city":"Antiguo Cuscatlán","addr:housenumber":"6","addr:postcode":"1502","addr:street":"Calle del Cantábrico","amenity":"restaurant","check_date":"2025-02-17","contact:instagram":"https://www.instagram.com/unapenda.chakulasv?igsh=eW96eTZ0bzczcTh5","cuisine":"african","currency:XBT":"yes","name":"Unapenda Chakula","opening_hours":"Tu-Su 11:00-18:00","payment:lightning":"yes","payment:lightning_contactless":"no","payment:onchain":"no","phone":"+503 7979 0032"}}
{"type":"node","id":12615301807,"lat":13.6668049,"lon":-89.2704105,"tags":{"amenity":"restaurant","check_date:currency:XBT":"2025-02-24","cuisine":"pizza","currency:XBT":"yes","name":"Nine Hundred Pizza","payment:lightning":"yes","payment:onchain":"yes","phone":"+50322789000","website":"https://www.9hundredpizza.com/"}}
{"type":"node","id":12615301808,"lat":13.6906902,"lon":-89.2398897,"tags":{"check_date:currency:XBT":"2025-02-24","contact:instagram":"https://www.instagram.com/arigatoteahouse/","currency:XBT":"yes","name":"ARIGATO Tea House","payment:lightning":"yes","payment:onchain":"yes","phone":"+50379282828","shop":"tea"}}
{"type":"node","id":12616312545,"lat":13.6970482,"lon":-89.1906240,"tags":{"amenity":"restaurant","check_date:currency:XBT":"2025-02-24","cuisine":"pizza","currency:XBT":"yes","name":"La Clasica Pizza","payment:lightning":"yes","payment:onchain":"yes","website":"https://www.pizzerialaclasica.com/"}}
{"type":"node","id":12620686155,"lat":13.7078533,"lon":-89.2378935,"tags":{"addr:city":"San Salvador","addr:street":"83 Avenida Norte","amenity":"restaurant","check_date":"2025-02-26","contact:instagram":"https://www.instagram.com/ladoblenelson?igsh=MXBkNmczYWQ2MGxkMQ==","cuisine":"tacos","currency:XBT":"yes","name":"Taquería La Doble Nelson","opening_hours":"Tu-Su 12:00-21:00","payment:lightning":"yes","payment:lightning_contactless":"no","payment:onchain":"no"}}
{"type":"node","id":12637725477,"lat":13.7095854,"lon":-89.1997964,"tags":{"addr:city":"San Salvador","addr:housenumber":"32","addr:postcode":"1102","addr:street":"Calle Doctor Carlos Gonzalez","amenity":"restaurant","check_date":"2025-03-05","contact:instagram":"https://www.instagram.com/cevi_chera?igsh=MWtjZGU5MmdlNnoxdQ==","contact:twitter":"https://x.com/Cevi_chera","currency:XBT":"yes","delivery":"yes","name":"CeviChera","opening_hours":"Tu-Sa 12:00-18:00","payment:lightning":"yes","payment:lightning_contactless":"no","payment:onchain":"yes","phone":"+503 7214 9924"}}
{"type":"node","id":12668917600,"lat":13.7037725,"lon":-89.2471548,"tags":{"addr:city":"San Salvador","amenity":"doctors","currency:XBT":"yes","healthcare":"doctor","name":"Hospital de Diagóstico Escalón","payment:lightning":"yes","payment:lightning_contactless":"no","payment:onchain":"yes"}}
{"type":"node","id":12770634457,"lat":13.7067385,"lon":-89.2121403,"tags":{"addr:city":"San Salvador","addr:street":"Centro Comercial Metrocentro","amenity":"restaurant","check_date":"2025-04-20","currency:XBT":"yes","name":"San Martin","payment:lightning":"yes","payment:lightning_contactless":"no","payment:onchain":"yes"}}
{"type":"node","id":12777715890,"lat":13.7074353,"lon":-89.2383754,"tags":{"addr:city":"San Salvador","addr:housenumber":"147","addr:street":"83a Avenida Norte","amenity":"restaurant","check_date":"2025-04-23","contact:instagram":"https://www.instagram.com/oyechicosv/","cuisine":"cuban","currency:XBT":"yes","delivery":"yes","name":"Oye Chico - Cuban Food","opening_hours":"Mo-Su 12:00-21:00","payment:lightning":"yes","payment:lightning_contactless":"no","payment:onchain":"yes","website":"https://oyechicosv.com/"}}
{"type":"node","id":12835123723,"lat":13.7175270,"lon":-89.2466465,"tags":{"check_date":"2025-05-10","currency:XBT":"yes","internet_access":"yes","name":"The Jaguar House 3.0","payment:lightning":"yes","payment:onchain":"yes","tourism":"chalet","website":"https://airbtc.online/properties/the-jaguar-house-3-0/"}}
{"type":"node","id":12840920597,"lat":13.6754349,"lon":-89.2869973,"tags":{"addr:city":"Santa Tecla","addr:housenumber":"1","addr:postcode":"0511","addr:street":"1a Calle Oriente","amenity":"restaurant","check_date":"2025-05-16","contact:instagram":"https://www.instagram.com/oshun_restaurante?igsh=MXJmM3hkaGI5eHBtZw==","cuisine":"cuban;salvadoran","currency:XBT":"yes","delivery":"yes","name":"Oshun","opening_hours":"Mo off; Tu-Su 12:00-02:00","payment:lightning":"yes","payment:lightning_contactless":"no","payment:onchain":"yes","phone":"+503 2522 7299"}}
{"type":"node","id":12855606598,"lat":13.7062611,"lon":-89.2332975,"tags":{"addr:city":"San Salvador","addr:housenumber":"3924","addr:street":"7a Calle Poniente, 75 avenida norte","amenity":"restaurant","check_date:currency:XBT":"2025-05-22","cuisine":"pizza;sandwich","currency:XBT":"yes","diet:vegetarian":"yes","name":"Donatto's Escalón","payment:lightning":"yes","payment:lightning_contactless":"no","payment:onchain":"no"}}
{"type":"node","id":12869785590,"lat":13.6973378,"lon":-89.2496836,"tags":{"addr:city":"San Salvador","addr:postcode":"1101","addr:street":"Avenida Jerusalén","amenity":"restaurant","check_date:currency:XBT":"2025-05-28","contact:instagram":"https://www.instagram.com/indiankitchenelsalvador?igsh=Z2RoMDdzZG5iZTFi","currency:XBT":"yes","name":"The Indian Kitchen","opening_hours":"Mo off; Tu-Su 12:00-21:00","payment:lightning":"yes","payment:lightning_contactless":"no","payment:onchain":"yes","phone":"+503 2270 5980"}}
{"type":"node","id":12899917081,"lat":13.7103634,"lon":-89.2021420,"tags":{"addr:city":"San Salvador","addr:housenumber":"307","addr:postcode":"1102","addr:street":"Pasaje 5","amenity":"doctors","check_date:currency:XBT":"2025-06-09","currency:XBT":"yes","description":"Edificio Diagonal. Local 307. Tercer Nivel. Colonia Médica","healthcare":"doctor","healthcare:speciality":"cardiology","name":"Dr. Samuel Isaac Merino Barrera","payment:lightning":"yes","payment:lightning_contactless":"no","payment:onchain":"yes","phone":"+503 2398 1346"}}
{"type":"node","id":12992877838,"lat":13.6765545,"lon":-89.2862305,"tags":{"addr:city":"Santa Tecla","addr:street":"3a Calle Oriente","air_conditioning":"yes","amenity":"cafe","cuisine":"cake;ukrainian;salvadoran","currency:XBT":"yes","indoor_seating":"yes","name":"Dulce Kava","opening_hours":"Tu-Su 09:00-21:00","payment:cash":"yes","payment:lightning":"yes","payment:onchain":"yes","survey:date":"2025-07-10","website":"https://dulcekava.com/"}}
{"type":"node","id":12995936085,"lat":13.6984298,"lon":-89.2301745,"tags":{"amenity":"cafe","check_date:currency:XBT":"2025-07-12","currency:XBT":"yes","name":"CAFÉTERO","payment:lightning":"yes","payment:lightning_contactless":"yes","payment:onchain":"yes"}}
{"type":"node","id":12996007483,"lat":13.6701247,"lon":-89.2809839,"tags":{"amenity":"restaurant","check_date:currency:XBT":"2025-07-12","currency:XBT":"yes","name":"Cevichera","payment:lightning":"yes","payment:lightning_contactless":"yes","payment:onchain":"yes"}}
{"type":"node","id":12996582341,"lat":13.7247499,"lon":-89.1032217,"tags":{"check_date:currency:XBT":"2025-07-13","currency:XBT":"yes","name":"Chocolate Tu Buen Gusto","payment:lightning":"yes","payment:lightning_contactless":"yes","payment:onchain":"yes","shop":"chocolate"}}
{"type":"node","id":12997978708,"lat":13.6678538,"lon":-89.1928590,"tags":{"check_date:currency:XBT":"2025-07-13","currency:XBT":"yes","name":"El Contador SV","office":"accountant","payment:lightning":"yes","payment:lightning_contactless":"yes","payment:onchain":"yes"}}
{"type":"node","id":12998000737,"lat":13.7183198,"lon":-89.2221316,"tags":{"check_date:currency:XBT":"2025-07-13","currency:XBT":"yes","name":"Fotocopias, Impresiones y Tienda","payment:lightning":"yes","payment:lightning_contactless":"yes","payment:onchain":"yes","shop":"copyshop"}}
{"type":"node","id":12998007648,"lat":13.6935972,"lon":-89.2434500,"tags":{"amenity":"restaurant","check_date:currency:XBT":"2025-07-13","currency:XBT":"yes","name":"Good Karma (Restaurant & juice bar)","payment:lightning":"yes","payment:lightning_contactless":"yes","payment:onchain":"yes"}}
{"type":"node","id":12999082949,"lat":13.6764601,"lon":-89.2358702,"tags":{"check_date:currency:XBT":"2025-07-14","currency:XBT":"yes","name":"Lic. Carlos Artiga - Abogado y Notario","office":"lawyer","payment:lightning":"yes","payment:lightning_contactless":"yes","payment:onchain":"yes"}}
{"type":"node","id":13002463560,"lat":13.6684655,"lon":-89.2564657,"tags":{"amenity":"fast_food","check_date:currency:XBT":"2025-07-15","currency:XBT":"yes","name":"Snack:time","payment:lightning":"yes","payment:lightning_contactless":"yes","payment:onchain":"yes"}}
{"type":"node","id":13002472246,"lat":13.6786410,"lon":-89.2702213,"tags":{"amenity":"fast_food","check_date:currency:XBT":"2025-07-15","currency:XBT":"yes","name":"Super Emanuel","payment:lightning":"yes","payment:lightning_contactless":"yes","payment:onchain":"yes"}}
{"type":"node","id":13002563155,"lat":13.7108659,"lon":-89.1442496,"tags":{"check_date:currency:XBT":"2025-07-15","currency:XBT":"yes","name":"TazasyTazas","payment:lightning":"yes","payment:lightning_contactless":"yes","payment:onchain":"yes","shop":"gift"}}
{"type":"node","id":13002622047,"lat":13.6743447,"lon":-89.2278452,"tags":{"check_date:currency:XBT":"2025-07-15","currency:XBT":"yes","name":"Tienda Memo","payment:lightning":"yes","payment:lightning_contactless":"yes","payment:onchain":"yes","shop":"supermarket"}}
{"type":"node","id":13002646966,"lat":13.6884975,"lon":-89.1901923,"tags":{"check_date:currency:XBT":"2025-07-15","currency:XBT":"yes","name":"Tienda las Vegas","payment:lightning":"yes","payment:lightning_contactless":"yes","payment:onchain":"yes","shop":"yes"}}
{"type":"node","id":13004324421,"lat":13.6838170,"lon":-89.1341006,"tags":{"check_date:currency:XBT":"2025-07-16","currency:XBT":"yes","name":"Variedades Villa ABC","payment:lightning":"yes","payment:lightning_contactless":"yes","payment:onchain":"yes","shop":"variety_store"}}
{"type":"node","id":13004347541,"lat":13.6706220,"lon":-89.2106786,"tags":{"amenity":"fast_food","check_date:currency:XBT":"2025-07-16","currency:XBT":"yes","name":"Zanders","payment:lightning":"yes","payment:lightning_contactless":"yes","payment:onchain":"yes"}}
{"type":"node","id":13004356234,"lat":13.6803616,"lon":-89.3098572,"tags":{"amenity":"fast_food","check_date:currency:XBT":"2025-07-16","cuisine":"mexican","currency:XBT":"yes","name":"ᑎᗩᑕᕼO ᗩᖇGᑌETᗩ","payment:lightning":"yes","payment:lightning_contactless":"yes","payment:onchain":"yes"}}
{"type":"node","id":13010777308,"lat":13.6984108,"lon":-89.2431313,"tags":{"check_date:currency:XBT":"2025-07-19","currency:XBT":"yes","name":"Rejuveness Center","payment:lightning":"yes","payment:lightning_contactless":"yes","payment:onchain":"yes","shop":"beauty"}}
{"type":"node","id":13010913382,"lat":13.6991826,"lon":-89.2287192,"tags":{"check_date:currency:XBT":"2025-07-19","craft":"photographer","currency:XBT":"yes","name":"Foto Magica","payment:lightning":"yes","payment:lightning_contactless":"yes","payment:onchain":"yes"}}
{"type":"node","id":13011929780,"lat":13.6780804,"lon":-89.2364290,"tags":{"check_date:currency:XBT":"2025-07-19","currency:XBT":"yes","name":"D'luxe salon","payment:lightning":"yes","payment:lightning_contactless":"yes","payment:onchain":"yes","shop":"beauty"}}
{"type":"node","id":13011941329,"lat":13.6732670,"lon":-89.2412943,"tags":{"amenity":"fast_food","check_date:currency:XBT":"2025-07-19","currency:XBT":"yes","name":"Plazzo","payment:lightning":"yes","payment:lightning_contactless":"yes","payment:onchain":"yes"}}
{"type":"node","id":13012012721,"lat":13.7045348,"lon":-89.2459464,"tags":{"check_date:currency:XBT":"2025-07-19","currency:XBT":"yes","name":"Coffice","office":"coworking","payment:lightning":"yes","payment:lightning_contactless":"yes","payment:onchain":"yes"}}
{"type":"node","id":13012105547,"lat":13.7024760,"lon":-89.2313763,"tags":{"amenity":"pharmacy","check_date:currency:XBT":"2025-07-19","currency:XBT":"yes","healthcare":"pharmacy","name":"Avante Farmacias - Casa Matriz","payment:lightning":"yes","payment:lightning_contactless":"yes","payment:onchain":"yes"}}
{"type":"node","id":13012106417,"lat":13.7028102,"lon":-89.2316260,"tags":{"amenity":"clinic","check_date:currency:XBT":"2025-07-19","currency:XBT":"yes","healthcare":"clinic","name":"Avante Centro Medico Especializado","payment:lightning":"yes","payment:lightning_contactless":"yes","payment:onchain":"yes"}}
{"type":"node","id":13012118611,"lat":13.7023771,"lon":-89.2311019,"tags":{"amenity":"cafe","check_date:currency:XBT":"2025-07-19","currency:XBT":"yes","name":"Avante Cafeteria - Coffee Shop","payment:lightning":"yes","payment:lightning_contactless":"yes","payment:onchain":"yes"}}
{"type":"node","id":13014685168,"lat":13.6940195,"lon":-89.2386627,"tags":{"amenity":"cafe","check_date:currency:XBT":"2025-07-21","currency:XBT":"yes","name":"Motivos","payment:lightning":"yes","payment:lightning_contactless":"yes","payment:onchain":"yes"}}
{"type":"node","id":13015798677,"lat":13.7130043,"lon":-89.1942642,"tags":{"check_date:currency:XBT":"2025-07-21","currency:XBT":"yes","name":"AEX A/C Auto","payment:lightning":"yes","payment:lightning_contactless":"yes","payment:onchain":"yes","shop":"car_parts"}}
{"type":"node","id":13015874335,"lat":13.7036482,"lon":-89.2349921,"tags":{"amenity":"cafe","check_date:currency:XBT":"2025-07-21","currency:XBT":"yes","name":"Moclatte Bistro Cafe","payment:lightning":"yes","payment:lightning_contactless":"yes","payment:onchain":"yes"}}
{"type":"node","id":13017354662,"lat":13.6982379,"lon":-89.2407236,"tags":{"amenity":"cafe","check_date:currency:XBT":"2025-07-22","currency:XBT":"yes","name":"Carajo Coffee Shop","payment:lightning":"yes","payment:lightning_contactless":"yes","payment:onchain":"yes"}}
{"type":"node","id":13051276410,"lat":13.6665185,"lon":-89.1849450,"tags":{"addr:city":"Col. Los Andes","addr:housenumber":"52","addr:street":"2 calle Ote","check_date:currency:XBT":"2025-08-06","contact:email":"legal.notarial@gmail.com","currency:XBT":"yes","name":"M&R office Lawyer and Notary","office":"notary","payment:lightning":"yes","payment:lightning_contactless":"yes","payment:onchain":"yes","phone":"+503 76885868"}}
{"type":"way","id":140157599,"center":{"lat":13.6929631,"lon":-89.2293928},"tags":{"building":"yes","check_date:currency:XBT":"2024-12-03","currency:XBT":"yes","name":"Super Selectos","payment:lightning":"yes","payment:onchain":"yes","shop":"supermarket","source":"KG Ground Survey 2016"}}
{"type":"way","id":273503129,"center":{"lat":13.6982408,"lon":-89.2280633},"tags":{"addr:city":"San Salvador","addr:postcode":"00503","addr:street":"Alameda Manuel Enrique Araujo","branch":"Escalón","brand":"Walmart","brand:wikidata":"Q483551","building":"yes","building:levels":"2","check_date:currency:XBT":"2024-12-02","currency:XBT":"yes","height":"8","level":"1","name":"Walmart","payment:cash":"yes","payment:credit_cards":"yes","payment:debit_cards":"yes","payment:lightning":"yes","payment:onchain":"yes","shop":"department_store"}}
{"type":"way","id":290281805,"center":{"lat":13.6716378,"lon":-89.2549280},"tags":{"addr:street":"Boulevard Santa Elena","amenity":"bank","atm":"yes","building":"yes","check_date:currency:XBT":"2024-12-03","currency:XBT":"yes","name":"Banco Cuscatlán","payment:lightning":"yes","payment:onchain":"yes","source":"KG Ground Survey 2016"}}
{"type":"way","id":290281857,"center":{"lat":13.6632399,"lon":-89.2491245},"tags":{"addr:city":"Antiguo Cuscatlán","addr:housenumber":"86","addr:street":"Avenida El Pepeto Norte","branch":"Santa Elena","brand":"PriceSmart","building":"yes","check_date:currency:XBT":"2024-12-04","currency:XBT":"yes","name":"PriceSmart","opening_hours":"Mo-Su 09:00-20:30","operator":"PriceSmart","payment:cash":"yes","payment:credit_cards":"yes","payment:debit_cards":"yes","payment:lightning":"yes","payment:onchain":"yes","shop":"wholesale","source":"KG Ground Survey 2016;Bing"}}
{"type":"way","id":290783222,"center":{"lat":13.6612403,"lon":-89.2547144},"tags":{"building":"yes","check_date:currency:XBT":"2024-12-03","currency:XBT":"yes","name":"Super 7","payment:lightning":"yes","payment:onchain":"yes","shop":"convenience","source":"KG Ground Survey 2016"}}
{"type":"way","id":291888341,"center":{"lat":13.6615541,"lon":-89.2505387},"tags":{"addr:city":"Antiguo Cuscatlán","addr:street":"Boulevard Orden de Malta","amenity":"ice_cream","branch":"Santa Elena","brand":"Boston","building":"commercial","check_date:currency:XBT":"2024-12-03","currency:XBT":"yes","name":"BOSTON Premiun Ice Cream","outdoor_seating":"yes","payment:lightning":"yes","payment:onchain":"yes","source":"KG Ground Survey 2016"}}
{"type":"way","id":298048061,"center":{"lat":13.6673000,"lon":-89.2665676},"tags":{"amenity":"bank","atm":"yes","building":"yes","check_date:currency:XBT":"2024-12-03","currency:XBT":"yes","drive_through":"yes","name":"Banco Cuscatlán","payment:lightning":"yes","payment:onchain":"yes","source":"KG Ground Survey 2016"}}
{"type":"way","id":298334638,"center":{"lat":13.7016677,"lon":-89.2322055},"tags":{"addr:city":"San Salvador","addr:street":"Paseo General Escalón","building":"retail","check_date:currency:XBT":"2024-12-03","currency:XBT":"yes","name":"Super Selectos","operator":"Super Selectos","payment:lightning":"yes","payment:onchain":"yes","shop":"supermarket"}}
{"type":"way","id":310437012,"center":{"lat":13.6769838,"lon":-89.2642604},"tags":{"addr:city":"Santa Tecla","addr:street":"Boulevard Merliot","building":"yes","check_date":"2023-11-30","currency:XBT":"yes","name":"Freund Merliot","payment:cryptocurrencies":"yes","payment:lightning":"yes","shop":"hardware"}}
{"type":"way","id":321184547,"center":{"lat":13.7031306,"lon":-89.2408413},"tags":{"addr:city":"San Salvador","addr:housenumber":"867","addr:street":"Paseo General Escalón","amenity":"fast_food","brand":"McDonald's","brand:wikidata":"Q38076","building":"yes","check_date:currency:XBT":"2024-12-02","contact:email":"servicio.cliente@mcd.com.sv","contact:phone":"+503 2509 9999","contact:website":"https://domicilio.mcdonalds.com.sv","cuisine":"burger","currency:XBT":"yes","drive_through":"yes","name":"McDonald's","opening_hours":"Fr-Sa 06:00-22:30; Mo-Th 06:00-22:00; Su 06:30-21:30","payment:lightning":"yes","payment:onchain":"yes","source":"KG Ground Survey 2016","takeaway":"yes"}}
{"type":"way","id":321184548,"center":{"lat":13.7025589,"lon":-89.2408621},"tags":{"addr:city":"San Salvador","addr:street":"Paseo General Escalón","brand":"Dollarcity","brand:wikidata":"Q107120814","building":"commercial","check_date:currency:XBT":"2024-12-03","currency:XBT":"yes","name":"Dollarcity","payment:lightning":"yes","payment:onchain":"yes","shop":"variety_store","source":"KG Ground Survey 2016"}}
{"type":"way","id":335169728,"center":{"lat":13.6734711,"lon":-89.2733427},"tags":{"addr:city":"Santa Tecla","addr:street":"Avenida El Boquerón","amenity":"bank","building":"yes","check_date:currency:XBT":"2024-12-03","currency:XBT":"yes","name":"Banco Cuscatlán Pirámide","payment:lightning":"yes","payment:onchain":"yes"}}
{"type":"way","id":368708865,"center":{"lat":13.7044467,"lon":-89.2502039},"tags":{"building":"commercial","check_date:currency:XBT":"2024-12-03","currency:XBT":"yes","name":"Super Selectos","payment:lightning":"yes","payment:onchain":"yes","shop":"supermarket","source":"KG Ground Survey 2016"}}
{"type":"way","id":371663653,"center":{"lat":13.6837858,"lon":-89.2361650},"tags":{"amenity":"fuel","brand":"Puma","brand:wikidata":"Q7259769","brand:wikipedia":"en:Puma Energy","building":"roof","currency:XBT":"yes","name":"Puma","payment:lightning":"yes","payment:onchain":"yes","survey:date":"2024-10-17"}}
{"type":"way","id":371843920,"center":{"lat":13.6834712,"lon":-89.2279932},"tags":{"amenity":"bank","atm":"yes","branch":"Los Próceres","brand":"Banco Cuscatlán","building":"yes","check_date:currency:XBT":"2024-12-03","currency:XBT":"yes","drive_through":"yes","name":"Banco Cuscatlán","payment:lightning":"yes","payment:onchain":"yes"}}
{"type":"way","id":371844167,"center":{"lat":13.6837892,"lon":-89.2323923},"tags":{"addr:city":"San Salvador","addr:street":"Boulevard Los Próceres","amenity":"fast_food","branch":"Los Próceres","brand":"McDonald's","brand:wikidata":"Q38076","brand:wikipedia":"en:McDonald's","building":"yes","check_date:currency:XBT":"2024-12-02","contact:email":"servicio.cliente@mcd.com.sv","contact:phone":"+503 2509 9999","contact:website":"https://domicilio.mcdonalds.com.sv","cuisine":"burger","currency:XBT":"yes","drive_through":"yes","name":"McDonald's","opening_hours":"Fr-Sa 06:00-23:00; Mo-Th,Su 06:00-22:00","payment:lightning":"yes","payment:onchain":"yes","takeaway":"yes"}}
{"type":"way","id":371844331,"center":{"lat":13.6830730,"lon":-89.2378175},"tags":{"addr:city":"Antiguo Cuscatlan","addr:street":"Boulevard Los Próceres","amenity":"fast_food","branch":"La Sultana","brand":"Wendy's","brand:wikidata":"Q550258","brand:wikipedia":"en:Wendy's","building":"yes","check_date:currency:XBT":"2024-12-02","cuisine":"burger","currency:XBT":"yes","drive_through":"yes","name":"Wendy's","payment:lightning":"yes","payment:onchain":"yes","takeaway":"yes"}}
{"type":"way","id":373852358,"center":{"lat":13.6786318,"lon":-89.2382527},"tags":{"amenity":"ice_cream","building":"yes","check_date:currency:XBT":"2024-12-03","cuisine":"ice_cream","currency:XBT":"yes","layer":"1","name":"BOSTON Premiun Ice Cream","payment:lightning":"yes","payment:onchain":"yes"}}
{"type":"way","id":374041412,"center":{"lat":13.7163532,"lon":-89.2130666},"tags":{"building":"yes","check_date:currency:XBT":"2024-12-03","currency:XBT":"yes","name":"Super Selectos","payment:lightning":"yes","payment:onchain":"yes","shop":"supermarket"}}
{"type":"way","id":374041655,"center":{"lat":13.7168540,"lon":-89.2062285},"tags":{"amenity":"fuel","brand":"Puma","brand:wikidata":"Q7259769","building":"roof","check_date:currency:XBT":"2024-12-03","currency:XBT":"yes","name":"Puma","payment:lightning":"yes","payment:onchain":"yes","source":"KG Ground Survey 2016"}}
{"type":"way","id":374338658,"center":{"lat":13.7080566,"lon":-89.2270938},"tags":{"amenity":"fuel","brand":"Puma","brand:wikidata":"Q7259769","building":"yes","check_date:currency:XBT":"2024-12-03","currency:XBT":"yes","name":"Puma","payment:lightning":"yes","payment:onchain":"yes"}}
{"type":"way","id":374752197,"center":{"lat":13.7053445,"lon":-89.2120268},"tags":{"alt_name":"Cinemark Metrocentro San Salvador","amenity":"cinema","branch":"San Salvador","brand":"Cinemark","brand:wikidata":"Q707530","building":"yes","building:levels":"2","check_date:currency:XBT":"2024-12-04","currency:XBT":"yes","height":"12","layer":"1","name":"Cinemark","payment:lightning":"yes","payment:onchain":"yes"}}
{"type":"way","id":374772574,"center":{"lat":13.7078420,"lon":-89.2110834},"tags":{"alt_name":"Kentucky Fried Chicken","amenity":"fast_food","brand":"KFC","brand:wikidata":"Q524757","brand:wikipedia":"en:KFC","building":"yes","check_date:currency:XBT":"2024-12-02","cuisine":"chicken","currency:XBT":"yes","drive_through":"yes","name":"KFC","payment:lightning":"yes","source":"KG Ground Survey 2016","takeaway":"yes"}}
{"type":"way","id":375006288,"center":{"lat":13.6615139,"lon":-89.1832635},"tags":{"building":"yes","check_date:currency:XBT":"2025-03-13","currency:XBT":"yes","name":"Maxi Despensa","operator":"walmart","payment:lightning":"yes","payment:onchain":"yes","shop":"supermarket"}}
{"type":"way","id":375749720,"center":{"lat":13.6700768,"lon":-89.2551637},"tags":{"addr:city":"San Salvador","addr:street":"Boulevard Santa Elena","brand":"Dollarcity","brand:wikidata":"Q107120814","building":"yes","check_date:currency:XBT":"2024-12-03","currency:XBT":"yes","name":"Dollarcity","payment:lightning":"yes","payment:onchain":"yes","shop":"variety_store"}}
{"type":"way","id":375996303,"center":{"lat":13.6707968,"lon":-89.2552865},"tags":{"amenity":"fast_food","brand":"McDonald's","brand:wikidata":"Q38076","building":"yes","check_date:currency:XBT":"2024-12-02","contact:email":"servicio.cliente@mcd.com.sv","contact:phone":"+503 2509 9999","contact:website":"https://domicilio.mcdonalds.com.sv","cuisine":"burger","currency:XBT":"yes","name":"McDonald's","opening_hours":"Fr-Sa 06:00-01:00; Mo-Th,Su 06:00-23:00","payment:lightning":"yes","payment:onchain":"yes","takeaway":"yes"}}
{"type":"way","id":378054494,"center":{"lat":13.6796611,"lon":-89.2765962},"tags":{"addr:street":"Calle Chiltiupan","amenity":"fast_food","building":"yes","check_date:currency:XBT":"2024-12-03","cuisine":"chicken","currency:XBT":"yes","name":"Don Pollo","payment:lightning":"yes","payment:onchain":"yes","source":"KG Ground Survey 2015"}}
{"type":"way","id":378055227,"center":{"lat":13.6799078,"lon":-89.2736656},"tags":{"addr:city":"Santa Tecla","addr:street":"Calle Chiltiupan","amenity":"fuel","brand":"Puma","brand:wikidata":"Q7259769","brand:wikipedia":"en:Puma Energy","building":"yes","check_date:currency:XBT":"2024-12-03","currency:XBT":"yes","name":"Gasolinera Puma Chiltiupan","payment:lightning":"yes","payment:onchain":"yes","source":"KG Ground Survey 2016"}}
{"type":"way","id":378151296,"center":{"lat":13.6785361,"lon":-89.2628853},"tags":{"addr:city":"Antiguo Cuscatlán","addr:street":"Calle El Pedregal","brand":"Dollarcity","brand:wikidata":"Q107120814","building":"retail","check_date:currency:XBT":"2024-12-03","currency:XBT":"yes","name":"Dollarcity","operator":"Gold Tree","payment:lightning":"yes","payment:onchain":"yes","shop":"variety_store","source":"KG Ground Survey 2015"}}
{"type":"way","id":378183748,"center":{"lat":13.7023947,"lon":-89.2385614},"tags":{"addr:city":"San Salvador","addr:street":"Paseo General Escalón","amenity":"bank","amenity_1":"yes","atm":"yes","building":"yes","check_date:currency:XBT":"2024-12-03","currency:XBT":"yes","drive_through":"yes","name":"Banco Cuscatlán","payment:lightning":"yes","payment:onchain":"yes","source":"KG Ground Survey 2015"}}
{"type":"way","id":378235886,"center":{"lat":13.6719387,"lon":-89.2768563},"tags":{"addr:city":"Santa Tecla","addr:street":"4a Calle Oriente","amenity":"fast_food","branch":"Británica","brand":"McDonald's","brand:wikidata":"Q38076","brand:wikipedia":"en:McDonald's","building":"yes","check_date:currency:XBT":"2024-12-02","contact:email":"servicio.cliente@mcd.com.sv","contact:phone":"+503 2509 9999","contact:website":"https://domicilio.mcdonalds.com.sv","cuisine":"burger","currency:XBT":"yes","drive_through":"yes","internet_access":"wlan","name":"McDonald's","opening_hours":"Fr-Sa 06:00-23:00; Mo-Th,Su 06:00-22:00","payment:lightning":"yes","payment:onchain":"yes","source":"KG Ground Survey 2015","takeaway":"yes"}}
{"type":"way","id":378329222,"center":{"lat":13.6728616,"lon":-89.2856644},"tags":{"addr:city":"Santa Tecla","addr:street":"2a Calle Oriente","branch":"Santa Tecla","brand":"La Curacao","brand:wikidata":"Q5194599","brand:wikipedia":"en:Curacao (retail store)","building":"yes","check_date:currency:XBT":"2024-12-04","currency:XBT":"yes","name":"La Curacao","payment:lightning":"yes","payment:onchain":"yes","shop":"electronics","source":"KG Ground Survey 2015"}}
{"type":"way","id":378329226,"center":{"lat":13.6733544,"lon":-89.2860137},"tags":{"addr:city":"Santa Tecla","addr:street":"3a Avenida Sur","building":"yes","check_date:currency:XBT":"2024-12-03","currency:XBT":"yes","name":"Super Selectos","payment:lightning":"yes","payment:onchain":"yes","shop":"supermarket","source":"KG Ground Survey 2016"}}
{"type":"way","id":378329234,"center":{"lat":13.6729541,"lon":-89.2863933},"tags":{"addr:city":"Santa Tecla","addr:street":"2a Calle Oriente","amenity":"fast_food","branch":"Santa Tecla","brand":"Pollo Campero","brand:wikidata":"Q942741","brand:wikipedia":"en:Pollo Campero","building":"yes","check_date:currency:XBT":"2024-12-02","cuisine":"chicken","currency:XBT":"yes","name":"Pollo Campero","payment:lightning":"yes","payment:onchain":"yes","source":"KG Ground Survey 2015","takeaway":"yes"}}
{"type":"way","id":378330796,"center":{"lat":13.6733561,"lon":-89.2865238},"tags":{"addr:city":"Santa Tecla","addr:street":"2a Calle Oriente","building":"yes","check_date:currency:XBT":"2024-12-04","currency:XBT":"yes","name":"Omnisport","payment:lightning":"yes","payment:onchain":"yes","shop":"electronics","source":"KG Ground Survey 2015"}}
{"type":"way","id":378372735,"center":{"lat":13.6714438,"lon":-89.2636126},"tags":{"amenity":"ice_cream","building":"yes","check_date:currency:XBT":"2024-12-03","currency:XBT":"yes","name":"BOSTON Premium Ice Cream","payment:lightning":"yes","payment:onchain":"yes"}}
{"type":"way","id":378374319,"center":{"lat":13.6714315,"lon":-89.2549900},"tags":{"addr:street":"Boulevard Santa Elena","amenity":"restaurant","building":"yes","check_date:currency:XBT":"2024-12-10","cuisine":"international","currency:XBT":"yes","name":"Kreef","payment:lightning":"yes","payment:onchain":"yes"}}
{"type":"way","id":378380416,"center":{"lat":13.7016555,"lon":-89.2313751},"tags":{"addr:city":"San Salvador","addr:street":"Paseo General Escalón","amenity":"fast_food","brand":"Wendy's","brand:wikidata":"Q550258","brand:wikipedia":"en:Wendy's","building":"yes","check_date:currency:XBT":"2024-12-02","cuisine":"burger","currency:XBT":"yes","drive_through":"yes","name":"Wendy's","payment:lightning":"yes","payment:onchain":"yes","source":"KG Ground Survey 2015","takeaway":"yes"}}
{"type":"way","id":378380417,"center":{"lat":13.7021604,"lon":-89.2313015},"tags":{"addr:city":"San Salvador","addr:street":"Paseo General Escalón","amenity":"fuel","brand":"Puma","brand:wikidata":"Q7259769","brand:wikipedia":"en:Puma Energy","building":"yes","check_date:currency:XBT":"2024-12-03","currency:XBT":"yes","name":"Puma","payment:lightning":"yes","payment:onchain":"yes","source":"KG Ground Survey 2015"}}
{"type":"way","id":378380421,"center":{"lat":13.7014605,"lon":-89.2300878},"tags":{"addr:city":"San Salvador","addr:street":"Paseo General Escalón","building":"yes","check_date":"2023-11-22","currency:XBT":"yes","name":"Dollar City","opening_hours":"Mo-Su 09:00-20:00","payment:lightning":"yes","payment:onchain":"yes","shop":"general","source":"KG Ground Survey 2015;local knowledge"}}
{"type":"way","id":379539329,"center":{"lat":13.8726088,"lon":-89.1724129},"tags":{"addr:city":"Guazapa","addr:street":"Troncal del Norte","amenity":"fuel","building":"roof","check_date:currency:XBT":"2024-12-04","currency:XBT":"yes","name":"Texaco Guazapa","payment:lightning":"yes","payment:onchain":"yes","source":"KG Ground Survey 2014"}}
{"type":"way","id":379627423,"center":{"lat":13.9574528,"lon":-89.1849767},"tags":{"addr:city":"Aguilares","addr:street":"Troncal del Norte","amenity":"fuel","brand":"Texaco","brand:wikidata":"Q775060","building":"roof","check_date:currency:XBT":"2024-12-04","currency:XBT":"yes","name":"Texaco","payment:lightning":"yes","payment:onchain":"yes","source":"KG Ground Survey 2014"}}
{"type":"way","id":382289412,"center":{"lat":13.6835158,"lon":-89.2304659},"tags":{"amenity":"fast_food","branch":"Los Próceres","brand":"Wendy's","brand:wikidata":"Q550258","check_date:currency:XBT":"2024-12-02","cuisine":"burger","currency:XBT":"yes","drive_through":"yes","name":"Wendy's","payment:lightning":"yes","payment:onchain":"yes","takeaway":"yes"}}
{"type":"way","id":386418258,"center":{"lat":13.7042143,"lon":-89.2061446},"tags":{"addr:city":"San Salvador","addr:street":"Boulevard Tutunichapa","brand":"PriceSmart","building":"yes","check_date:currency:XBT":"2024-12-04","currency:XBT":"yes","name":"PriceSmart","opening_hours":"Mo-Su 09:00-20:30","operator":"PriceSmart","payment:cash":"yes","payment:credit_cards":"yes","payment:debit_cards":"yes","payment:lightning":"yes","payment:onchain":"yes","shop":"wholesale","source":"Visit","website":"https://pricesmart.com/"}}
{"type":"way","id":388289891,"center":{"lat":13.7007730,"lon":-89.2250404},"tags":{"amenity":"fuel","brand":"Texaco","building":"roof","check_date:currency:XBT":"2024-12-04","compressed_air":"yes","currency:XBT":"yes","name":"Texaco Salvador del Mundo","payment:lightning":"yes","payment:onchain":"yes","source":"KG Ground Survey 2016"}}
{"type":"way","id":395443160,"center":{"lat":13.7005844,"lon":-89.1915824},"tags":{"addr:city":"San Salvador","addr:street":"Avenida España","branch":"Avenida España","brand":"Super Selectos","building":"yes","check_date:currency:XBT":"2024-12-03","currency:XBT":"yes","name":"Super Selectos","opening_hours":"Mo-Su 07:00-21:30","operator":"Grupo Calleja SA de CV","payment:cash":"yes","payment:credit_cards":"yes","payment:debit_cards":"yes","payment:lightning":"yes","payment:onchain":"yes","shop":"supermarket","source":"KG Ground Survey 2016;local knowledge;aerial imagery","website":"http://superselectos.com/"}}
{"type":"way","id":395906289,"center":{"lat":13.6713498,"lon":-89.2555131},"tags":{"amenity":"fast_food","brand":"Taco Bell","brand:wikidata":"Q752941","building":"yes","check_date:currency:XBT":"2024-12-02","cuisine":"tex-mex","currency:XBT":"yes","name":"Taco Bell","payment:lightning":"yes","payment:onchain":"yes","takeaway":"yes"}}
{"type":"way","id":396093167,"center":{"lat":13.7007608,"lon":-89.2205912},"tags":{"amenity":"fast_food","building":"yes","check_date:currency:XBT":"2024-12-03","cuisine":"ice_cream","currency:XBT":"yes","name":"BOSTON Premiun Ice Cream","payment:lightning":"yes","payment:onchain":"yes","source":"KG Ground Survey 2016"}}
{"type":"way","id":396098993,"center":{"lat":13.6660378,"lon":-89.2641754},"tags":{"addr:street":"Bulevar Orden de Malta","amenity":"fast_food","building":"yes","check_date:currency:XBT":"2024-12-03","cuisine":"chicken","currency:XBT":"yes","name":"Don Pollo","payment:lightning":"yes","payment:onchain":"yes","source":"KG Ground Survey 2016","takeaway":"yes"}}
{"type":"way","id":396263621,"center":{"lat":13.7006424,"lon":-89.2136014},"tags":{"addr:street":"Alameda Franklin Delano Roosevelt","amenity":"bank","brand":"BAC Credomatic","brand:wikidata":"Q5715556","building":"yes","check_date:currency:XBT":"2024-12-03","currency:XBT":"yes","name":"BAC Credomatic","payment:lightning":"yes","payment:onchain":"yes","source":"KG Ground Survey 2016"}}
{"type":"way","id":396263636,"center":{"lat":13.7009034,"lon":-89.2155915},"tags":{"addr:street":"Boulevard de Los Héroes","amenity":"fuel","brand":"Puma","brand:wikidata":"Q7259769","check_date:currency:XBT":"2024-12-03","compressed_air":"yes","currency:XBT":"yes","landuse":"retail","name":"Puma Roosevelt","payment:lightning":"yes","payment:onchain":"yes","source":"KG Ground Survey 2016"}}
{"type":"way","id":396763278,"center":{"lat":13.7100699,"lon":-89.2036819},"tags":{"addr:city":"San Salvador","addr:street":"Avenida José Gustavo Guerrero","amenity":"fast_food","branch":"Fuente Luminosa","brand":"Pollo Campero","brand:wikidata":"Q942741","building":"yes","check_date:currency:XBT":"2024-12-02","cuisine":"chicken","currency:XBT":"yes","layer":"1","name":"Pollo Campero","payment:lightning":"yes","payment:onchain":"yes","source":"KG Ground Survey 2016","takeaway":"yes"}}
{"type":"way","id":396775432,"center":{"lat":13.7350915,"lon":-89.2174859},"tags":{"amenity":"fuel","brand":"Puma","brand:wikidata":"Q7259769","check_date:currency:XBT":"2024-12-03","currency:XBT":"yes","name":"Puma La Gloria (Constitución y Calle al Volcán)","opening_hours":"24/7","operator":"Puma","payment:lightning":"yes","payment:onchain":"yes","self_service":"yes","source":"KG Ground Survey 2016"}}
{"type":"way","id":396777618,"center":{"lat":13.7156736,"lon":-89.2145905},"tags":{"addr:street":"Calle San Antonio Abad","amenity":"ice_cream","building":"yes","check_date:currency:XBT":"2024-12-03","currency:XBT":"yes","name":"BOSTON Premiun Ice Cream","payment:lightning":"yes","payment:onchain":"yes","source":"KG Ground Survey 2016"}}
{"type":"way","id":396788110,"center":{"lat":13.7213695,"lon":-89.2168946},"tags":{"addr:street":"Avenida Bernal","amenity":"fuel","building":"roof","check_date:currency:XBT":"2024-12-04","currency:XBT":"yes","name":"Dlc","payment:lightning":"yes","payment:onchain":"yes","source":"KG Ground Survey 2016"}}
{"type":"way","id":396795805,"center":{"lat":13.7292695,"lon":-89.2118134},"tags":{"addr:city":"San Salvador","addr:postcode":"00503","addr:street":"Av. Las Termópilas","amenity":"fast_food","building":"yes","check_date:currency:XBT":"2024-12-03","cuisine":"chicken","currency:XBT":"yes","name":"Don Pollo","operator":"Don Pollo","payment:lightning":"yes","payment:onchain":"yes","source":"KG Ground Survey 2016"}}
{"type":"way","id":396925149,"center":{"lat":13.7218855,"lon":-89.2224561},"tags":{"addr:street":"Boulevard Constitucion","amenity":"fast_food","brand":"Papa John's","brand:wikidata":"Q2759586","building":"yes","check_date:currency:XBT":"2024-12-02","cuisine":"pizza","currency:XBT":"yes","name":"Papa John's","payment:lightning":"yes","payment:onchain":"yes","phone":"2273 3333","source":"Survey","takeaway":"yes"}}
{"type":"way","id":396990916,"center":{"lat":13.7265445,"lon":-89.1876981},"tags":{"addr:city":"Mejicanos","addr:postcode":"503","addr:street":"Calle a Mariona","building":"yes","building:levels":"1","check_date:currency:XBT":"2023-02-13","currency:XBT":"yes","leisure":"fitness_centre","name":"La Roca Gym Mejicanos","opening_hours":"Mo-Sa 04:30-21:30","payment:lightning":"yes","payment:lightning_contactless":"no","payment:onchain":"yes","phone":"+503 7430 0981","roof:levels":"1","website":"https://www.facebook.com/Gimnaciolarocamejicanos"}}
{"type":"way","id":397116783,"center":{"lat":13.7290858,"lon":-89.2102099},"tags":{"addr:street":"Calle Zacamil","amenity":"fast_food","branch":"Unicentro Zacamil","brand":"Pollo Campero","brand:wikidata":"Q942741","building":"yes","check_date:currency:XBT":"2024-12-02","cuisine":"chicken","currency:XBT":"yes","name":"Pollo Campero","payment:lightning":"yes","payment:onchain":"yes","source":"KG Ground Survey 2016","takeaway":"yes"}}
{"type":"way","id":397143725,"center":{"lat":13.7130446,"lon":-89.1924860},"tags":{"amenity":"fast_food","branch":"San Miguelito","brand":"McDonald's","brand:wikidata":"Q38076","building":"yes","check_date:currency:XBT":"2024-12-02","contact:email":"servicio.cliente@mcd.com.sv","contact:phone":"+503 2509 9999","contact:website":"https://domicilio.mcdonalds.com.sv","cuisine":"burger","currency:XBT":"yes","name":"McDonald's","opening_hours":"Fr-Sa 06:00-22:30; Mo-Th,Su 06:00-22:00","payment:lightning":"yes","payment:onchain":"yes","source":"Visit","takeaway":"yes"}}
{"type":"way","id":397150982,"center":{"lat":13.7085409,"lon":-89.1906360},"tags":{"addr:city":"San Salvador","addr:street":"Avenida España","amenity":"fuel","brand":"Puma","brand:wikidata":"Q7259769","check_date:currency:XBT":"2024-12-03","currency:XBT":"yes","name":"Puma","payment:lightning":"yes","payment:onchain":"yes","source":"KG Ground Survey 2016"}}
{"type":"way","id":397322967,"center":{"lat":13.6718024,"lon":-89.2886606},"tags":{"addr:street":"4a Calle Poniente","brand":"Dollarcity","brand:wikidata":"Q107120814","building":"retail","check_date:currency:XBT":"2024-12-03","currency:XBT":"yes","name":"Dollarcity","payment:lightning":"yes","payment:onchain":"yes","shop":"variety_store","source":"KG Ground Survey 2016"}}
{"type":"way","id":398006218,"center":{"lat":13.6682831,"lon":-89.2803816},"tags":{"addr:city":"Santa Tecla","addr:housenumber":"33","addr:street":"10 Calle Oriente","amenity":"social_facility","building":"house","check_date:currency:XBT":"2025-02-10","contact:facebook":"https://www.facebook.com/p/Mi-Casa-Kids-100069715321667/","currency:XBT":"yes","name":"Mi Casa Kids","payment:lightning":"yes","payment:onchain":"yes","phone":"+50325560300","social_facility":"group_home","social_facility:for":"orphan","source":"KG Ground Survey 2016","website":"https://www.micasakids.org/"}}
{"type":"way","id":398046831,"center":{"lat":13.7123080,"lon":-89.2474816},"tags":{"amenity":"fuel","brand":"Texaco","brand:wikidata":"Q775060","building":"roof","check_date:currency:XBT":"2024-12-04","currency:XBT":"yes","name":"Texaco Lomas Verdes","payment:lightning":"yes","payment:onchain":"yes","source":"KG Ground Survey 2015"}}
{"type":"way","id":398061441,"center":{"lat":13.7073405,"lon":-89.1052317},"tags":{"addr:city":"San Bartolo","addr:street":"Boulevard San Bartolo","amenity":"fuel","building":"roof","check_date:currency:XBT":"2024-12-04","currency:XBT":"yes","name":"Dlc","payment:lightning":"yes","payment:onchain":"yes","source":"KG Ground Survey 2015"}}
{"type":"way","id":398069872,"center":{"lat":13.7063444,"lon":-89.1044837},"tags":{"addr:city":"San Bartolo","addr:street":"4 Avenida Norte","amenity":"fast_food","building":"yes","check_date:currency:XBT":"2024-12-03","currency:XBT":"yes","name":"Don Pollo","payment:lightning":"yes","payment:onchain":"yes","source":"KG Ground Survey 2015"}}
{"type":"way","id":398069876,"center":{"lat":13.6976538,"lon":-89.1110430},"tags":{"addr:city":"Llopango","addr:street":"Boulevard del Ejército","amenity":"fuel","area":"yes","brand":"Puma","brand:wikidata":"Q7259769","building":"yes","check_date:currency:XBT":"2024-12-03","currency:XBT":"yes","layer":"1","name":"Puma Ilopango","operator":"Puma Energy","payment:lightning":"yes","payment:onchain":"yes","source":"KG Ground Survey 2015"}}
{"type":"way","id":398429647,"center":{"lat":13.7019705,"lon":-89.2240353},"tags":{"brand":"Dollarcity","brand:wikidata":"Q107120814","building":"yes","check_date:currency:XBT":"2024-12-03","currency:XBT":"yes","name":"Dollarcity","payment:lightning":"yes","payment:onchain":"yes","shop":"variety_store","source":"KG Ground Survey 2016"}}
{"type":"way","id":398429649,"center":{"lat":13.7019717,"lon":-89.2250708},"tags":{"addr:city":"San Salvador","alt_name":"McDonald's Salvador del Mundo","amenity":"fast_food","brand":"McDonald's","brand:wikidata":"Q38076","brand:wikipedia":"en:McDonald's","building":"yes","check_date:currency:XBT":"2024-12-02","contact:email":"servicio.cliente@mcd.com.sv","contact:phone":"+503 2509 9999","contact:website":"https://domicilio.mcdonalds.com.sv","cuisine":"burger","currency:XBT":"yes","delivery":"yes","drive_through":"yes","name":"McDonald's","opening_hours":"Fr-Sa 05:30-00:00; Mo-Th,Su 06:00-23:00","operator":"Arcos Doradas CV SA GT","outdoor_seating":"no","payment:lightning":"yes","payment:onchain":"yes","smoking":"no","source":"KG Ground Survey 2016","takeaway":"yes"}}
{"type":"way","id":398432883,"center":{"lat":13.6976155,"lon":-89.2277155},"tags":{"building":"yes","check_date:currency:XBT":"2024-12-03","currency:XBT":"yes","name":"Super 7","payment:lightning":"yes","payment:onchain":"yes","shop":"convenience","source":"KG Ground Survey 2016"}}
{"type":"way","id":398551613,"center":{"lat":13.7955915,"lon":-89.1778052},"tags":{"amenity":"fuel","brand":"Puma","brand:wikidata":"Q7259769","building":"roof","check_date:currency:XBT":"2024-12-03","currency:XBT":"yes","name":"Puma","payment:lightning":"yes","payment:onchain":"yes","source":"KG Ground Survey 2016"}}
{"type":"way","id":399273041,"center":{"lat":13.7001011,"lon":-89.1783238},"tags":{"addr:street":"Avenida Independencia","amenity":"fast_food","branch":"Avenida Peralta","brand":"Pollo Campero","brand:wikidata":"Q942741","brand:wikipedia":"en:Pollo Campero","building":"yes","check_date:currency:XBT":"2024-12-02","cuisine":"chicken","currency:XBT":"yes","name":"Pollo Campero","operator":"Pollo Campero","payment:lightning":"yes","payment:onchain":"yes","source":"KG Ground Survey 2016","takeaway":"yes"}}
{"type":"way","id":399289735,"center":{"lat":13.7206991,"lon":-89.1695165},"tags":{"addr:street":"Avenida Paleca","amenity":"fast_food","building":"yes","check_date:currency:XBT":"2024-12-03","currency:XBT":"yes","name":"Don Pollo","payment:lightning":"yes","payment:onchain":"yes","source":"KG Ground Survey 2016"}}
{"type":"way","id":399320617,"center":{"lat":13.7016001,"lon":-89.1828113},"tags":{"addr:city":"San Salvador","amenity":"fuel","brand":"Puma","brand:wikidata":"Q7259769","brand:wikipedia":"en:Puma Energy","building":"roof","check_date:currency:XBT":"2024-12-03","currency:XBT":"yes","name":"Puma","payment:lightning":"yes","payment:onchain":"yes","source":"KG Ground Survey 2016"}}
{"type":"way","id":399328308,"center":{"lat":13.7974659,"lon":-89.1781950},"tags":{"addr:city":"Apopa","addr:street":"Avenida Quirino Chávez","brand":"La Curacao","brand:wikidata":"Q5194599","building":"yes","check_date:currency:XBT":"2024-12-04","currency:XBT":"yes","name":"La Curacao","payment:lightning":"yes","payment:onchain":"yes","shop":"electronics","source":"KG Ground Survey 2016"}}
{"type":"way","id":399508126,"center":{"lat":13.8014871,"lon":-89.1760013},"tags":{"addr:city":"Apopa","addr:street":"Carretera Troncal del Norte","building":"yes","check_date:currency:XBT":"2024-12-03","currency:XBT":"yes","name":"Maxi Despensa","payment:lightning":"yes","payment:onchain":"yes","shop":"supermarket","source":"KG Ground Survey 2016"}}
{"type":"way","id":399509384,"center":{"lat":13.6983911,"lon":-89.1955020},"tags":{"addr:city":"San Salvador","addr:street":"2a Calle Poniente","building":"yes","check_date:currency:XBT":"2024-12-04","currency:XBT":"yes","layer":"1","name":"Curacao","payment:lightning":"yes","payment:onchain":"yes","shop":"electronics","source":"KG Ground Survey 2016"}}
{"type":"way","id":399524344,"center":{"lat":13.7023349,"lon":-89.2313042},"tags":{"addr:street":"Paseo General Escalón","building":"yes","check_date:currency:XBT":"2024-12-03","currency:XBT":"yes","name":"Super 7","payment:lightning":"yes","payment:onchain":"yes","shop":"convenience","source":"KG Ground Survey 2016"}}
{"type":"way","id":399530076,"center":{"lat":13.7036236,"lon":-89.2465223},"tags":{"amenity":"fast_food","brand":"Taco Bell","brand:wikidata":"Q752941","brand:wikipedia":"en:Taco Bell","building":"yes","check_date:currency:XBT":"2024-12-02","cuisine":"tex-mex","currency:XBT":"yes","name":"Taco Bell","payment:lightning":"yes","payment:onchain":"yes","source":"KG Ground Survey 2016","takeaway":"yes"}}
{"type":"way","id":399532206,"center":{"lat":13.7056518,"lon":-89.2488910},"tags":{"addr:street":"Avenida Masferrer Sur","amenity":"fast_food","brand":"Wendy's","brand:wikidata":"Q550258","building":"yes","check_date:currency:XBT":"2024-12-02","cuisine":"burger","currency:XBT":"yes","drive_through":"yes","name":"Wendy's","payment:lightning":"yes","payment:onchain":"yes","source":"KG Ground Survey 2016","takeaway":"yes"}}
{"type":"way","id":399532219,"center":{"lat":13.7081199,"lon":-89.2485260},"tags":{"addr:street":"Avenida Masferrer Sur","building":"yes","currency:XBT":"yes","name":"Shaw's","payment:lightning":"yes","payment:onchain":"yes","shop":"chocolate","source":"KG Ground Survey 2016","survey:date":"2024-10-19"}}
{"type":"way","id":399533767,"center":{"lat":13.7084168,"lon":-89.2483372},"tags":{"addr:city":"San Salvador","addr:housenumber":"510","addr:street":"7a Calle Poniente Bis","brand":"Yamaha","brand:wikidata":"Q158888","building":"yes","check_date:currency:XBT":"2024-05-07","currency:XBT":"yes","name":"Yamaha","opening_hours":"Mo-Fr 08:00-18:00, Sa 08:00-12:00","payment:lightning":"yes","payment:onchain":"yes","phone":"+50322981818","shop":"motorcycle","source":"KG Ground Survey 2016","website":"https://www.yamaha-motor.com.sv/"}}
{"type":"way","id":399546790,"center":{"lat":13.7087865,"lon":-89.2320531},"tags":{"addr:street":"75 Avenida Norte","amenity":"fuel","brand":"Puma","brand:wikidata":"Q7259769","building":"roof","check_date:currency:XBT":"2024-12-03","currency:XBT":"yes","name":"Puma","payment:lightning":"yes","payment:onchain":"yes","source":"KG Ground Survey 2016"}}
{"type":"way","id":399546791,"center":{"lat":13.7086942,"lon":-89.2318072},"tags":{"building":"yes","check_date:currency:XBT":"2024-12-03","currency:XBT":"yes","name":"Super 7","payment:lightning":"yes","payment:onchain":"yes","shop":"convenience","source":"KG Ground Survey 2016"}}
{"type":"way","id":399682937,"center":{"lat":13.6989207,"lon":-89.1968105},"tags":{"addr:city":"San Salvador","addr:street":"11 Avenida Sur","building":"yes","check_date:currency:XBT":"2024-12-04","currency:XBT":"yes","name":"Omnisport","payment:lightning":"yes","payment:onchain":"yes","shop":"electronics","source":"KG Ground Survey 2016"}}
{"type":"way","id":399700244,"center":{"lat":13.7012068,"lon":-89.2265417},"tags":{"addr:city":"San Salvador","addr:street":"Paseo General Escalón","amenity":"bank","area":"yes","building":"yes","check_date:currency:XBT":"2024-12-03","currency:XBT":"yes","name":"Banco Cuscatlán","payment:lightning":"yes","payment:onchain":"yes","source":"KG Ground Survey 2016"}}
{"type":"way","id":399722650,"center":{"lat":13.6995722,"lon":-89.2353823},"tags":{"amenity":"bank","atm":"yes","building":"yes","check_date:currency:XBT":"2024-12-03","currency:XBT":"yes","drive_through":"yes","name":"Banco Cuscatlan","payment:lightning":"yes","payment:onchain":"yes"}}
{"type":"way","id":399726096,"center":{"lat":13.7083837,"lon":-89.2383421},"tags":{"addr:city":"San Salvador","addr:housenumber":"11","addr:street":"Calle Poniente, Calle del mirador 4323","building":"yes","check_date:currency:XBT":"2023-11-23","currency:XBT":"yes","guest_house":"bed_and_breakfast","internet_access":"wlan","internet_access:fee":"no","name":"Hotel Sueños","payment:lightning":"yes","payment:lightning_contactless":"no","payment:onchain":"no","phone":"+50325000934","survey:date":"2023-11-18","tourism":"hotel"}}
{"type":"way","id":399741846,"center":{"lat":13.7085291,"lon":-89.2102416},"tags":{"addr:street":"Pasaje Las Palmeras","amenity":"ice_cream","building":"yes","check_date:currency:XBT":"2024-12-03","currency:XBT":"yes","name":"BOSTON Premiun Ice Cream","payment:lightning":"yes","payment:onchain":"yes","source":"KG Ground Survey 2016"}}
{"type":"way","id":399782016,"center":{"lat":13.7093305,"lon":-89.2090946},"tags":{"amenity":"fast_food","branch":"Los Heroes","brand":"Wendy's","brand:wikidata":"Q550258","building":"yes","check_date:currency:XBT":"2024-12-02","cuisine":"burger","currency:XBT":"yes","drive_through":"yes","layer":"1","name":"Wendy's","payment:lightning":"yes","payment:onchain":"yes","source":"KG Ground Survey 2016","takeaway":"yes"}}
{"type":"way","id":400044815,"center":{"lat":13.7004391,"lon":-89.1664589},"tags":{"building":"yes","check_date:currency:XBT":"2024-12-03","currency:XBT":"yes","name":"Maxi Despensa","payment:lightning":"yes","payment:onchain":"yes","shop":"supermarket"}}
{"type":"way","id":400055518,"center":{"lat":13.7018524,"lon":-89.1616804},"tags":{"addr:city":"San Salvador","addr:street":"Boulevard del Ejército","alt_name":"SERTRACEN Soyapango","branch":"Boulevard del Ejercito","building":"yes","check_date:currency:XBT":"2024-12-10","currency:XBT":"yes","government":"transportation","name":"Sertracen","office":"government","opening_hours":"Mo-Sa 08:00-16:00; Su off","payment:lightning":"yes","payment:onchain":"yes"}}
{"type":"way","id":400056519,"center":{"lat":13.7155124,"lon":-89.2122563},"tags":{"amenity":"fast_food","branch":"San Luis","brand":"McDonald's","brand:wikidata":"Q38076","brand:wikipedia":"en:McDonald's","building":"construction","check_date:currency:XBT":"2024-12-02","contact:email":"servicio.cliente@mcd.com.sv","contact:phone":"+503 2509 9999","contact:website":"https://domicilio.mcdonalds.com.sv","cuisine":"burger","currency:XBT":"yes","delivery":"yes","delivery:partner":"pedidosya","name":"McDonald's","opening_hours":"Fr 06:00-22:30; Mo-Th,Su 06:00-22:00; Sa 06:00-23:00","payment:lightning":"yes","payment:onchain":"yes","source":"KG Ground Survey 2016","takeaway":"yes"}}
{"type":"way","id":400818639,"center":{"lat":13.7366445,"lon":-89.0543408},"tags":{"addr:city":"San Martín","addr:street":"4a Avenida","amenity":"fast_food","building":"yes","check_date:currency:XBT":"2024-12-03","currency:XBT":"yes","name":"Don Pollo","payment:lightning":"yes","payment:onchain":"yes","source":"KG Ground Survey 2016"}}
{"type":"way","id":400825899,"center":{"lat":13.6925488,"lon":-89.2193780},"tags":{"amenity":"fuel","brand":"Texaco","brand:wikidata":"Q775060","brand:wikipedia":"en:Texaco","building":"roof","check_date:currency:XBT":"2024-12-04","currency:XBT":"yes","name":"Texaco","payment:lightning":"yes","payment:onchain":"yes","source":"KG Ground Survey 2016"}}
{"type":"way","id":400846769,"center":{"lat":13.6914763,"lon":-89.2383578},"tags":{"addr:city":"San Salvador","addr:street":"Avenida Las Magnolias","amenity":"restaurant","building":"yes","check_date:currency:XBT":"2025-07-15","currency:XBT":"yes","name":"Relajo","payment:lightning":"yes","payment:lightning_contactless":"yes","payment:onchain":"yes","source":"KG Ground Survey 2016","survey:date":"2025-03-13"}}
{"type":"way","id":400846773,"center":{"lat":13.6906307,"lon":-89.2392590},"tags":{"addr:city":"San Salvador","addr:street":"Bulevar Sergio Viera de Mello","amenity":"restaurant","brand":"Denny's","brand:wikidata":"Q1189695","brand:wikipedia":"en:Denny's","building":"yes","check_date:currency:XBT":"2024-12-03","cuisine":"american","currency:XBT":"yes","name":"Denny's","payment:lightning":"yes","payment:onchain":"yes","source":"KG Ground Survey 2016"}}
{"type":"way","id":424940384,"center":{"lat":13.6763825,"lon":-89.2548794},"tags":{"amenity":"cinema","brand":"Cinemark","brand:wikidata":"Q707530","building":"yes","building:levels":"2","check_date:currency:XBT":"2024-12-04","currency:XBT":"yes","name":"Cinemark La Gran Via","payment:lightning":"yes","payment:onchain":"yes"}}
{"type":"way","id":432685380,"center":{"lat":13.7228603,"lon":-89.2339104},"tags":{"amenity":"fuel","brand":"Texaco","brand:wikidata":"Q775060","brand:wikipedia":"en:Texaco","building":"roof","check_date:currency:XBT":"2024-12-04","currency:XBT":"yes","name":"Texaco","payment:lightning":"yes","payment:onchain":"yes","source":"KG Ground Survey 2015"}}
{"type":"way","id":455148804,"center":{"lat":13.7250233,"lon":-89.0905712},"tags":{"amenity":"fuel","check_date:currency:XBT":"2024-12-04","currency:XBT":"yes","name":"Texaco Altavista","payment:lightning":"yes","payment:onchain":"yes"}}
{"type":"way","id":455441414,"center":{"lat":13.7015899,"lon":-89.1830083},"tags":{"addr:city":"San Salvador","building":"yes","check_date:currency:XBT":"2024-12-03","currency:XBT":"yes","name":"Super 7","payment:lightning":"yes","payment:onchain":"yes","shop":"convenience"}}
{"type":"way","id":465800866,"center":{"lat":13.6780568,"lon":-89.3000586},"tags":{"addr:city":"Santa Tecla","addr:street":"Avenida Diego de Holguin","amenity":"fast_food","building":"yes","building:levels":"1","check_date:currency:XBT":"2024-12-02","cuisine":"burger;desayunos;cafe","currency:XBT":"yes","delivery":"yes","drive_through":"yes","name":"Mc Donald´s Santa Rosa","opening_hours":"Mo-Su 06:30-23:00","outdoor_seating":"yes","payment:lightning":"yes","payment:onchain":"yes","smoking":"isolated","takeaway":"yes"}}
{"type":"way","id":465800867,"center":{"lat":13.6779565,"lon":-89.3006084},"tags":{"addr:city":"Santa Tecla","amenity":"fast_food","brand":"Pollo Campero","brand:wikidata":"Q942741","brand:wikipedia":"en:Pollo Campero","building":"yes","building:levels":"1","check_date:currency:XBT":"2024-12-02","cuisine":"chicken","currency:XBT":"yes","drive_through":"yes","name":"Pollo Campero","payment:lightning":"yes","payment:onchain":"yes","takeaway":"yes"}}
{"type":"way","id":474517375,"center":{"lat":13.6779323,"lon":-89.2980625},"tags":{"addr:city":"Santa Tecla","addr:street":"16 Avenida Norte","amenity":"cafe","brand":"Starbucks","brand:wikidata":"Q37158","building":"yes","building:levels":"1","check_date:currency:XBT":"2024-12-02","cuisine":"coffee_shop","currency:XBT":"yes","name":"Starbucks","official_name":"Starbucks Coffee","payment:lightning":"yes","payment:onchain":"yes","takeaway":"yes"}}
{"type":"way","id":527148432,"center":{"lat":13.6983058,"lon":-89.2205341},"tags":{"building":"yes","building:levels":"1","check_date:currency:XBT":"2024-12-03","currency:XBT":"yes","name":"Super Selectos","opening_hours":"Su-Th 07:00-22:00; Fr,Sa 07:00-23:00","operator":"Grupo Calleja, S.A de C.V","payment:lightning":"yes","payment:onchain":"yes","phone":"+50322233860","shop":"supermarket"}}
{"type":"way","id":576035308,"center":{"lat":13.7149950,"lon":-89.1761848},"tags":{"addr:street":"Carretera Troncal del Norte","amenity":"fuel","branch":"Troncal del Norte","brand":"Texaco","brand:wikidata":"Q775060","check_date:currency:XBT":"2024-12-04","currency:XBT":"yes","name":"Texaco","opening_hours":"sunrise-sunset","operator":"Texaco","payment:lightning":"yes","payment:onchain":"yes"}}
{"type":"way","id":596665236,"center":{"lat":13.7009692,"lon":-89.2223504},"tags":{"amenity":"ice_cream","building":"yes","check_date:currency:XBT":"2024-12-03","currency:XBT":"yes","name":"BOSTON Premiun Ice Cream","payment:lightning":"yes","payment:onchain":"yes"}}
{"type":"way","id":633417710,"center":{"lat":13.7162984,"lon":-89.2120087},"tags":{"amenity":"bank","atm":"yes","building":"yes","check_date:currency:XBT":"2024-12-03","currency:XBT":"yes","drive_through":"yes","name":"Banco Cuscatlan","operator":"Banco Cuscatlan","payment:lightning":"yes","payment:onchain":"yes"}}
{"type":"way","id":633417711,"center":{"lat":13.6724585,"lon":-89.2855499},"tags":{"addr:city":"Santa Tecla","addr:street":"3ª Avenida Sur","amenity":"bank","atm":"yes","building":"yes","check_date:currency:XBT":"2024-12-03","currency:XBT":"yes","name":"Banco Cuscatlán","operator":"Banco Cuscatlán","payment:lightning":"yes","payment:onchain":"yes"}}
{"type":"way","id":643111906,"center":{"lat":13.6811863,"lon":-89.2467564},"tags":{"amenity":"cafe","brand":"Starbucks","brand:wikidata":"Q37158","building":"commercial","building:levels":"1","check_date:currency:XBT":"2024-12-02","cuisine":"coffee_shop","currency:XBT":"yes","height":"5","internet_access":"yes","internet_access:fee":"no","name":"Starbucks","official_name":"Starbucks Coffee","outdoor_seating":"yes","payment:lightning":"yes","payment:onchain":"yes","takeaway":"yes"}}
{"type":"way","id":671289384,"center":{"lat":13.7082765,"lon":-89.2272201},"tags":{"building":"yes","check_date:currency:XBT":"2024-12-03","currency:XBT":"yes","name":"Super 7","payment:lightning":"yes","payment:onchain":"yes","shop":"convenience"}}
{"type":"way","id":671751940,"center":{"lat":13.7020639,"lon":-89.2409235},"tags":{"addr:street":"Calle Padres Aguilar","amenity":"ice_cream","building":"yes","check_date:currency:XBT":"2024-12-03","currency:XBT":"yes","name":"BOSTON Premiun Ice Cream","payment:lightning":"yes","payment:onchain":"yes"}}
{"type":"way","id":700431998,"center":{"lat":13.7802348,"lon":-89.1172395},"tags":{"addr:city":"Tonacatepeque","addr:street":"Calle San Nicolás","air_conditioning":"no","amenity":"fast_food","building":"yes","check_date:currency:XBT":"2024-12-03","cuisine":"chicken","currency:XBT":"yes","delivery":"no","name":"Don Pollo","opening_hours":"Mo-Su 10:00-16:00","payment:lightning":"yes","payment:onchain":"yes","smoking":"no","source":"local knowledge","takeaway":"only"}}
{"type":"way","id":776388874,"center":{"lat":13.7156671,"lon":-89.2138628},"tags":{"addr:city":"San Salvador","amenity":"fast_food","brand":"Pollo Campero","building":"yes","check_date:currency:XBT":"2024-12-02","cuisine":"chicken","currency:XBT":"yes","drive_through":"no","name":"Pollo Campestre","not:brand:wikidata":"Q942741","opening_hours":"Mo-Su 06:30-21:00","payment:lightning":"yes","payment:onchain":"yes","takeaway":"yes"}}
{"type":"way","id":793156661,"center":{"lat":13.7020333,"lon":-89.2242287},"tags":{"amenity":"fast_food","building":"yes","check_date:currency:XBT":"2024-12-03","contact:facebook":"https://fb.me/DonPolloElSalvador","cuisine":"chicken","currency:XBT":"yes","name":"Don Pollo","payment:lightning":"yes","payment:onchain":"yes","phone":"+503 2231-9800"}}
{"type":"way","id":793972259,"center":{"lat":13.6775988,"lon":-89.2863148},"tags":{"amenity":"fast_food","building":"yes","check_date:currency:XBT":"2025-02-24","cuisine":"pizza","currency:XBT":"yes","description":"C'est un restaurant de pizza faite dans un four artesanal.","drive_through":"no","name":"La Clasica","opening_hours":"Mo-Sa 08:00-20:00","payment:lightning":"yes","payment:onchain":"yes","phone":"+50322880777","website":"http://www.pizzerialaclasica.com/MENU_QR.pdf"}}
{"type":"way","id":810909172,"center":{"lat":13.6712092,"lon":-89.2701388},"tags":{"addr:city":"Santa Tecla","addr:street":"Carril Auxiliar Carretera Panamericana","amenity":"restaurant","branch":"Las Ramblas","brand":"Denny's","brand:wikidata":"Q1189695","brand:wikipedia":"en:Denny's","building":"yes","check_date:currency:XBT":"2024-12-03","cuisine":"american","currency:XBT":"yes","name":"Denny's","opening_hours":"24/7","payment:lightning":"yes","payment:onchain":"yes"}}
{"type":"way","id":810924199,"center":{"lat":13.6711342,"lon":-89.2688319},"tags":{"addr:city":"Santa Tecla","addr:street":"Carril Auxiliar Carretera Panamericana","amenity":"cafe","brand":"Starbucks","brand:wikidata":"Q37158","brand:wikipedia":"en:Starbucks","building":"yes","check_date:currency:XBT":"2024-12-02","cuisine":"coffee_shop","currency:XBT":"yes","drive_through":"yes","internet_access":"yes","internet_access:fee":"customers","name":"Starbucks","official_name":"Starbucks Coffee","opening_hours":"Mo-Su 10:00-22:00","payment:lightning":"yes","payment:onchain":"yes","takeaway":"yes"}}
{"type":"way","id":953103109,"center":{"lat":13.7922710,"lon":-89.1753453},"tags":{"addr:city":"Apopa","addr:housenumber":"PeriPlaza","addr:street":"Calle Insinca","air_conditioning":"yes","amenity":"fast_food","brand":"Pollo Campero","brand:wikidata":"Q942741","brand:wikipedia":"en:Pollo Campero","building":"yes","check_date:currency:XBT":"2024-12-03","cuisine":"chicken","currency:XBT":"yes","drive_through":"yes","name":"Pollo Campero","payment:lightning":"yes","payment:onchain":"yes","phone":"+50322736000","takeaway":"yes","website":"https://www.campero.com/sv/inicio"}}
{"type":"way","id":983422602,"center":{"lat":13.7042005,"lon":-89.1861789},"tags":{"alt_name":"Texaco Centenario","amenity":"fuel","branch":"Parque Centenario","brand":"Texaco","brand:wikidata":"Q775060","brand:wikipedia":"en:Texaco","building":"roof","check_date:currency:XBT":"2024-12-04","currency:XBT":"yes","name":"Texaco Centenario","payment:lightning":"yes","payment:onchain":"yes"}}
{"type":"way","id":984088857,"center":{"lat":13.7149225,"lon":-89.1452913},"tags":{"amenity":"fuel","building":"roof","check_date:currency:XBT":"2024-12-04","currency:XBT":"yes","name":"Dlc","payment:lightning":"yes","payment:onchain":"yes"}}
{"type":"way","id":984938603,"center":{"lat":13.6828538,"lon":-89.2313936},"tags":{"alt_name":"Kentucky Fried Chicken","amenity":"fast_food","brand":"KFC","brand:wikidata":"Q524757","brand:wikipedia":"en:KFC","building":"yes","check_date:currency:XBT":"2024-12-02","cuisine":"chicken","currency:XBT":"yes","drive_through":"yes","name":"KFC","payment:lightning":"yes","payment:onchain":"yes","takeaway":"yes"}}
{"type":"way","id":1068606780,"center":{"lat":13.7361139,"lon":-89.2160313},"tags":{"addr:street":"Boulevard Constitución","branch":"Constitución","brand":"Walmart","brand:wikidata":"Q483551","building":"yes","check_date:currency:XBT":"2024-12-02","currency:XBT":"yes","name":"Walmart Constitución","opening_hours":"Mo-Su 07:00-22:00","payment:cash":"yes","payment:credit_cards":"yes","payment:debit_cards":"yes","payment:lightning":"yes","payment:onchain":"yes","shop":"department_store"}}
{"type":"way","id":1080161608,"center":{"lat":13.7130577,"lon":-89.1908246},"tags":{"amenity":"fast_food","branch":"San Miguelito","brand":"Pollo Campero","brand:wikidata":"Q942741","building":"yes","check_date:currency:XBT":"2024-12-02","cuisine":"chicken","currency:XBT":"yes","drive_through":"yes","name":"Pollo Campero","opening_hours":"Mo-Su 06:30-21:00","payment:lightning":"yes","payment:onchain":"yes","phone":"22269067","takeaway":"yes"}}
{"type":"way","id":1104467728,"center":{"lat":13.7020416,"lon":-89.2157876},"tags":{"addr:city":"San Salvador","addr:housenumber":"180","addr:street":"49 Avenida Norte","building":"commercial","building:levels":"2","currency:XBT":"yes","description":"IT Service","height":"6","name":"LiteNet","payment:credit_cards":"yes","payment:lightning":"yes","payment:lightning_contactless":"no","payment:onchain":"yes","phone":"+503 2124 8888","smoking":"outside","survey:date":"2022-10-24","website":"https://www.lite-net.net/"}}
{"type":"way","id":1107296005,"center":{"lat":13.7229113,"lon":-89.1871250},"tags":{"amenity":"fast_food","building":"yes","check_date:currency:XBT":"2024-12-03","cuisine":"chicken","currency:XBT":"yes","drive_through":"no","name":"Don Pollo","payment:lightning":"yes","payment:onchain":"yes"}}
{"type":"way","id":1107296007,"center":{"lat":13.7229652,"lon":-89.1879833},"tags":{"amenity":"fast_food","building":"yes","check_date:currency:XBT":"2024-12-02","cuisine":"chicken","currency:XBT":"yes","drive_through":"no","name":"Pollo Campestre","payment:lightning":"yes","payment:onchain":"yes"}}
{"type":"way","id":1108623425,"center":{"lat":13.6834591,"lon":-89.2297889},"tags":{"amenity":"fast_food","branch":"Los Próceres","brand":"Pollo Campero","brand:wikidata":"Q942741","brand:wikipedia":"en:Pollo Campero","check_date:currency:XBT":"2024-12-02","cuisine":"chicken","currency:XBT":"yes","drive_through":"yes","name":"Pollo Campero","payment:lightning":"yes","payment:onchain":"yes","takeaway":"yes"}}
{"type":"way","id":1110611012,"center":{"lat":13.7153935,"lon":-89.2027048},"tags":{"addr:city":"San Salvador","addr:street":"25 Avenida Norte","branch":"Universidad Nacional","brand":"Dollarcity","brand:wikidata":"Q107120814","building":"yes","check_date:currency:XBT":"2024-12-03","currency:XBT":"yes","name":"Dollarcity","opening_hours":"Mo-Su 08:00-21:00","operator":"Dollarcity","payment:cash":"yes","payment:credit_cards":"yes","payment:debit_cards":"yes","payment:lightning":"yes","payment:onchain":"yes","shop":"variety_store"}}
{"type":"way","id":1110936185,"center":{"lat":13.7194677,"lon":-89.2420476},"tags":{"amenity":"fuel","brand":"DLC","check_date:currency:XBT":"2024-12-04","currency:XBT":"yes","name":"DLC Masferrer","name:es":"DLC Altos de la Escalón","opening_hours":"24/7","payment:lightning":"yes","payment:onchain":"yes"}}
{"type":"way","id":1110949728,"center":{"lat":13.6992332,"lon":-89.2045303},"tags":{"amenity":"fuel","brand":"Puma","brand:wikidata":"Q7259769","check_date:currency:XBT":"2024-12-03","currency:XBT":"yes","name":"Puma Rubén Dario","name:es":"Puma DIDEA","payment:lightning":"yes","payment:onchain":"yes"}}
{"type":"way","id":1110960119,"center":{"lat":13.7011495,"lon":-89.2157636},"tags":{"building":"yes","check_date:currency:XBT":"2024-12-03","currency:XBT":"yes","name":"Super 7","payment:lightning":"yes","payment:onchain":"yes","shop":"convenience"}}
{"type":"way","id":1115619803,"center":{"lat":13.7043060,"lon":-89.2047492},"tags":{"amenity":"fuel","branch":"Boulevard Tutunichapa","brand":"Texaco","brand:wikidata":"Q775060","check_date:currency:XBT":"2024-12-04","currency:XBT":"yes","name":"Texaco","payment:lightning":"yes","payment:onchain":"yes"}}
{"type":"way","id":1131912702,"center":{"lat":13.7126083,"lon":-89.1850898},"tags":{"amenity":"fuel","branch":"Las Terrazas","brand":"Puma","brand:wikidata":"Q7259769","check_date:currency:XBT":"2024-12-03","currency:XBT":"yes","name":"Puma Las Terrazas","payment:lightning":"yes","payment:onchain":"yes","self_service":"yes"}}
{"type":"way","id":1131912703,"center":{"lat":13.7125704,"lon":-89.1848353},"tags":{"building":"yes","check_date:currency:XBT":"2024-12-03","currency:XBT":"yes","name":"Super 7","payment:lightning":"yes","payment:onchain":"yes","shop":"convenience"}}
{"type":"way","id":1133363332,"center":{"lat":13.7152783,"lon":-89.1896181},"tags":{"addr:city":"San Salvador","addr:street":"2ª Avenida Norte","alt_name":"Puma España","amenity":"fuel","branch":"La Rábida","brand":"Puma","brand:wikidata":"Q7259769","building":"roof","check_date:currency:XBT":"2024-12-03","compressed_air":"yes","currency:XBT":"yes","fuel:diesel":"yes","fuel:octane_95":"yes","fuel:octane_98":"yes","name":"Puma La Rábida","opening_hours":"Mo-Su,PH 08:00-21:00","payment:lightning":"yes","payment:onchain":"yes"}}
{"type":"way","id":1133593412,"center":{"lat":13.7045069,"lon":-89.2151571},"tags":{"amenity":"fast_food","branch":"Metrosur","brand":"Pollo Campero","brand:wikidata":"Q942741","check_date:currency:XBT":"2024-12-02","cuisine":"chicken","currency:XBT":"yes","drive_through":"no","name":"Pollo Campero","payment:lightning":"yes","payment:onchain":"yes","takeaway":"yes"}}
{"type":"way","id":1144437415,"center":{"lat":13.6753598,"lon":-89.2520737},"tags":{"addr:street":"Carretera Panamericana","amenity":"hospital","building":"yes","currency:XBT":"yes","healthcare":"hospital","healthcare:speciality":"pets","name":"Chivo Pets","opening_hours":"Mo-Su 07:00-00:00","operator":"Gobierno de El Salvador","payment:lightning":"yes","survey:date":"2024-12-02","website":"https://chivopets.sv/"}}
{"type":"way","id":1176201608,"center":{"lat":13.7330507,"lon":-89.2659626},"tags":{"amenity":"cafe","building":"yes","check_date:currency:XBT":"2024-12-09","currency:XBT":"yes","name":"Café del Volcán","payment:lightning":"yes","payment:onchain":"yes"}}
{"type":"way","id":1188582762,"center":{"lat":13.6403415,"lon":-89.1790139},"tags":{"addr:street":"Carretera a San Marcos","air_conditioning":"yes","breakfast":"yes","building":"yes","currency:XBT":"yes","internet_access":"yes","layer":"1","name":"Hotel Boutique Amatechan","name:en":"Amatechan Hotel & Boutique","payment:lightning":"yes","payment:onchain":"yes","phone":"+503 2212 6510","survey:date":"2024-11-02","tourism":"hotel"}}
{"type":"way","id":1191528184,"center":{"lat":13.8902559,"lon":-89.1762426},"tags":{"amenity":"fuel","branch":"Rodeo","brand":"Texaco","brand:wikidata":"Q775060","check_date:currency:XBT":"2024-12-04","currency:XBT":"yes","name":"Texaco","payment:lightning":"yes","payment:onchain":"yes"}}
{"type":"way","id":1212939180,"center":{"lat":13.7336596,"lon":-89.0609338},"tags":{"amenity":"fuel","brand":"Puma","brand:wikidata":"Q7259769","check_date:currency:XBT":"2024-12-03","currency:XBT":"yes","name":"Puma San Martin","payment:lightning":"yes","payment:onchain":"yes"}}
{"type":"way","id":1222122523,"center":{"lat":13.7052466,"lon":-89.2072074},"tags":{"alt_name":"SERTRACEN Oficinas Centrales","branch":"San Salvador","building":"yes","check_date:currency:XBT":"2024-12-10","currency:XBT":"yes","government":"transport","height":"8","name":"Sertracen","office":"government","opening_hours":"Mo-Fr 08:00-16:00; Sa 08:00-12:00; Su off","payment:lightning":"yes","payment:onchain":"yes","phone":"+503 2233 5555","website":"https://www.sertracen.com.sv/"}}
{"type":"way","id":1225827931,"center":{"lat":13.6835403,"lon":-89.2266479},"tags":{"branch":"Los Próceres","brand":"La Curacao","brand:wikidata":"Q5194599","brand:wikipedia":"en:Curacao (retail store)","building":"yes","check_date:currency:XBT":"2024-12-04","currency:XBT":"yes","name":"La Curacao","payment:lightning":"yes","payment:onchain":"yes","shop":"electronics","source":"KG Ground Survey 2015"}}
{"type":"way","id":1225827934,"center":{"lat":13.6835229,"lon":-89.2268251},"tags":{"addr:city":"San Salvador","addr:street":"Boulevard Los Próceres","branch":"Los Próceres","brand":"RadioShack","brand:wikidata":"Q1195490","building":"yes","check_date:currency:XBT":"2024-12-03","currency:XBT":"yes","name":"RadioShack","payment:lightning":"yes","payment:onchain":"yes","shop":"electronics"}}
{"type":"way","id":1236763400,"center":{"lat":13.9603435,"lon":-89.1828543},"tags":{"amenity":"fast_food","branch":"Aguilares","brand":"Pollo Campestre","building":"retail","check_date:currency:XBT":"2024-12-02","cuisine":"chicken","currency:XBT":"yes","name":"Pollo Campestre","payment:lightning":"yes","payment:onchain":"yes"}}
{"type":"way","id":1236763401,"center":{"lat":13.9604261,"lon":-89.1832859},"tags":{"addr:street":"Troncal del Norte","amenity":"fast_food","branch":"Aguilares","brand":"McDonald's","brand:wikidata":"Q38076","building":"retail","check_date:currency:XBT":"2024-12-02","contact:email":"servicio.cliente@mcd.com.sv","contact:phone":"+503 2509 9999","contact:website":"https://domicilio.mcdonalds.com.sv","cuisine":"burger","currency:XBT":"yes","drive_through":"yes","name":"McDonald's","opening_hours":"Fr-Sa 06:00-01:00; Mo-Th,Su 06:00-24:00","payment:lightning":"yes","payment:onchain":"yes","takeaway":"yes"}}
{"type":"way","id":1265180801,"center":{"lat":13.7023684,"lon":-89.2391523},"tags":{"amenity":"cafe","branch":"Paseo Escalón","brand":"Starbucks","brand:wikidata":"Q37158","building":"yes","check_date":"2024-03-22","check_date:currency:XBT":"2024-12-02","cuisine":"coffee_shop","currency:XBT":"yes","name":"Starbucks","official_name":"Starbucks Coffee","payment:lightning":"yes","payment:onchain":"yes","takeaway":"yes"}}
{"type":"way","id":1267594424,"center":{"lat":13.7256799,"lon":-89.2165064},"tags":{"addr:city":"San Salvador","addr:street":"Avenida Bernal","amenity":"fuel","branch":"Colonia Satélite","brand":"Texaco","brand:wikidata":"Q775060","check_date:currency:XBT":"2024-12-04","currency:XBT":"yes","name":"Texaco","payment:lightning":"yes","payment:onchain":"yes"}}
{"type":"way","id":1382409029,"center":{"lat":13.7857907,"lon":-89.1962933},"tags":{"addr:street":"Centro Comercial El Encuentro Valle Dulce","amenity":"cafe","brand":"Starbucks","brand:wikidata":"Q37158","building":"yes","check_date":"2024-03-29","check_date:currency:XBT":"2024-12-02","cuisine":"coffee_shop","currency:XBT":"yes","internet_access":"yes","internet_access:fee":"no","name":"Starbucks","official_name":"Starbucks Coffee","operator":"Starbucks","outdoor_seating":"no","payment:lightning":"yes","payment:onchain":"yes","takeaway":"yes"}}
{"type":"relation","id":5426560,"center":{"lat":13.6977272,"lon":-89.1920422},"tags":{"addr:city":"San Salvador","addr:street":"Avenida Cuscatlán","architect":"Pascasio González Erazo","building":"yes","building:colour":"white","building:levels":"2","building:material":"concrete","check_date:currency:XBT":"2024-12-11","currency:XBT":"yes","height":"10","museum":"history","name":"Palacio Nacional de El Salvador","name:en":"National Palace of El Salvador","payment:lightning":"yes","payment:onchain":"yes","roof:colour":"DF4B2C","roof:material":"roof_tiles","roof:shape":"2 face (pitched)","tourism":"museum","type":"multipolygon","wikidata":"Q6057757"}}
{"type":"relation","id":5969463,"center":{"lat":13.6718597,"lon":-89.2877574},"tags":{"addr:city":"Santa Tecla","addr:street":"4a Calle Oriente","amenity":"fuel","brand":"Puma","brand:wikidata":"Q7259769","brand:wikipedia":"en:Puma Energy","building":"roof","check_date:currency:XBT":"2024-12-03","currency:XBT":"yes","fuel:diesel":"yes","fuel:octane_95":"yes","fuel:octane_98":"yes","name":"Gasolinera Puma","payment:lightning":"yes","payment:onchain":"yes","self_service":"yes","source":"KG Ground Survey 2015","type":"multipolygon"}}
{"type":"relation","id":6009167,"center":{"lat":13.7337165,"lon":-89.0608572},"tags":{"addr:city":"San Martín","addr:street":"Panamericana","building":"roof","check_date:currency:XBT":"2024-12-03","currency:XBT":"yes","name":"Super 7","payment:lightning":"yes","payment:onchain":"yes","shop":"convenience","type":"multipolygon"}}
