{
  "version": 0.6,
  "generator": "Overpass API 0.7.62.8 e802775f",
  "osm3s": {
    "timestamp_osm_base": "2025-09-20T15:24:11Z",
    "copyright": "The data included in this document is from www.openstreetmap.org. The data is made available under ODbL."
  },
  "elements": [

{
  "type": "way",
  "id": 396795805,
  "center": {
    "lat": 13.7292695,
    "lon": -89.2118134
  },
  "tags": {
    "addr:city": "San Salvador",
    "addr:postcode": "00503",
    "addr:street": "Av. Las Termópilas",
    "amenity": "fast_food",
    "building": "yes",
    "check_date:currency:XBT": "2024-12-03",
    "cuisine": "chicken",
    "currency:XBT": "yes",
    "name": "Don Pollo",
    "operator": "Don Pollo",
    "payment:lightning": "yes",
    "payment:onchain": "yes",
    "source": "KG Ground Survey 2016"
  }
},
{
  "type": "way",
  "id": 396925149,
  "center": {
    "lat": 13.7218855,
    "lon": -89.2224561
  },
  "tags": {
    "addr:street": "Boulevard Constitucion",
    "amenity": "fast_food",
    "brand": "Papa John's",
    "brand:wikidata": "Q2759586",
    "building": "yes",
    "check_date:currency:XBT": "2024-12-02",
    "cuisine": "pizza",
    "currency:XBT": "yes",
    "name": "Papa John's",
    "payment:lightning": "yes",
    "payment:onchain": "yes",
    "phone": "2273 3333",
    "source": "Survey",
    "takeaway": "yes"
  }
},
{
  "type": "way",
  "id": 396990916,
  "center": {
    "lat": 13.7265445,
    "lon": -89.1876981
  },
  "tags": {
    "addr:city": "Mejicanos",
    "addr:postcode": "503",
    "addr:street": "Calle a Mariona",
    "building": "yes",
    "building:levels": "1",
    "check_date:currency:XBT": "2023-02-13",
    "currency:XBT": "yes",
    "leisure": "fitness_centre",
    "name": "La Roca Gym Mejicanos",
    "opening_hours": "Mo-Sa 04:30-21:30",
    "payment:lightning": "yes",
    "payment:lightning_contactless": "no",
    "payment:onchain": "yes",
    "phone": "+503 7430 0981",
    "roof:levels": "1",
    "website": "https://www.facebook.com/Gimnaciolarocamejicanos"
  }
},
{
  "type": "way",
  "id": 397116783,
  "center": {
    "lat": 13.7290858,
    "lon": -89.2102099
  },
  "tags": {
    "addr:street": "Calle Zacamil",
    "amenity": "fast_food",
    "branch": "Unicentro Zacamil",
    "brand": "Pollo Campero",
    "brand:wikidata": "Q942741",
    "building": "yes",
    "check_date:currency:XBT": "2024-12-02",
    "cuisine": "chicken",
    "currency:XBT": "yes",
    "name": "Pollo Campero",
    "payment:lightning": "yes",
    "payment:onchain": "yes",
    "source": "KG Ground Survey 2016",
    "takeaway": "yes"
  }
},
{
  "type": "way",
  "id": 397143725,
  "center": {
    "lat": 13.7130446,
    "lon": -89.1924860
  },
  "tags": {
    "amenity": "fast_food",
    "branch": "San Miguelito",
    "brand": "McDonald's",
    "brand:wikidata": "Q38076",
    "building": "yes",
    "check_date:currency:XBT": "2024-12-02",
    "contact:email": "servicio.cliente@mcd.com.sv",
    "contact:phone": "+503 2509 9999",
    "contact:website": "https://domicilio.mcdonalds.com.sv",
    "cuisine": "burger",
    "currency:XBT": "yes",
    "name": "McDonald's",
    "opening_hours": "Fr-Sa 06:00-22:30; Mo-Th,Su 06:00-22:00",
    "payment:lightning": "yes",
    "payment:onchain": "yes",
    "source": "Visit",
    "takeaway": "yes"
  }
},
{
  "type": "way",
  "id": 397150982,
  "center": {
    "lat": 13.7085409,
    "lon": -89.1906360
  },
  "tags": {
    "addr:city": "San Salvador",
    "addr:street": "Avenida España",
    "amenity": "fuel",
    "brand": "Puma",
    "brand:wikidata": "Q7259769",
    "check_date:currency:XBT": "2024-12-03",
    "currency:XBT": "yes",
    "name": "Puma",
    "payment:lightning": "yes",
    "payment:onchain": "yes",
    "source": "KG Ground Survey 2016"
  }
},
{
  "type": "way",
  "id": 397322967,
  "center": {
    "lat": 13.6718024,
    "lon": -89.2886606
  },
  "tags": {
    "addr:street": "4a Calle Poniente",
    "brand": "Dollarcity",
    "brand:wikidata": "Q107120814",
    "building": "retail",
    "check_date:currency:XBT": "2024-12-03",
    "currency:XBT": "yes",
    "name": "Dollarcity",
    "payment:lightning": "yes",
    "payment:onchain": "yes",
    "shop": "variety_store",
    "source": "KG Ground Survey 2016"
  }
},
{
  "type": "way",
  "id": 398006218,
  "center": {
    "lat": 13.6682831,
    "lon": -89.2803816
  },
  "tags": {
    "addr:city": "Santa Tecla",
    "addr:housenumber": "33",
    "addr:street": "10 Calle Oriente",
    "amenity": "social_facility",
    "building": "house",
    "check_date:currency:XBT": "2025-02-10",
    "contact:facebook": "https://www.facebook.com/p/Mi-Casa-Kids-100069715321667/",
    "currency:XBT": "yes",
    "name": "Mi Casa Kids",
    "payment:lightning": "yes",
    "payment:onchain": "yes",
    "phone": "+50325560300",
    "social_facility": "group_home",
    "social_facility:for": "orphan",
    "source": "KG Ground Survey 2016",
    "website": "https://www.micasakids.org/"
  }
},
{
  "type": "way",
  "id": 398046831,
  "center": {
    "lat": 13.7123080,
    "lon": -89.2474816
  },
  "tags": {
    "amenity": "fuel",
    "brand": "Texaco",
    "brand:wikidata": "Q775060",
    "building": "roof",
    "check_date:currency:XBT": "2024-12-04",
    "currency:XBT": "yes",
    "name": "Texaco Lomas Verdes",
    "payment:lightning": "yes",
    "payment:onchain": "yes",
    "source": "KG Ground Survey 2015"
  }
},
{
  "type": "way",
  "id": 398061441,
  "center": {
    "lat": 13.7073405,
    "lon": -89.1052317
  },
  "tags": {
    "addr:city": "San Bartolo",
    "addr:street": "Boulevard San Bartolo",
    "amenity": "fuel",
    "building": "roof",
    "check_date:currency:XBT": "2024-12-04",
    "currency:XBT": "yes",
    "name": "Dlc",
    "payment:lightning": "yes",
    "payment:onchain": "yes",
    "source": "KG Ground Survey 2015"
  }
},
{
  "type": "way",
  "id": 398069872,
  "center": {
    "lat": 13.7063444,
    "lon": -89.1044837
  },
  "tags": {
    "addr:city": "San Bartolo",
    "addr:street": "4 Avenida Norte",
    "amenity": "fast_food",
    "building": "yes",
    "check_date:currency:XBT": "2024-12-03",
    "currency:XBT": "yes",
    "name": "Don Pollo",
    "payment:lightning": "yes",
    "payment:onchain": "yes",
    "source": "KG Ground Survey 2015"
  }
},
{
  "type": "way",
  "id": 398069876,
  "center": {
    "lat": 13.6976538,
    "lon": -89.1110430
  },
  "tags": {
    "addr:city": "Llopango",
    "addr:street": "Boulevard del Ejército",
    "amenity": "fuel",
    "area": "yes",
    "brand": "Puma",
    "brand:wikidata": "Q7259769",
    "building": "yes",
    "check_date:currency:XBT": "2024-12-03",
    "currency:XBT": "yes",
    "layer": "1",
    "name": "Puma Ilopango",
    "operator": "Puma Energy",
    "payment:lightning": "yes",
    "payment:onchain": "yes",
    "source": "KG Ground Survey 2015"
  }
},
{
  "type": "way",
  "id": 398429647,
  "center": {
    "lat": 13.7019705,
    "lon": -89.2240353
  },
  "tags": {
    "brand": "Dollarcity",
    "brand:wikidata": "Q107120814",
    "building": "yes",
    "check_date:currency:XBT": "2024-12-03",
    "currency:XBT": "yes",
    "name": "Dollarcity",
    "payment:lightning": "yes",
    "payment:onchain": "yes",
    "shop": "variety_store",
    "source": "KG Ground Survey 2016"
  }
},
{
  "type": "way",
  "id": 398429649,
  "center": {
    "lat": 13.7019717,
    "lon": -89.2250708
  },
  "tags": {
    "addr:city": "San Salvador",
    "alt_name": "McDonald's Salvador del Mundo",
    "amenity": "fast_food",
    "brand": "McDonald's",
    "brand:wikidata": "Q38076",
    "brand:wikipedia": "en:McDonald's",
    "building": "yes",
    "check_date:currency:XBT": "2024-12-02",
    "contact:email": "servicio.cliente@mcd.com.sv",
    "contact:phone": "+503 2509 9999",
    "contact:website": "https://domicilio.mcdonalds.com.sv",
    "cuisine": "burger",
    "currency:XBT": "yes",
    "delivery": "yes",
    "drive_through": "yes",
    "name": "McDonald's",
    "opening_hours": "Fr-Sa 05:30-00:00; Mo-Th,Su 06:00-23:00",
    "operator": "Arcos Doradas CV SA GT",
    "outdoor_seating": "no",
    "payment:lightning": "yes",
    "payment:onchain": "yes",
    "smoking": "no",
    "source": "KG Ground Survey 2016",
    "takeaway": "yes"
  }
},
{
  "type": "way",
  "id": 398432883,
  "center": {
    "lat": 13.6976155,
    "lon": -89.2277155
  },
  "tags": {
    "building": "yes",
    "check_date:currency:XBT": "2024-12-03",
    "currency:XBT": "yes",
    "name": "Super 7",
    "payment:lightning": "yes",
    "payment:onchain": "yes",
    "shop": "convenience",
    "source": "KG Ground Survey 2016"
  }
},
{
  "type": "way",
  "id": 398551613,
  "center": {
    "lat": 13.7955915,
    "lon": -89.1778052
  },
  "tags": {
    "amenity": "fuel",
    "brand": "Puma",
    "brand:wikidata": "Q7259769",
    "building": "roof",
    "check_date:currency:XBT": "2024-12-03",
    "currency:XBT": "yes",
    "name": "Puma",
    "payment:lightning": "yes",
    "payment:onchain": "yes",
    "source": "KG Ground Survey 2016"
  }
},
{
  "type": "way",
  "id": 399273041,
  "center": {
    "lat": 13.7001011,
    "lon": -89.1783238
  },
  "tags": {
    "addr:street": "Avenida Independencia",
    "amenity": "fast_food",
    "branch": "Avenida Peralta",
    "brand": "Pollo Campero",
    "brand:wikidata": "Q942741",
    "brand:wikipedia": "en:Pollo Campero",
    "building": "yes",
    "check_date:currency:XBT": "2024-12-02",
    "cuisine": "chicken",
    "currency:XBT": "yes",
    "name": "Pollo Campero",
    "operator": "Pollo Campero",
    "payment:lightning": "yes",
    "payment:onchain": "yes",
    "source": "KG Ground Survey 2016",
    "takeaway": "yes"
  }
},
{
  "type": "way",
  "id": 399289735,
  "center": {
    "lat": 13.7206991,
    "lon": -89.1695165
  },
  "tags": {
    "addr:street": "Avenida Paleca",
    "amenity": "fast_food",
    "building": "yes",
    "check_date:currency:XBT": "2024-12-03",
    "currency:XBT": "yes",
    "name": "Don Pollo",
    "payment:lightning": "yes",
    "payment:onchain": "yes",
    "source": "KG Ground Survey 2016"
  }
},
{
  "type": "way",
  "id": 399320617,
  "center": {
    "lat": 13.7016001,
    "lon": -89.1828113
  },
  "tags": {
    "addr:city": "San Salvador",
    "amenity": "fuel",
    "brand": "Puma",
    "brand:wikidata": "Q7259769",
    "brand:wikipedia": "en:Puma Energy",
    "building": "roof",
    "check_date:currency:XBT": "2024-12-03",
    "currency:XBT": "yes",
    "name": "Puma",
    "payment:lightning": "yes",
    "payment:onchain": "yes",
    "source": "KG Ground Survey 2016"
  }
},
{
  "type": "way",
  "id": 399328308,
  "center": {
    "lat": 13.7974659,
    "lon": -89.1781950
  },
  "tags": {
    "addr:city": "Apopa",
    "addr:street": "Avenida Quirino Chávez",
    "brand": "La Curacao",
    "brand:wikidata": "Q5194599",
    "building": "yes",
    "check_date:currency:XBT": "2024-12-04",
    "currency:XBT": "yes",
    "name": "La Curacao",
    "payment:lightning": "yes",
    "payment:onchain": "yes",
    "shop": "electronics",
    "source": "KG Ground Survey 2016"
  }
},
{
  "type": "way",
  "id": 399508126,
  "center": {
    "lat": 13.8014871,
    "lon": -89.1760013
  },
  "tags": {
    "addr:city": "Apopa",
    "addr:street": "Carretera Troncal del Norte",
    "building": "yes",
    "check_date:currency:XBT": "2024-12-03",
    "currency:XBT": "yes",
    "name": "Maxi Despensa",
    "payment:lightning": "yes",
    "payment:onchain": "yes",
    "shop": "supermarket",
    "source": "KG Ground Survey 2016"
  }
},
{
  "type": "way",
  "id": 399509384,
  "center": {
    "lat": 13.6983911,
    "lon": -89.1955020
  },
  "tags": {
    "addr:city": "San Salvador",
    "addr:street": "2a Calle Poniente",
    "building": "yes",
    "check_date:currency:XBT": "2024-12-04",
    "currency:XBT": "yes",
    "layer": "1",
    "name": "Curacao",
    "payment:lightning": "yes",
    "payment:onchain": "yes",
    "shop": "electronics",
    "source": "KG Ground Survey 2016"
  }
},
{
  "type": "way",
  "id": 399524344,
  "center": {
    "lat": 13.7023349,
    "lon": -89.2313042
  },
  "tags": {
    "addr:street": "Paseo General Escalón",
    "building": "yes",
    "check_date:currency:XBT": "2024-12-03",
    "currency:XBT": "yes",
    "name": "Super 7",
    "payment:lightning": "yes",
    "payment:onchain": "yes",
    "shop": "convenience",
    "source": "KG Ground Survey 2016"
  }
},
{
  "type": "way",
  "id": 399530076,
  "center": {
    "lat": 13.7036236,
    "lon": -89.2465223
  },
  "tags": {
    "amenity": "fast_food",
    "brand": "Taco Bell",
    "brand:wikidata": "Q752941",
    "brand:wikipedia": "en:Taco Bell",
    "building": "yes",
    "check_date:currency:XBT": "2024-12-02",
    "cuisine": "tex-mex",
    "currency:XBT": "yes",
    "name": "Taco Bell",
    "payment:lightning": "yes",
    "payment:onchain": "yes",
    "source": "KG Ground Survey 2016",
    "takeaway": "yes"
  }
},
{
  "type": "way",
  "id": 399532206,
  "center": {
    "lat": 13.7056518,
    "lon": -89.2488910
  },
  "tags": {
    "addr:street": "Avenida Masferrer Sur",
    "amenity": "fast_food",
    "brand": "Wendy's",
    "brand:wikidata": "Q550258",
    "building": "yes",
    "check_date:currency:XBT": "2024-12-02",
    "cuisine": "burger",
    "currency:XBT": "yes",
    "drive_through": "yes",
    "name": "Wendy's",
    "payment:lightning": "yes",
    "payment:onchain": "yes",
    "source": "KG Ground Survey 2016",
    "takeaway": "yes"
  }
},
{
  "type": "way",
  "id": 399532219,
  "center": {
    "lat": 13.7081199,
    "lon": -89.2485260
  },
  "tags": {
    "addr:street": "Avenida Masferrer Sur",
    "building": "yes",
    "currency:XBT": "yes",
    "name": "Shaw's",
    "payment:lightning": "yes",
    "payment:onchain": "yes",
    "shop": "chocolate",
    "source": "KG Ground Survey 2016",
    "survey:date": "2024-10-19"
  }
},
{
  "type": "way",
  "id": 399533767,
  "center": {
    "lat": 13.7084168,
    "lon": -89.2483372
  },
  "tags": {
    "addr:city": "San Salvador",
    "addr:housenumber": "510",
    "addr:street": "7a Calle Poniente Bis",
    "brand": "Yamaha",
    "brand:wikidata": "Q158888",
    "building": "yes",
    "check_date:currency:XBT": "2024-05-07",
    "currency:XBT": "yes",
    "name": "Yamaha",
    "opening_hours": "Mo-Fr 08:00-18:00, Sa 08:00-12:00",
    "payment:lightning": "yes",
    "payment:onchain": "yes",
    "phone": "+50322981818",
    "shop": "motorcycle",
    "source": "KG Ground Survey 2016",
    "website": "https://www.yamaha-motor.com.sv/"
  }
},
{
  "type": "way",
  "id": 399546790,
  "center": {
    "lat": 13.7087865,
    "lon": -89.2320531
  },
  "tags": {
    "addr:street": "75 Avenida Norte",
    "amenity": "fuel",
    "brand": "Puma",
    "brand:wikidata": "Q7259769",
    "building": "roof",
    "check_date:currency:XBT": "2024-12-03",
    "currency:XBT": "yes",
    "name": "Puma",
    "payment:lightning": "yes",
    "payment:onchain": "yes",
    "source": "KG Ground Survey 2016"
  }
},
{
  "type": "way",
  "id": 399546791,
  "center": {
    "lat": 13.7086942,
    "lon": -89.2318072
  },
  "tags": {
    "building": "yes",
    "check_date:currency:XBT": "2024-12-03",
    "currency:XBT": "yes",
    "name": "Super 7",
    "payment:lightning": "yes",
    "payment:onchain": "yes",
    "shop": "convenience",
    "source": "KG Ground Survey 2016"
  }
},
{
  "type": "way",
  "id": 399682937,
  "center": {
    "lat": 13.6989207,
    "lon": -89.1968105
  },
  "tags": {
    "addr:city": "San Salvador",
    "addr:street": "11 Avenida Sur",
    "building": "yes",
    "check_date:currency:XBT": "2024-12-04",
    "currency:XBT": "yes",
    "name": "Omnisport",
    "payment:lightning": "yes",
    "payment:onchain": "yes",
    "shop": "electronics",
    "source": "KG Ground Survey 2016"
  }
},
{
  "type": "way",
  "id": 399700244,
  "center": {
    "lat": 13.7012068,
    "lon": -89.2265417
  },
  "tags": {
    "addr:city": "San Salvador",
    "addr:street": "Paseo General Escalón",
    "amenity": "bank",
    "area": "yes",
    "building": "yes",
    "check_date:currency:XBT": "2024-12-03",
    "currency:XBT": "yes",
    "name": "Banco Cuscatlán",
    "payment:lightning": "yes",
    "payment:onchain": "yes",
    "source": "KG Ground Survey 2016"
  }
},
{
  "type": "way",
  "id": 399722650,
  "center": {
    "lat": 13.6995722,
    "lon": -89.2353823
  },
  "tags": {
    "amenity": "bank",
    "atm": "yes",
    "building": "yes",
    "check_date:currency:XBT": "2024-12-03",
    "currency:XBT": "yes",
    "drive_through": "yes",
    "name": "Banco Cuscatlan",
    "payment:lightning": "yes",
    "payment:onchain": "yes"
  }
},
{
  "type": "way",
  "id": 399726096,
  "center": {
    "lat": 13.7083837,
    "lon": -89.2383421
  },
  "tags": {
    "addr:city": "San Salvador",
    "addr:housenumber": "11",
    "addr:street": "Calle Poniente, Calle del mirador 4323",
    "building": "yes",
    "check_date:currency:XBT": "2023-11-23",
    "currency:XBT": "yes",
    "guest_house": "bed_and_breakfast",
    "internet_access": "wlan",
    "internet_access:fee": "no",
    "name": "Hotel Sueños",
    "payment:lightning": "yes",
    "payment:lightning_contactless": "no",
    "payment:onchain": "no",
    "phone": "+50325000934",
    "survey:date": "2023-11-18",
    "tourism": "hotel"
  }
},
{
  "type": "way",
  "id": 399741846,
  "center": {
    "lat": 13.7085291,
    "lon": -89.2102416
  },
  "tags": {
    "addr:street": "Pasaje Las Palmeras",
    "amenity": "ice_cream",
    "building": "yes",
    "check_date:currency:XBT": "2024-12-03",
    "currency:XBT": "yes",
    "name": "BOSTON Premiun Ice Cream",
    "payment:lightning": "yes",
    "payment:onchain": "yes",
    "source": "KG Ground Survey 2016"
  }
},
{
  "type": "way",
  "id": 399782016,
  "center": {
    "lat": 13.7093305,
    "lon": -89.2090946
  },
  "tags": {
    "amenity": "fast_food",
    "branch": "Los Heroes",
    "brand": "Wendy's",
    "brand:wikidata": "Q550258",
    "building": "yes",
    "check_date:currency:XBT": "2024-12-02",
    "cuisine": "burger",
    "currency:XBT": "yes",
    "drive_through": "yes",
    "layer": "1",
    "name": "Wendy's",
    "payment:lightning": "yes",
    "payment:onchain": "yes",
    "source": "KG Ground Survey 2016",
    "takeaway": "yes"
  }
},
{
  "type": "way",
  "id": 400044815,
  "center": {
    "lat": 13.7004391,
    "lon": -89.1664589
  },
  "tags": {
    "building": "yes",
    "check_date:currency:XBT": "2024-12-03",
    "currency:XBT": "yes",
    "name": "Maxi Despensa",
    "payment:lightning": "yes",
    "payment:onchain": "yes",
    "shop": "supermarket"
  }
},
{
  "type": "way",
  "id": 400055518,
  "center": {
    "lat": 13.7018524,
    "lon": -89.1616804
  },
  "tags": {
    "addr:city": "San Salvador",
    "addr:street": "Boulevard del Ejército",
    "alt_name": "SERTRACEN Soyapango",
    "branch": "Boulevard del Ejercito",
    "building": "yes",
    "check_date:currency:XBT": "2024-12-10",
    "currency:XBT": "yes",
    "government": "transportation",
    "name": "Sertracen",
    "office": "government",
    "opening_hours": "Mo-Sa 08:00-16:00; Su off",
    "payment:lightning": "yes",
    "payment:onchain": "yes"
  }
},
{
  "type": "way",
  "id": 400056519,
  "center": {
    "lat": 13.7155124,
    "lon": -89.2122563
  },
  "tags": {
    "amenity": "fast_food",
    "branch": "San Luis",
    "brand": "McDonald's",
    "brand:wikidata": "Q38076",
    "brand:wikipedia": "en:McDonald's",
    "building": "construction",
    "check_date:currency:XBT": "2024-12-02",
    "contact:email": "servicio.cliente@mcd.com.sv",
    "contact:phone": "+503 2509 9999",
    "contact:website": "https://domicilio.mcdonalds.com.sv",
    "cuisine": "burger",
    "currency:XBT": "yes",
    "delivery": "yes",
    "delivery:partner": "pedidosya",
    "name": "McDonald's",
    "opening_hours": "Fr 06:00-22:30; Mo-Th,Su 06:00-22:00; Sa 06:00-23:00",
    "payment:lightning": "yes",
    "payment:onchain": "yes",
    "source": "KG Ground Survey 2016",
    "takeaway": "yes"
  }
},
{
  "type": "way",
  "id": 400818639,
  "center": {
    "lat": 13.7366445,
    "lon": -89.0543408
  },
  "tags": {
    "addr:city": "San Martín",
    "addr:street": "4a Avenida",
    "amenity": "fast_food",
    "building": "yes",
    "check_date:currency:XBT": "2024-12-03",
    "currency:XBT": "yes",
    "name": "Don Pollo",
    "payment:lightning": "yes",
    "payment:onchain": "yes",
    "source": "KG Ground Survey 2016"
  }
},
{
  "type": "way",
  "id": 400825899,
  "center": {
    "lat": 13.6925488,
    "lon": -89.2193780
  },
  "tags": {
    "amenity": "fuel",
    "brand": "Texaco",
    "brand:wikidata": "Q775060",
    "brand:wikipedia": "en:Texaco",
    "building": "roof",
    "check_date:currency:XBT": "2024-12-04",
    "currency:XBT": "yes",
    "name": "Texaco",
    "payment:lightning": "yes",
    "payment:onchain": "yes",
    "source": "KG Ground Survey 2016"
  }
},
{
  "type": "way",
  "id": 400846769,
  "center": {
    "lat": 13.6914763,
    "lon": -89.2383578
  },
  "tags": {
    "addr:city": "San Salvador",
    "addr:street": "Avenida Las Magnolias",
    "amenity": "restaurant",
    "building": "yes",
    "check_date:currency:XBT": "2025-07-15",
    "currency:XBT": "yes",
    "name": "Relajo",
    "payment:lightning": "yes",
    "payment:lightning_contactless": "yes",
    "payment:onchain": "yes",
    "source": "KG Ground Survey 2016",
    "survey:date": "2025-03-13"
  }
},
{
  "type": "way",
  "id": 400846773,
  "center": {
    "lat": 13.6906307,
    "lon": -89.2392590
  },
  "tags": {
    "addr:city": "San Salvador",
    "addr:street": "Bulevar Sergio Viera de Mello",
    "amenity": "restaurant",
    "brand": "Denny's",
    "brand:wikidata": "Q1189695",
    "brand:wikipedia": "en:Denny's",
    "building": "yes",
    "check_date:currency:XBT": "2024-12-03",
    "cuisine": "american",
    "currency:XBT": "yes",
    "name": "Denny's",
    "payment:lightning": "yes",
    "payment:onchain": "yes",
    "source": "KG Ground Survey 2016"
  }
},
{
  "type": "way",
  "id": 424940384,
  "center": {
    "lat": 13.6763825,
    "lon": -89.2548794
  },
  "tags": {
    "amenity": "cinema",
    "brand": "Cinemark",
    "brand:wikidata": "Q707530",
    "building": "yes",
    "building:levels": "2",
    "check_date:currency:XBT": "2024-12-04",
    "currency:XBT": "yes",
    "name": "Cinemark La Gran Via",
    "payment:lightning": "yes",
    "payment:onchain": "yes"
  }
},
{
  "type": "way",
  "id": 432685380,
  "center": {
    "lat": 13.7228603,
    "lon": -89.2339104
  },
  "tags": {
    "amenity": "fuel",
    "brand": "Texaco",
    "brand:wikidata": "Q775060",
    "brand:wikipedia": "en:Texaco",
    "building": "roof",
    "check_date:currency:XBT": "2024-12-04",
    "currency:XBT": "yes",
    "name": "Texaco",
    "payment:lightning": "yes",
    "payment:onchain": "yes",
    "source": "KG Ground Survey 2015"
  }
},
{
  "type": "way",
  "id": 455148804,
  "center": {
    "lat": 13.7250233,
    "lon": -89.0905712
  },
  "tags": {
    "amenity": "fuel",
    "check_date:currency:XBT": "2024-12-04",
    "currency:XBT": "yes",
    "name": "Texaco Altavista",
    "payment:lightning": "yes",
    "payment:onchain": "yes"
  }
},
{
  "type": "way",
  "id": 455441414,
  "center": {
    "lat": 13.7015899,
    "lon": -89.1830083
  },
  "tags": {
    "addr:city": "San Salvador",
    "building": "yes",
    "check_date:currency:XBT": "2024-12-03",
    "currency:XBT": "yes",
    "name": "Super 7",
    "payment:lightning": "yes",
    "payment:onchain": "yes",
    "shop": "convenience"
  }
},
{
  "type": "way",
  "id": 465800866,
  "center": {
    "lat": 13.6780568,
    "lon": -89.3000586
  },
  "tags": {
    "addr:city": "Santa Tecla",
    "addr:street": "Avenida Diego de Holguin",
    "amenity": "fast_food",
    "building": "yes",
    "building:levels": "1",
    "check_date:currency:XBT": "2024-12-02",
    "cuisine": "burger;desayunos;cafe",
    "currency:XBT": "yes",
    "delivery": "yes",
    "drive_through": "yes",
    "name": "Mc Donald´s Santa Rosa",
    "opening_hours": "Mo-Su 06:30-23:00",
    "outdoor_seating": "yes",
    "payment:lightning": "yes",
    "payment:onchain": "yes",
    "smoking": "isolated",
    "takeaway": "yes"
  }
},
{
  "type": "way",
  "id": 465800867,
  "center": {
    "lat": 13.6779565,
    "lon": -89.3006084
  },
  "tags": {
    "addr:city": "Santa Tecla",
    "amenity": "fast_food",
    "brand": "Pollo Campero",
    "brand:wikidata": "Q942741",
    "brand:wikipedia": "en:Pollo Campero",
    "building": "yes",
    "building:levels": "1",
    "check_date:currency:XBT": "2024-12-02",
    "cuisine": "chicken",
    "currency:XBT": "yes",
    "drive_through": "yes",
    "name": "Pollo Campero",
    "payment:lightning": "yes",
    "payment:onchain": "yes",
    "takeaway": "yes"
  }
},
{
  "type": "way",
  "id": 474517375,
  "center": {
    "lat": 13.6779323,
    "lon": -89.2980625
  },
  "tags": {
    "addr:city": "Santa Tecla",
    "addr:street": "16 Avenida Norte",
    "amenity": "cafe",
    "brand": "Starbucks",
    "brand:wikidata": "Q37158",
    "building": "yes",
    "building:levels": "1",
    "check_date:currency:XBT": "2024-12-02",
    "cuisine": "coffee_shop",
    "currency:XBT": "yes",
    "name": "Starbucks",
    "official_name": "Starbucks Coffee",
    "payment:lightning": "yes",
    "payment:onchain": "yes",
    "takeaway": "yes"
  }
},
{
  "type": "way",
  "id": 527148432,
  "center": {
    "lat": 13.6983058,
    "lon": -89.2205341
  },
  "tags": {
    "building": "yes",
    "building:levels": "1",
    "check_date:currency:XBT": "2024-12-03",
    "currency:XBT": "yes",
    "name": "Super Selectos",
    "opening_hours": "Su-Th 07:00-22:00; Fr,Sa 07:00-23:00",
    "operator": "Grupo Calleja, S.A de C.V",
    "payment:lightning": "yes",
    "payment:onchain": "yes",
    "phone": "+50322233860",
    "shop": "supermarket"
  }
},
{
  "type": "way",
  "id": 576035308,
  "center": {
    "lat": 13.7149950,
    "lon": -89.1761848
  },
  "tags": {
    "addr:street": "Carretera Troncal del Norte",
    "amenity": "fuel",
    "branch": "Troncal del Norte",
    "brand": "Texaco",
    "brand:wikidata": "Q775060",
    "check_date:currency:XBT": "2024-12-04",
    "currency:XBT": "yes",
    "name": "Texaco",
    "opening_hours": "sunrise-sunset",
    "operator": "Texaco",
    "payment:lightning": "yes",
    "payment:onchain": "yes"
  }
},
{
  "type": "way",
  "id": 596665236,
  "center": {
    "lat": 13.7009692,
    "lon": -89.2223504
  },
  "tags": {
    "amenity": "ice_cream",
    "building": "yes",
    "check_date:currency:XBT": "2024-12-03",
    "currency:XBT": "yes",
    "name": "BOSTON Premiun Ice Cream",
    "payment:lightning": "yes",
    "payment:onchain": "yes"
  }
},
{
  "type": "way",
  "id": 633417710,
  "center": {
    "lat": 13.7162984,
    "lon": -89.2120087
  },
  "tags": {
    "amenity": "bank",
    "atm": "yes",
    "building": "yes",
    "check_date:currency:XBT": "2024-12-03",
    "currency:XBT": "yes",
    "drive_through": "yes",
    "name": "Banco Cuscatlan",
    "operator": "Banco Cuscatlan",
    "payment:lightning": "yes",
    "payment:onchain": "yes"
  }
},
{
  "type": "way",
  "id": 633417711,
  "center": {
    "lat": 13.6724585,
    "lon": -89.2855499
  },
  "tags": {
    "addr:city": "Santa Tecla",
    "addr:street": "3ª Avenida Sur",
    "amenity": "bank",
    "atm": "yes",
    "building": "yes",
    "check_date:currency:XBT": "2024-12-03",
    "currency:XBT": "yes",
    "name": "Banco Cuscatlán",
    "operator": "Banco Cuscatlán",
    "payment:lightning": "yes",
    "payment:onchain": "yes"
  }
},
{
  "type": "way",
  "id": 643111906,
  "center": {
    "lat": 13.6811863,
    "lon": -89.2467564
  },
  "tags": {
    "amenity": "cafe",
    "brand": "Starbucks",
    "brand:wikidata": "Q37158",
    "building": "commercial",
    "building:levels": "1",
    "check_date:currency:XBT": "2024-12-02",
    "cuisine": "coffee_shop",
    "currency:XBT": "yes",
    "height": "5",
    "internet_access": "yes",
    "internet_access:fee": "no",
    "name": "Starbucks",
    "official_name": "Starbucks Coffee",
    "outdoor_seating": "yes",
    "payment:lightning": "yes",
    "payment:onchain": "yes",
    "takeaway": "yes"
  }
},
{
  "type": "way",
  "id": 671289384,
  "center": {
    "lat": 13.7082765,
    "lon": -89.2272201
  },
  "tags": {
    "building": "yes",
    "check_date:currency:XBT": "2024-12-03",
    "currency:XBT": "yes",
    "name": "Super 7",
    "payment:lightning": "yes",
    "payment:onchain": "yes",
    "shop": "convenience"
  }
},
{
  "type": "way",
  "id": 671751940,
  "center": {
    "lat": 13.7020639,
    "lon": -89.2409235
  },
  "tags": {
    "addr:street": "Calle Padres Aguilar",
    "amenity": "ice_cream",
    "building": "yes",
    "check_date:currency:XBT": "2024-12-03",
    "currency:XBT": "yes",
    "name": "BOSTON Premiun Ice Cream",
    "payment:lightning": "yes",
    "payment:onchain": "yes"
  }
},
{
  "type": "way",
  "id": 700431998,
  "center": {
    "lat": 13.7802348,
    "lon": -89.1172395
  },
  "tags": {
    "addr:city": "Tonacatepeque",
    "addr:street": "Calle San Nicolás",
    "air_conditioning": "no",
    "amenity": "fast_food",
    "building": "yes",
    "check_date:currency:XBT": "2024-12-03",
    "cuisine": "chicken",
    "currency:XBT": "yes",
    "delivery": "no",
    "name": "Don Pollo",
    "opening_hours": "Mo-Su 10:00-16:00",
    "payment:lightning": "yes",
    "payment:onchain": "yes",
    "smoking": "no",
    "source": "local knowledge",
    "takeaway": "only"
  }
},
{
  "type": "way",
  "id": 776388874,
  "center": {
    "lat": 13.7156671,
    "lon": -89.2138628
  },
  "tags": {
    "addr:city": "San Salvador",
    "amenity": "fast_food",
    "brand": "Pollo Campero",
    "building": "yes",
    "check_date:currency:XBT": "2024-12-02",
    "cuisine": "chicken",
    "currency:XBT": "yes",
    "drive_through": "no",
    "name": "Pollo Campestre",
    "not:brand:wikidata": "Q942741",
    "opening_hours": "Mo-Su 06:30-21:00",
    "payment:lightning": "yes",
    "payment:onchain": "yes",
    "takeaway": "yes"
  }
},
{
  "type": "way",
  "id": 793156661,
  "center": {
    "lat": 13.7020333,
    "lon": -89.2242287
  },
  "tags": {
    "amenity": "fast_food",
    "building": "yes",
    "check_date:currency:XBT": "2024-12-03",
    "contact:facebook": "https://fb.me/DonPolloElSalvador",
    "cuisine": "chicken",
    "currency:XBT": "yes",
    "name": "Don Pollo",
    "payment:lightning": "yes",
    "payment:onchain": "yes",
    "phone": "+503 2231-9800"
  }
},
{
  "type": "way",
  "id": 793972259,
  "center": {
    "lat": 13.6775988,
    "lon": -89.2863148
  },
  "tags": {
    "amenity": "fast_food",
    "building": "yes",
    "check_date:currency:XBT": "2025-02-24",
    "cuisine": "pizza",
    "currency:XBT": "yes",
    "description": "C'est un restaurant de pizza faite dans un four artesanal.",
    "drive_through": "no",
    "name": "La Clasica",
    "opening_hours": "Mo-Sa 08:00-20:00",
    "payment:lightning": "yes",
    "payment:onchain": "yes",
    "phone": "+50322880777",
    "website": "http://www.pizzerialaclasica.com/MENU_QR.pdf"
  }
},
{
  "type": "way",
  "id": 810909172,
  "center": {
    "lat": 13.6712092,
    "lon": -89.2701388
  },
  "tags": {
    "addr:city": "Santa Tecla",
    "addr:street": "Carril Auxiliar Carretera Panamericana",
    "amenity": "restaurant",
    "branch": "Las Ramblas",
    "brand": "Denny's",
    "brand:wikidata": "Q1189695",
    "brand:wikipedia": "en:Denny's",
    "building": "yes",
    "check_date:currency:XBT": "2024-12-03",
    "cuisine": "american",
    "currency:XBT": "yes",
    "name": "Denny's",
    "opening_hours": "24/7",
    "payment:lightning": "yes",
    "payment:onchain": "yes"
  }
},
{
  "type": "way",
  "id": 810924199,
  "center": {
    "lat": 13.6711342,
    "lon": -89.2688319
  },
  "tags": {
    "addr:city": "Santa Tecla",
    "addr:street": "Carril Auxiliar Carretera Panamericana",
    "amenity": "cafe",
    "brand": "Starbucks",
    "brand:wikidata": "Q37158",
    "brand:wikipedia": "en:Starbucks",
    "building": "yes",
    "check_date:currency:XBT": "2024-12-02",
    "cuisine": "coffee_shop",
    "currency:XBT": "yes",
    "drive_through": "yes",
    "internet_access": "yes",
    "internet_access:fee": "customers",
    "name": "Starbucks",
    "official_name": "Starbucks Coffee",
    "opening_hours": "Mo-Su 10:00-22:00",
    "payment:lightning": "yes",
    "payment:onchain": "yes",
    "takeaway": "yes"
  }
},
{
  "type": "way",
  "id": 953103109,
  "center": {
    "lat": 13.7922710,
    "lon": -89.1753453
  },
  "tags": {
    "addr:city": "Apopa",
    "addr:housenumber": "PeriPlaza",
    "addr:street": "Calle Insinca",
    "air_conditioning": "yes",
    "amenity": "fast_food",
    "brand": "Pollo Campero",
    "brand:wikidata": "Q942741",
    "brand:wikipedia": "en:Pollo Campero",
    "building": "yes",
    "check_date:currency:XBT": "2024-12-03",
    "cuisine": "chicken",
    "currency:XBT": "yes",
    "drive_through": "yes",
    "name": "Pollo Campero",
    "payment:lightning": "yes",
    "payment:onchain": "yes",
    "phone": "+50322736000",
    "takeaway": "yes",
    "website": "https://www.campero.com/sv/inicio"
  }
},
{
  "type": "way",
  "id": 983422602,
  "center": {
    "lat": 13.7042005,
    "lon": -89.1861789
  },
  "tags": {
    "alt_name": "Texaco Centenario",
    "amenity": "fuel",
    "branch": "Parque Centenario",
    "brand": "Texaco",
    "brand:wikidata": "Q775060",
    "brand:wikipedia": "en:Texaco",
    "building": "roof",
    "check_date:currency:XBT": "2024-12-04",
    "currency:XBT": "yes",
    "name": "Texaco Centenario",
    "payment:lightning": "yes",
    "payment:onchain": "yes"
  }
},
{
  "type": "way",
  "id": 984088857,
  "center": {
    "lat": 13.7149225,
    "lon": -89.1452913
  },
  "tags": {
    "amenity": "fuel",
    "building": "roof",
    "check_date:currency:XBT": "2024-12-04",
    "currency:XBT": "yes",
    "name": "Dlc",
    "payment:lightning": "yes",
    "payment:onchain": "yes"
  }
},
{
  "type": "way",
  "id": 984938603,
  "center": {
    "lat": 13.6828538,
    "lon": -89.2313936
  },
  "tags": {
    "alt_name": "Kentucky Fried Chicken",
    "amenity": "fast_food",
    "brand": "KFC",
    "brand:wikidata": "Q524757",
    "brand:wikipedia": "en:KFC",
    "building": "yes",
    "check_date:currency:XBT": "2024-12-02",
    "cuisine": "chicken",
    "currency:XBT": "yes",
    "drive_through": "yes",
    "name": "KFC",
    "payment:lightning": "yes",
    "payment:onchain": "yes",
    "takeaway": "yes"
  }
},
{
  "type": "way",
  "id": 1068606780,
  "center": {
    "lat": 13.7361139,
    "lon": -89.2160313
  },
  "tags": {
    "addr:street": "Boulevard Constitución",
    "branch": "Constitución",
    "brand": "Walmart",
    "brand:wikidata": "Q483551",
    "building": "yes",
    "check_date:currency:XBT": "2024-12-02",
    "currency:XBT": "yes",
    "name": "Walmart Constitución",
    "opening_hours": "Mo-Su 07:00-22:00",
    "payment:cash": "yes",
    "payment:credit_cards": "yes",
    "payment:debit_cards": "yes",
    "payment:lightning": "yes",
    "payment:onchain": "yes",
    "shop": "department_store"
  }
},
{
  "type": "way",
  "id": 1080161608,
  "center": {
    "lat": 13.7130577,
    "lon": -89.1908246
  },
  "tags": {
    "amenity": "fast_food",
    "branch": "San Miguelito",
    "brand": "Pollo Campero",
    "brand:wikidata": "Q942741",
    "building": "yes",
    "check_date:currency:XBT": "2024-12-02",
    "cuisine": "chicken",
    "currency:XBT": "yes",
    "drive_through": "yes",
    "name": "Pollo Campero",
    "opening_hours": "Mo-Su 06:30-21:00",
    "payment:lightning": "yes",
    "payment:onchain": "yes",
    "phone": "22269067",
    "takeaway": "yes"
  }
},
{
  "type": "way",
  "id": 1104467728,
  "center": {
    "lat": 13.7020416,
    "lon": -89.2157876
  },
  "tags": {
    "addr:city": "San Salvador",
    "addr:housenumber": "180",
    "addr:street": "49 Avenida Norte",
    "building": "commercial",
    "building:levels": "2",
    "currency:XBT": "yes",
    "description": "IT Service",
    "height": "6",
    "name": "LiteNet",
    "payment:credit_cards": "yes",
    "payment:lightning": "yes",
    "payment:lightning_contactless": "no",
    "payment:onchain": "yes",
    "phone": "+503 2124 8888",
    "smoking": "outside",
    "survey:date": "2022-10-24",
    "website": "https://www.lite-net.net/"
  }
},
{
  "type": "way",
  "id": 1107296005,
  "center": {
    "lat": 13.7229113,
    "lon": -89.1871250
  },
  "tags": {
    "amenity": "fast_food",
    "building": "yes",
    "check_date:currency:XBT": "2024-12-03",
    "cuisine": "chicken",
    "currency:XBT": "yes",
    "drive_through": "no",
    "name": "Don Pollo",
    "payment:lightning": "yes",
    "payment:onchain": "yes"
  }
},
{
  "type": "way",
  "id": 1107296007,
  "center": {
    "lat": 13.7229652,
    "lon": -89.1879833
  },
  "tags": {
    "amenity": "fast_food",
    "building": "yes",
    "check_date:currency:XBT": "2024-12-02",
    "cuisine": "chicken",
    "currency:XBT": "yes",
    "drive_through": "no",
    "name": "Pollo Campestre",
    "payment:lightning": "yes",
    "payment:onchain": "yes"
  }
},
{
  "type": "way",
  "id": 1108623425,
  "center": {
    "lat": 13.6834591,
    "lon": -89.2297889
  },
  "tags": {
    "amenity": "fast_food",
    "branch": "Los Próceres",
    "brand": "Pollo Campero",
    "brand:wikidata": "Q942741",
    "brand:wikipedia": "en:Pollo Campero",
    "check_date:currency:XBT": "2024-12-02",
    "cuisine": "chicken",
    "currency:XBT": "yes",
    "drive_through": "yes",
    "name": "Pollo Campero",
    "payment:lightning": "yes",
    "payment:onchain": "yes",
    "takeaway": "yes"
  }
},
{
  "type": "way",
  "id": 1110611012,
  "center": {
    "lat": 13.7153935,
    "lon": -89.2027048
  },
  "tags": {
    "addr:city": "San Salvador",
    "addr:street": "25 Avenida Norte",
    "branch": "Universidad Nacional",
    "brand": "Dollarcity",
    "brand:wikidata": "Q107120814",
    "building": "yes",
    "check_date:currency:XBT": "2024-12-03",
    "currency:XBT": "yes",
    "name": "Dollarcity",
    "opening_hours": "Mo-Su 08:00-21:00",
    "operator": "Dollarcity",
    "payment:cash": "yes",
    "payment:credit_cards": "yes",
    "payment:debit_cards": "yes",
    "payment:lightning": "yes",
    "payment:onchain": "yes",
    "shop": "variety_store"
  }
},
{
  "type": "way",
  "id": 1110936185,
  "center": {
    "lat": 13.7194677,
    "lon": -89.2420476
  },
  "tags": {
    "amenity": "fuel",
    "brand": "DLC",
    "check_date:currency:XBT": "2024-12-04",
    "currency:XBT": "yes",
    "name": "DLC Masferrer",
    "name:es": "DLC Altos de la Escalón",
    "opening_hours": "24/7",
    "payment:lightning": "yes",
    "payment:onchain": "yes"
  }
},
{
  "type": "way",
  "id": 1110949728,
  "center": {
    "lat": 13.6992332,
    "lon": -89.2045303
  },
  "tags": {
    "amenity": "fuel",
    "brand": "Puma",
    "brand:wikidata": "Q7259769",
    "check_date:currency:XBT": "2024-12-03",
    "currency:XBT": "yes",
    "name": "Puma Rubén Dario",
    "name:es": "Puma DIDEA",
    "payment:lightning": "yes",
    "payment:onchain": "yes"
  }
},
{
  "type": "way",
  "id": 1110960119,
  "center": {
    "lat": 13.7011495,
    "lon": -89.2157636
  },
  "tags": {
    "building": "yes",
    "check_date:currency:XBT": "2024-12-03",
    "currency:XBT": "yes",
    "name": "Super 7",
    "payment:lightning": "yes",
    "payment:onchain": "yes",
    "shop": "convenience"
  }
},
{
  "type": "way",
  "id": 1115619803,
  "center": {
    "lat": 13.7043060,
    "lon": -89.2047492
  },
  "tags": {
    "amenity": "fuel",
    "branch": "Boulevard Tutunichapa",
    "brand": "Texaco",
    "brand:wikidata": "Q775060",
    "check_date:currency:XBT": "2024-12-04",
    "currency:XBT": "yes",
    "name": "Texaco",
    "payment:lightning": "yes",
    "payment:onchain": "yes"
  }
},
{
  "type": "way",
  "id": 1131912702,
  "center": {
    "lat": 13.7126083,
    "lon": -89.1850898
  },
  "tags": {
    "amenity": "fuel",
    "branch": "Las Terrazas",
    "brand": "Puma",
    "brand:wikidata": "Q7259769",
    "check_date:currency:XBT": "2024-12-03",
    "currency:XBT": "yes",
    "name": "Puma Las Terrazas",
    "payment:lightning": "yes",
    "payment:onchain": "yes",
    "self_service": "yes"
  }
},
{
  "type": "way",
  "id": 1131912703,
  "center": {
    "lat": 13.7125704,
    "lon": -89.1848353
  },
  "tags": {
    "building": "yes",
    "check_date:currency:XBT": "2024-12-03",
    "currency:XBT": "yes",
    "name": "Super 7",
    "payment:lightning": "yes",
    "payment:onchain": "yes",
    "shop": "convenience"
  }
},
{
  "type": "way",
  "id": 1133363332,
  "center": {
    "lat": 13.7152783,
    "lon": -89.1896181
  },
  "tags": {
    "addr:city": "San Salvador",
    "addr:street": "2ª Avenida Norte",
    "alt_name": "Puma España",
    "amenity": "fuel",
    "branch": "La Rábida",
    "brand": "Puma",
    "brand:wikidata": "Q7259769",
    "building": "roof",
    "check_date:currency:XBT": "2024-12-03",
    "compressed_air": "yes",
    "currency:XBT": "yes",
    "fuel:diesel": "yes",
    "fuel:octane_95": "yes",
    "fuel:octane_98": "yes",
    "name": "Puma La Rábida",
    "opening_hours": "Mo-Su,PH 08:00-21:00",
    "payment:lightning": "yes",
    "payment:onchain": "yes"
  }
},
{
  "type": "way",
  "id": 1133593412,
  "center": {
    "lat": 13.7045069,
    "lon": -89.2151571
  },
  "tags": {
    "amenity": "fast_food",
    "branch": "Metrosur",
    "brand": "Pollo Campero",
    "brand:wikidata": "Q942741",
    "check_date:currency:XBT": "2024-12-02",
    "cuisine": "chicken",
    "currency:XBT": "yes",
    "drive_through": "no",
    "name": "Pollo Campero",
    "payment:lightning": "yes",
    "payment:onchain": "yes",
    "takeaway": "yes"
  }
},
{
  "type": "way",
  "id": 1144437415,
  "center": {
    "lat": 13.6753598,
    "lon": -89.2520737
  },
  "tags": {
    "addr:street": "Carretera Panamericana",
    "amenity": "hospital",
    "building": "yes",
    "currency:XBT": "yes",
    "healthcare": "hospital",
    "healthcare:speciality": "pets",
    "name": "Chivo Pets",
    "opening_hours": "Mo-Su 07:00-00:00",
    "operator": "Gobierno de El Salvador",
    "payment:lightning": "yes",
    "survey:date": "2024-12-02",
    "website": "https://chivopets.sv/"
  }
},
{
  "type": "way",
  "id": 1176201608,
  "center": {
    "lat": 13.7330507,
    "lon": -89.2659626
  },
  "tags": {
    "amenity": "cafe",
    "building": "yes",
    "check_date:currency:XBT": "2024-12-09",
    "currency:XBT": "yes",
    "name": "Café del Volcán",
    "payment:lightning": "yes",
    "payment:onchain": "yes"
  }
},
{
  "type": "way",
  "id": 1188582762,
  "center": {
    "lat": 13.6403415,
    "lon": -89.1790139
  },
  "tags": {
    "addr:street": "Carretera a San Marcos",
    "air_conditioning": "yes",
    "breakfast": "yes",
    "building": "yes",
    "currency:XBT": "yes",
    "internet_access": "yes",
    "layer": "1",
    "name": "Hotel Boutique Amatechan",
    "name:en": "Amatechan Hotel & Boutique",
    "payment:lightning": "yes",
    "payment:onchain": "yes",
    "phone": "+503 2212 6510",
    "survey:date": "2024-11-02",
    "tourism": "hotel"
  }
},
{
  "type": "way",
  "id": 1191528184,
  "center": {
    "lat": 13.8902559,
    "lon": -89.1762426
  },
  "tags": {
    "amenity": "fuel",
    "branch": "Rodeo",
    "brand": "Texaco",
    "brand:wikidata": "Q775060",
    "check_date:currency:XBT": "2024-12-04",
    "currency:XBT": "yes",
    "name": "Texaco",
    "payment:lightning": "yes",
    "payment:onchain": "yes"
  }
},
{
  "type": "way",
  "id": 1212939180,
  "center": {
    "lat": 13.7336596,
    "lon": -89.0609338
  },
  "tags": {
    "amenity": "fuel",
    "brand": "Puma",
    "brand:wikidata": "Q7259769",
    "check_date:currency:XBT": "2024-12-03",
    "currency:XBT": "yes",
    "name": "Puma San Martin",
    "payment:lightning": "yes",
    "payment:onchain": "yes"
  }
},
{
  "type": "way",
  "id": 1222122523,
  "center": {
    "lat": 13.7052466,
    "lon": -89.2072074
  },
  "tags": {
    "alt_name": "SERTRACEN Oficinas Centrales",
    "branch": "San Salvador",
    "building": "yes",
    "check_date:currency:XBT": "2024-12-10",
    "currency:XBT": "yes",
    "government": "transport",
    "height": "8",
    "name": "Sertracen",
    "office": "government",
    "opening_hours": "Mo-Fr 08:00-16:00; Sa 08:00-12:00; Su off",
    "payment:lightning": "yes",
    "payment:onchain": "yes",
    "phone": "+503 2233 5555",
    "website": "https://www.sertracen.com.sv/"
  }
},
{
  "type": "way",
  "id": 1225827931,
  "center": {
    "lat": 13.6835403,
    "lon": -89.2266479
  },
  "tags": {
    "branch": "Los Próceres",
    "brand": "La Curacao",
    "brand:wikidata": "Q5194599",
    "brand:wikipedia": "en:Curacao (retail store)",
    "building": "yes",
    "check_date:currency:XBT": "2024-12-04",
    "currency:XBT": "yes",
    "name": "La Curacao",
    "payment:lightning": "yes",
    "payment:onchain": "yes",
    "shop": "electronics",
    "source": "KG Ground Survey 2015"
  }
},
{
  "type": "way",
  "id": 1225827934,
  "center": {
    "lat": 13.6835229,
    "lon": -89.2268251
  },
  "tags": {
    "addr:city": "San Salvador",
    "addr:street": "Boulevard Los Próceres",
    "branch": "Los Próceres",
    "brand": "RadioShack",
    "brand:wikidata": "Q1195490",
    "building": "yes",
    "check_date:currency:XBT": "2024-12-03",
    "currency:XBT": "yes",
    "name": "RadioShack",
    "payment:lightning": "yes",
    "payment:onchain": "yes",
    "shop": "electronics"
  }
},
{
  "type": "way",
  "id": 1236763400,
  "center": {
    "lat": 13.9603435,
    "lon": -89.1828543
  },
  "tags": {
    "amenity": "fast_food",
    "branch": "Aguilares",
    "brand": "Pollo Campestre",
    "building": "retail",
    "check_date:currency:XBT": "2024-12-02",
    "cuisine": "chicken",
    "currency:XBT": "yes",
    "name": "Pollo Campestre",
    "payment:lightning": "yes",
    "payment:onchain": "yes"
  }
},
{
  "type": "way",
  "id": 1236763401,
  "center": {
    "lat": 13.9604261,
    "lon": -89.1832859
  },
  "tags": {
    "addr:street": "Troncal del Norte",
    "amenity": "fast_food",
    "branch": "Aguilares",
    "brand": "McDonald's",
    "brand:wikidata": "Q38076",
    "building": "retail",
    "check_date:currency:XBT": "2024-12-02",
    "contact:email": "servicio.cliente@mcd.com.sv",
    "contact:phone": "+503 2509 9999",
    "contact:website": "https://domicilio.mcdonalds.com.sv",
    "cuisine": "burger",
    "currency:XBT": "yes",
    "drive_through": "yes",
    "name": "McDonald's",
    "opening_hours": "Fr-Sa 06:00-01:00; Mo-Th,Su 06:00-24:00",
    "payment:lightning": "yes",
    "payment:onchain": "yes",
    "takeaway": "yes"
  }
},
{
  "type": "way",
  "id": 1265180801,
  "center": {
    "lat": 13.7023684,
    "lon": -89.2391523
  },
  "tags": {
    "amenity": "cafe",
    "branch": "Paseo Escalón",
    "brand": "Starbucks",
    "brand:wikidata": "Q37158",
    "building": "yes",
    "check_date": "2024-03-22",
    "check_date:currency:XBT": "2024-12-02",
    "cuisine": "coffee_shop",
    "currency:XBT": "yes",
    "name": "Starbucks",
    "official_name": "Starbucks Coffee",
    "payment:lightning": "yes",
    "payment:onchain": "yes",
    "takeaway": "yes"
  }
},
{
  "type": "way",
  "id": 1267594424,
  "center": {
    "lat": 13.7256799,
    "lon": -89.2165064
  },
  "tags": {
    "addr:city": "San Salvador",
    "addr:street": "Avenida Bernal",
    "amenity": "fuel",
    "branch": "Colonia Satélite",
    "brand": "Texaco",
    "brand:wikidata": "Q775060",
    "check_date:currency:XBT": "2024-12-04",
    "currency:XBT": "yes",
    "name": "Texaco",
    "payment:lightning": "yes",
    "payment:onchain": "yes"
  }
},
{
  "type": "way",
  "id": 1382409029,
  "center": {
    "lat": 13.7857907,
    "lon": -89.1962933
  },
  "tags": {
    "addr:street": "Centro Comercial El Encuentro Valle Dulce",
    "amenity": "cafe",
    "brand": "Starbucks",
    "brand:wikidata": "Q37158",
    "building": "yes",
    "check_date": "2024-03-29",
    "check_date:currency:XBT": "2024-12-02",
    "cuisine": "coffee_shop",
    "currency:XBT": "yes",
    "internet_access": "yes",
    "internet_access:fee": "no",
    "name": "Starbucks",
    "official_name": "Starbucks Coffee",
    "operator": "Starbucks",
    "outdoor_seating": "no",
    "payment:lightning": "yes",
    "payment:onchain": "yes",
    "takeaway": "yes"
  }
},
{
  "type": "relation",
  "id": 5426560,
  "center": {
    "lat": 13.6977272,
    "lon": -89.1920422
  },
  "tags": {
    "addr:city": "San Salvador",
    "addr:street": "Avenida Cuscatlán",
    "architect": "Pascasio González Erazo",
    "building": "yes",
    "building:colour": "white",
    "building:levels": "2",
    "building:material": "concrete",
    "check_date:currency:XBT": "2024-12-11",
    "currency:XBT": "yes",
    "height": "10",
    "museum": "history",
    "name": "Palacio Nacional de El Salvador",
    "name:en": "National Palace of El Salvador",
    "payment:lightning": "yes",
    "payment:onchain": "yes",
    "roof:colour": "DF4B2C",
    "roof:material": "roof_tiles",
    "roof:shape": "2 face (pitched)",
    "tourism": "museum",
    "type": "multipolygon",
    "wikidata": "Q6057757"
  }
},
{
  "type": "relation",
  "id": 5969463,
  "center": {
    "lat": 13.6718597,
    "lon": -89.2877574
  },
  "tags": {
    "addr:city": "Santa Tecla",
    "addr:street": "4a Calle Oriente",
    "amenity": "fuel",
    "brand": "Puma",
    "brand:wikidata": "Q7259769",
    "brand:wikipedia": "en:Puma Energy",
    "building": "roof",
    "check_date:currency:XBT": "2024-12-03",
    "currency:XBT": "yes",
    "fuel:diesel": "yes",
    "fuel:octane_95": "yes",
    "fuel:octane_98": "yes",
    "name": "Gasolinera Puma",
    "payment:lightning": "yes",
    "payment:onchain": "yes",
    "self_service": "yes",
    "source": "KG Ground Survey 2015",
    "type": "multipolygon"
  }
},
{
  "type": "relation",
  "id": 6009167,
  "center": {
    "lat": 13.7337165,
    "lon": -89.0608572
  },
  "tags": {
    "addr:city": "San Martín",
    "addr:street": "Panamericana",
    "building": "roof",
    "check_date:currency:XBT": "2024-12-03",
    "currency:XBT": "yes",
    "name": "Super 7",
    "payment:lightning": "yes",
    "payment:onchain": "yes",
    "shop": "convenience",
    "type": "multipolygon"
  }
}

  ]
}
